name,street,zip_code,city
charité - universitätsmedizin berlin,charitéplatz 1,10117,berlin
lmu klinikum,marchioninistraße 15,81377,münchen
universitätsklinikum heidelberg,im neuenheimer feld 672,69120,heidelberg
klinikum chemnitz ggmbh,flemmingstraße 2,09116,chemnitz
universitätsmedizin der johannes gutenberg-universität mainz,langenbeckstraße 1,55131,mainz
universitätsklinikum freiburg,hugstetter straße 55,79106,freiburg
universitätsklinikum tübingen,geissweg 3,72076,tübingen
universitätsmedizin göttingen,robert-koch-straße 40,37075,göttingen
städtisches klinikum karlsruhe,moltkestraße 90,76133,karlsruhe
universitätsklinikum augsburg - am standort medizincampus,stenglinstr. 2,86156,augsburg
medizinische hochschule hannover,carl-neuberg-straße 1,30625,hannover
universitätsklinikum köln,kerpener straße 62,50937,köln
evangelisches klinikum bethel ggmbh standort bethel,kantensiek 11,33617,bielefeld
evangelisches klinikum bethel ggmbh - standort johannesstift,schildescher straße 99,33611,bielefeld
uniklinik rwth aachen,pauwelsstr. 30,52074,aachen
städtisches klinikum braunschweig ggmbh,freisestraße 9/10,38118,braunschweig
universitätsklinikum münster,domagkstr. 5,48149,münster
universitätsklinikum des saarlandes,kirrberger straße 100,66421,homburg
universitätsklinikum würzburg,josef-schneider-straße 2,97080,würzburg
klinikum dortmund nord,münsterstraße 240,44145,dortmund
universitätsklinikum hamburg-eppendorf,martinistraße 52,20246,hamburg
universitätsklinikum jena,bachstraße 18,07743,jena
"universitätsklinikum carl gustav carus dresden an der technischen universität dresden, anstalt des öffentlichen rechts des freistaates sachsen",fetscherstraße 74,01307,dresden
universitätsklinikum erlangen,maximiliansplatz 2,91054,erlangen
klinikum stuttgart - katharinenhospital (kh) und olgahospital / frauenklinik (oh),"kriegsbergstraße 60,62",70174,stuttgart
universitätsklinikum leipzig anstalt öffentlichen rechts,liebigstraße 18,04103,leipzig
universitätsklinikum mannheim gmbh,theodor-kutzer-ufer 1-3,68167,mannheim
universitätsklinikum frankfurt,theodor-stern-kai 7,60590,frankfurt
universitätsklinikum bonn,venusberg-campus 1,53127,bonn
universitätsklinikum düsseldorf,moorenstraße 5,40225,düsseldorf
klinikum nürnberg nord,prof.-ernst-nathan-str. 1,90419,nürnberg
"universitätsklinikum gießen und marburg, standort gießen",rudolf-buchheim-straße 8,35392,gießen
universitätsklinikum ulm,albert-einstein-allee 29,89081,ulm
universitätsklinikum essen,hufelandstr. 55,45147,essen
helios klinikum erfurt,nordhäuser straße 74,99089,erfurt
vivantes klinikum neukölln,rudower straße 48,12351,berlin
klinikum kassel gmbh,mönchebergstraße 41-43,34125,kassel
klinikum rechts der isar der technischen universität münchen,ismaninger straße 22,81675,münchen
helios klinikum krefeld,lutherplatz 40,47805,krefeld
klinikum ernst von bergmann gemeinnützige gmbh,charlottenstr. 72,14467,potsdam
carl-thiem-klinikum cottbus ggmbh,thiemstrasse 111,03048,cottbus
"universitätsklinikum gießen und marburg gmbh, standort marburg",baldingerstraße 01,35043,marburg
helios klinikum berlin-buch,schwanebecker chaussee 50,13125,berlin
"universitätsklinikum schleswig-holstein, campus kiel",arnold-heller-straße 3,24105,kiel
universitätsklinikum magdeburg a. ö. r.,leipziger straße 44,39120,magdeburg
klinikum ingolstadt gmbh,krumenauerstr. 25,85049,ingolstadt
helios kliniken schwerin,wismarsche straße 393-397,19049,schwerin
klinikum st. georg ggmbh,delitzscher straße 141,04129,leipzig
universitätsmedizin rostock - teilkörperschaft der universität rostock,schillingallee 35,18057,rostock
"universitätsklinikum schleswig-holstein, campus lübeck",ratzeburger allee 160,23538,lübeck
klinikum ludwigsburg,posilipostraße 4,71640,ludwigsburg
klinikum der stadt ludwigshafen am rhein ggmbh,bremserstr. 79,67063,ludwigshafen
klinikum fulda gag,pacelliallee 4,36043,fulda
helios dr. horst-schmidt-kliniken wiesbaden,ludwig-erhard-strasse 100,65199,wiesbaden
universitätsklinikum halle (saale),ernst-grube-straße 40,06120,halle
klinikum dortmund mitte,beurhausstraße 40,44137,dortmund
vivantes klinikum im friedrichshain,landsberger allee 49,10249,berlin
slk-kliniken heilbronn gmbh - klinikum am gesundbrunnen,am gesundbrunnen 20-26,74078,heilbronn
srh wald-klinikum gera gmbh,straße des friedens 122,07548,gera
"münchen klinik bogenhausen, münchen klinik ggmbh",englschalkinger str. 77,81925,münchen
klinikum nürnberg süd,breslauer straße 201,90471,nürnberg
"klinikum lüdenscheid, märkische kliniken gmbh",paulmannshöher straße 14,58515,lüdenscheid
universitätsmedizin greifswald - körperschaft des öffentlichen rechts,fleischmannstraße 8,17475,greifswald
helios universitätsklinikum wuppertal gmbh,heusnerstr. 40,42283,wuppertal
städtisches klinikum dresden - standort friedrichstadt,friedrichstraße 41,01067,dresden
krankenhaus barmherzige brüder regensburg,prüfeninger str. 86,93049,regensburg
klinikum bamberg - betriebsstätte am bruderwald,buger straße 80,96049,bamberg
sana klinikum offenbach gmbh,starkenburgring 66,63069,offenbach
westpfalz-klinikum gmbh - standort i kaiserslautern,hellmut-hartert-straße  1,67655,kaiserslautern
asklepios klinikum harburg,eißendorfer pferdeweg 52,21075,hamburg
johannes wesling klinikum minden,hans-nolte-str. 1,32429,minden
schwarzwald-baar klinikum villingen-schwenningen gmbh,klinikstraße 11,78052,villingen-schwenningen
dietrich-bonhoeffer-klinikum standort neubrandenburg,salvador-allende-straße 30,17036,neubrandenburg
klinikum frankfurt höchst gmbh,gotenstraße  6-8,65929,frankfurt
klinikum darmstadt gmbh,grafenstraße 9,64283,darmstadt
universitätsklinikum regensburg,franz-josef-strauß-allee 11,93053,regensburg
klinikum oldenburg aör,rahel-straus-str. 10,26133,oldenburg
klinikum stuttgart - krankenhaus bad cannstatt,prießnitzweg 24,70374,stuttgart
"heinrich-braun-klinikum gemeinnützige gmbh, standort zwickau",karl-keil-straße 35,08060,zwickau
kbo-isar-amper-klinikum münchen-ost,vockestraße 72,85540,haar
lvr-klinik bonn,kaiser-karl-ring 20,53111,bonn
südharz klinikum nordhausen ggmbh,dr.-robert-koch-straße 39,99734,nordhausen
klinikum frankfurt (oder) gmbh,müllroser chaussee 7,15236,frankfurt
klinikum herford,schwarzenmoorstraße 70,32049,herford
psychiatrisches zentrum nordbaden,heidelberger straße 1a,69168,wiesloch
klinikum magdeburg gemeinnützige gmbh,birkenallee 34,39130,magdeburg
klinikum hanau gmbh,leimenstraße 20,63450,hanau
rhön-klinikum campus bad neustadt,von-guttenberg-str.  11,97616,bad
klinikum bremen-mitte,st.-jürgen-straße 1,28205,bremen
klinikum fürth,jakob-henle-straße 1,90766,fürth
klinikum osnabrück gmbh,am finkenhügel 1,49076,osnabrück
klinikum mutterhaus der borromäerinnen - standort mitte,feldstraße 16,54290,trier
marienhospital stuttgart,böheimstraße 37,70199,stuttgart
kliniken maria hilf gmbh,viersener straße 450,41063,mönchengladbach
schön klinik hamburg eilbek,dehnhaide 120,22081,hamburg
klinikum bremerhaven reinkenheide ggmbh,postbrookstraße 103,27574,bremerhaven
bg klinikum hamburg ggmbh,bergedorfer straße 10,21033,hamburg
helios park-klinikum leipzig,strümpellstraße 41,04289,leipzig
klinikum aschaffenburg-alzenau gemeinnützige gmbh,am hasenkopf 1,63739,aschaffenburg
asklepios klinik nord - ochsenzoll,langenhorner chaussee 560,22419,hamburg
kliniken der stadt köln ggmbh - krankenhaus merheim,ostmerheimer str. 200,51109,köln
evangelisches krankenhaus königin elisabeth herzberge ggmbh,herzbergstraße 79,10365,berlin
agaplesion diakonieklinikum rotenburg gemeinnützige gmbh,elise-averdieck-str. 17,27356,rotenburg
"münchen klinik harlaching, münchen klinik ggmbh",sanatoriumsplatz 2,81545,münchen
klinikum bayreuth,preuschwitzer straße 101,95445,bayreuth
städtisches klinikum dessau,auenweg 38,06847,dessau-roßlau
leopoldina-krankenhaus,gustav-adolf-str. 8,97422,schweinfurt
awo psychiatriezentrum,vor dem kaiserdom 10,38154,königslutter
pfalzklinikum,weinstraße 100,76889,klingenmünster
klinikum worms ggmbh,gabriel-von-seidl-str. 81,67550,worms
klinikum bremen-ost,züricher straße 40,28325,bremen
asklepios klinik nord - heidberg,tangstedter landstraße 400,22417,hamburg
asklepios klinik st. georg,lohmühlenstr. 5,20099,hamburg
krankenhaus der barmherzigen brüder trier,nordallee 1,54292,trier
robert-bosch-krankenhaus,auerbachstraße 110,70376,stuttgart
ruppiner kliniken,fehrbelliner straße 38,16816,neuruppin
rems-murr-klinikum winnenden,am jakobsweg 1,71364,winnenden
klinikum leverkusen ggmbh,am gesundheitspark 11,51375,leverkusen
vivantes klinikum spandau,neue bergstraße 6,13585,berlin
rhein-maas klinikum,mauerfeldchen 25,52146,würselen
klinikum esslingen gmbh,hirschlandstraße 97,73730,esslingen
klinikum wilhelmshaven ggmbh,friedrich-paffrath-straße 100,26389,wilhelmshaven
klinikum bielefeld gem. gmbh,teutoburger str. 50,33604,bielefeld
vivantes humboldt-klinikum,am nordgraben 2,13509,berlin
städtisches klinikum solingen gemeinnützige gmbh,gotenstraße 1,42653,solingen
klinikum wetzlar-braunfels,forsthausstraße 1,35578,wetzlar
helios vogtland-klinikum plauen,röntgenstraße 2,08529,plauen
"münchen klinik schwabing, münchen klinik ggmbh",kölner platz 1,80804,münchen
"kliniken nordoberpfalz ag - weiden, vohenstrauß, neustadt",söllnerstraße 16,92637,weiden
zentralklinik bad berka gmbh,robert-koch-allee 9,99437,bad
st. vincentius kliniken karlsruhe,steinhäuserstraße 18,76135,karlsruhe
st. josef-hospital,gudrunstraße 56,44791,bochum
helios st. johannes klinik,an der abtei 7-11,47166,duisburg
fek - friedrich-ebert-krankenhaus neumünster gmbh,friesenstraße 11,24534,neumünster
klinikum passau,innstraße 76,94032,passau
asklepios klinik barmbek,rübenkamp 220,22291,hamburg
lvr-klinikum düsseldorf - kliniken der heinrich-heine-universität düsseldorf,bergische landstraße 2,40629,düsseldorf
agaplesion markus krankenhaus,wilhelm-epstein-straße 4,60431,frankfurt
kliniken dritter orden ggmbh münchen-nymphenburg,menzinger str. 44,80638,münchen
klinikum lippe detmold,röntgenstraße 18,32756,detmold
westküstenklinikum heide,esmarchstraße 50,25746,heide
asklepios klinik altona,paul-ehrlich-straße 1,22763,hamburg
bezirksklinikum regensburg,universitätsstraße 84,93053,regensburg
klinik am eichert,eichertstraße 3,73035,göppingen
romed klinikum rosenheim,ellmaierstraße 23,83022,rosenheim
allgemeines krankenhaus celle,siemensplatz 4,29223,celle
sana klinikum lichtenberg,fanningerstraße 32,10365,berlin
st. franziskus-hospital gmbh münster,hohenzollernring 70,48145,münster
bg-unfallklinik - unfallkrankenhaus berlin ggmbh,warener straße 7,12683,berlin
klinikum am weissenhof,weissenhof _,74189,weinsberg
albertinen krankenhaus / albertinen haus gemeinnützige gmbh,süntelstraße 11a,22457,hamburg
evangelisches krankenhaus mülheim an der ruhr gmbh,wertgasse 30,45468,mülheim
klinikum itzehoe,robert-koch-str. 2,25524,itzehoe
krankenhaus st. elisabeth und st. barbara halle (saale) gmbh,mauerstraße 5,06110,halle
städtisches krankenhaus kiel gmbh,chemnitzstr. 33,24116,kiel
klinikum st. marien amberg,mariahilfbergweg 7,92224,amberg
katholisches klinikum mainz,an der goldgrube 11,55131,mainz
vivantes klinikum am urban,dieffenbachstraße  1,10967,berlin
bg klinikum murnau ggmbh,prof.-küntscher-straße 8,82418,murnau
katholisches klinikum lünen/werne gmbh klinikum lünen st.-marien-hospital,altstadtstraße 23,44534,lünen
marienhospital gelsenkirchen gmbh,virchowstr. 122,45886,gelsenkirchen
ökumenische hainich klinikum ggmbh,pfafferode 102,99974,mühlhausen
sophien- und hufeland-klinikum ggmbh,henry-van-de-velde-straße 2,99425,weimar
kath. marienkrankenhaus gemeinnützige gmbh,alfredstraße 9,22087,hamburg
helios klinikum bad saarow,pieskower straße 33,15526,bad
st. vincenz-krankenhaus,am busdorf 2,33098,paderborn
imland gmbh - imland klinik rendsburg,lilienstr. 20-28,24768,rendsburg
helios klinikum aue,gartenstraße  6,08280,aue
bg klinikum bergmannstrost halle,merseburger straße 165,06112,halle
theresienkrankenhaus mannheim,bassermannstraße 1,68165,mannheim
helios klinikum hildesheim gmbh,senator-braun-allee 33,31135,hildesheim
alexianer krefeld gmbh - krankenhaus maria-hilf,diessemer bruch 81,47805,krefeld
alfried krupp krankenhaus rüttenscheid,alfried-krupp-straße  21,45131,essen
klinikum saarbrücken,winterberg  1,66119,saarbrücken
vivantes auguste-viktoria-klinikum,rubensstraße 125,12157,berlin
klinikum schloß winnenden zentrum für psychiatrie,schloßstr. 50,71364,winnenden
st.-johannes-hospital dortmund,johannesstraße 9-13,44137,dortmund
klinikum bad hersfeld,seilerweg 29,36251,bad
kliniken landkreis heidenheim ggmbh,schloßhaustraße 100,89522,heidenheim
wedau kliniken,zu den rehwiesen 9-11,47055,duisburg
lwl-klinik dortmund psychiatrie - psychotherapie - psychosomatische medizin - rehabilitation - prävention,marsbruchstraße 179,44287,dortmund
krh klinikum siloah,stadionbrücke  4,30449,hannover
bezirksklinikum mainkofen,mainkofen a3,94469,deggendorf
elbe klinikum stade,bremervörder straße 111,21682,stade
florence-nightingale-krankenhaus,kreuzbergstraße 79,40489,düsseldorf
kreisklinikum siegen gmbh,weidenauer straße 76,57076,siegen
asklepios klinik wandsbek,alphonsstraße 14,22043,hamburg
städtisches klinikum görlitz ggmbh,girbigsdorfer straße 1-3,02828,görlitz
klinikum traunstein,cuno-niggl-str. 3,83278,traunstein
klinikum wolfsburg,sauerbruchstraße 7,38440,wolfsburg
städtische kliniken mönchengladbach gmbh,hubertusstraße 100,41239,mönchengladbach
klinikum am steinenberg,steinenbergstraße 31,72764,reutlingen
klinikum coburg gmbh,ketschendorfer straße 33,96450,coburg
"münchen klinik neuperlach, städtisches klinikum münchen gmbh",oskar-maria-graf-ring 51,81737,münchen
st. elisabethen-klinikum,elisabethenstraße 15,88212,ravensburg
lvr-klinik köln,wilhelm-griesinger str. 23,51109,köln
lvr-klinik düren,meckerstraße 15,52353,düren
rheinland klinikum neuss gmbh - lukaskrankenhaus,preußenstraße  84,41464,neuss
kreiskrankenhaus gummersbach,wilhelm-breckow-allee 20,51643,gummersbach
"marien hospital herne, klinikum der ruhr-universität bochum",hölkeskampring 40,44625,herne
st. vincenz-krankenhaus limburg,auf dem schafsberg -,65549,limburg
sana-klinikum remscheid gmbh,burger straße 211,42859,remscheid
"thüringen-kliniken ""georgius agricola"" gmbh",rainweg 68,07318,saalfeld
klinikum idar-oberstein gmbh,dr.-ottmar-kohler-straße 2,55743,idar-oberstein
niels-stensen-kliniken marienhospital osnabrück,bischofsstraße 1,49074,osnabrück
drk kliniken berlin köpenick,salvador-allende-straße 2 - 8,12559,berlin
berufsgenossenschaftliches universitätsklinikum bergmannsheil ggmbh,bürkle-de-la-camp-platz 1,44789,bochum
skh,dr.-max-krell-park 41,02708,großschweidnitz
drk kliniken berlin westend,spandauer damm 130,14050,berlin
klinikum christophsbad göppingen,faurndauer straße 6-28,73035,göppingen
gemeinschaftsklinikum mittelrhein ggmbh / kemperhof,koblenzer straße 115-155,56073,koblenz
klinikum landshut ggmbh,robert-koch-straße 1,84034,landshut
krankenhaus bethanien für die grafschaft moers,bethanienstr. 21,47441,moers
srh zentralklinikum suhl gmbh,albert-schweitzer-straße 2,98527,suhl
asklepios westklinikum hamburg gmbh,suurheid 20,22559,hamburg
klinikum links der weser,senator-weßling-str. 1,28277,bremen
karl-jaspers-klinik,hermann-ehlers-straße 7,26160,bad
evangelisches krankenhaus düsseldorf,kirchfeldstr. 40,40217,düsseldorf
klinikum südstadt rostock,südring 81,18059,rostock
elisabeth-krankenhaus essen,klara-kopp-weg 1,45138,essen
gpr klinikum,august-bebel-straße 59,65428,rüsselsheim
städtisches klinikum lüneburg gemeinnützige gmbh,bögelstraße 1,21339,lüneburg
st. josefs-hospital wiesbaden gmbh,beethovenstr. 20,65189,wiesbaden
st. bernward krankenhaus,treibestr. 9,31134,hildesheim
helios klinikum emil von behring gmbh,walterhöferstraße  11,14165,berlin
bundeswehrzentralkrankenhaus koblenz,rübenacher straße 170,56072,koblenz
st.joseph krankenhaus,wüsthoffstraße 15,12101,berlin
kbo-inn-salzach-klinikum wasserburg,gabersee 7,83512,wasserburg
evangelisches waldkrankenhaus spandau,stadtrandstraße 555,13589,berlin
krankenhaus nordwest,steinbacher hohl 2-26,60488,frankfurt
krankenhaus martha-maria halle-dölau,röntgenstraße 1,06120,halle
klinikum kulmbach,albert-schweitzer-straße 10,95326,kulmbach
"klinikum barnim gmbh, werner forßmann krankenhaus",rudolf-breitscheid-straße 100,16225,eberswalde
memmingen,bismarckstraße 23,87700,memmingen
helios klinikum pforzheim gmbh,kanzlerstraße 2-6,75175,pforzheim
klinikum neumarkt,nürnberger straße 12,92318,neumarkt
siloah st. trudpert klinikum,wilferdinger straße 67,75179,pforzheim
bundeswehrkrankenhaus ulm,oberer eselsberg 40,89081,ulm
asklepios fachklinikum göttingen,rosdorfer weg 70,37081,göttingen
diakonie-klinikum schwäbisch hall ggmbh,diakoniestraße 10,74523,schwäbisch
herz- und diabeteszentrum nrw,georgstrasse  11,32545,bad
zentrum für psychiatrie emmendingen,neubronnstr. 25,79312,emmendingen
klinikum am europakanal,am europakanal 71,91056,erlangen
klinikum rheine / mathias-spital rheine,frankenburgstrasse 31,48431,rheine
medius klinik kirchheim,eugenstr. 3,73230,kirchheim
gemeinschaftskrankenhaus herdecke ggmbh,gerhard-kienle-weg 4,58313,herdecke
krh psychiatrie wunstorf,südstraße  25,31515,wunstorf
zentrum für psychiatrie calw – klinikum nordschwarzwald,im lützenhardter hof 1,75365,calw-hirsau
helios kliniken schwerin - psychiatrie,wismarsche straße 393-397,19049,schwerin
st. marien- und st. annastiftskrankenhaus,salzburger straße 15,67067,ludwigshafen
diakonissen-stiftungs-krankenhaus speyer,paul-egell-straße 33,67346,speyer
brüderhaus koblenz &amp; marienhof koblenz,kardinal-krementz-straße 1-5,56073,koblenz
"klinikum vest gmbh, knappschaftskrankenhaus recklinghausen",dorstener straße 151,45657,recklinghausen
diakonie klinikum ev. jung-stilling-krankenhaus,wichernstraße 40,57074,siegen
krankenhaus gelnhausen,herzbachweg 14,63571,gelnhausen
klinikum kempten,robert-weixler-straße 50,87439,kempten
donauisar klinikum deggendorf,perlasberger str. 41,94469,deggendorf
"krankenhaus lübbecke-rahden, betriebsstelle lübbecke",virchowstraße 65,32312,lübbecke
universitätsklinikum knappschaftskrankenhaus bochum,in der schornau 23-25,44892,bochum
katholisches klinikum essen - betriebsteil philippusstift,hülsmannstraße 17,45355,essen
st. vinzenz-hospital,dr.-otto-seidel-straße 31-33,46535,dinslaken
oberhavel kliniken gmbh / klinik hennigsdorf,marwitzer straße 91,16761,hennigsdorf
ameos klinikum hildesheim,goslarsche landstraße 60,31135,hildesheim
hochtaunus-kliniken ggmbh - bad homburg,zeppelinstraße 20,61352,bad
marienhaus klinikum st. elisabeth saarlouis,kapuziner straße 4,66740,saarlouis
helios klinikum niederberg,robert-koch-straße 2,42549,velbert
diakovere henriettenstift,marienstraße 72-90,30171,hannover
srh klinikum klinikum naumburg,humboldtdtraße 31,06618,naumburg
ortenau klinikum offenburg-kehl betriebsstelle ebertplatz,ebertplatz 12,77654,offenburg
helios hanseklinikum stralsund,große parower straße 47-53,18435,stralsund
vinzenz von paul hospital ggmbh,schwenninger straße 55,78628,rottweil
lvr-klinik viersen,johannisstraße 70,41749,viersen
caritasklinikum saarbrücken standort st. theresia,rheinstraße 2,66113,saarbrücken
sana klinikum hof,eppenreuther str. 9,95032,hof
klinikum bremen-nord,hammersbecker straße 228,28755,bremen
lvr-klinik langenfeld,kölner str. 82,40764,langenfeld
prosper-hospital ggmbh,mühlenstraße 27,45659,recklinghausen
marien hospital düsseldorf gmbh,rochusstr. 2,40479,düsseldorf
st. georg klinikum eisenach gemeinnützige gmbh,mühlhäuser straße 94-95,99817,eisenach
asklepios klinikum uckermark gmbh,am klinikum 1,16303,schwedt
klinikum st. elisabeth straubing gmbh,st.-elisabeth-str. 23,94315,straubing
krankenhaus st. joseph-stift bremen gmbh,schwachhauser heerstraße 54,28209,bremen
evangelisches krankenhaus oberhausen gmbh,virchowstraße 20,46047,oberhausen
agaplesion elisabethenstift evangelisches krankenhaus,landgraf-georg-straße 100,64287,darmstadt
st. josef krankenhaus gmbh moers - betriebsstätte st. josef krankenhaus moers,asberger str. 4,47441,moers
"knappschaftskrankenhaus dortmund, klinikum westfalen gmbh",am knappschaftskrankenhaus 1,44309,dortmund
herzzentrum leipzig gmbh,strümpellstraße 39,04289,leipzig
kmg klinikum güstrow,friedrich-trendelenburg-allee 1,18273,güstrow
agaplesion allgemeines krankenhaus hagen gem. gmbh,grünstr. 35,58095,hagen
krankenhaus düren gem. gmbh,roonstraße 30,52351,düren
hegau-bodensee-klinikum singen,virchowstr. 10,78224,singen
augusta-kranken-anstalt ggmbh bochum,bergstraße 26,44791,bochum
regio kliniken gmbh - klinikum elmshorn,agnes-karll-allee 17,25337,elmshorn
christliches krankenhaus quakenbrück gmbh,danziger straße 2,49610,quakenbrück
marien-hospital,gottfried-disse-straße 40,53879,euskirchen
vivantes wenckebach-klinikum,wenckebachstraße 23,12099,berlin
rheinhessen-fachklinik alzey,dautenheimer landstraße 66,55232,alzey
klinikum westmünsterland st. agnes-hospital bocholt,barloer weg 125,46397,bocholt
helios klinikum meiningen,bergstraße 3,98617,meiningen
helios amper-klinikum dachau,krankenhausstraße 15,85221,dachau
lausitzer seenland klinikum gmbh,maria-grollmuß-straße 10,02977,hoyerswerda
rhein-mosel-fachklinik,vulkanstraße 58,56626,andernach
lwl-klinikum gütersloh,buxelstraße 50,33334,gütersloh
"kem | evang. kliniken essen-mitte, evang. huyssens-stiftung essen-huttrop",henricistraße 92,45136,essen
städtisches klinikum brandenburg gmbh,hochstraße 29,14770,brandenburg
agaplesion ev. klinikum schaumburg,zum schaumburger klinikum 1,31683,obernkirchen
bezirksklinikum ansbach,feuchtwanger straße 38,91522,ansbach
klinikum lippe lemgo,rintelner straße 85,32657,lemgo
evangelische kliniken gelsenkirchen gmbh,munckelstr. 27,45879,gelsenkirchen
caritas-krankenhaus bad mergentheim,uhlandstraße 7,97980,bad
vivantes klinikum kaulsdorf,myslowitzer straße 45,12621,berlin
asklepios klinik langen,röntgenstrasse 20,63225,langen
evangelisches krankenhaus göttingen-weende ggmbh,an der lutter 24,37075,göttingen
marien-hospital wesel ggmbh,pastor-janßen-straße 8-38,46483,wesel
marienhaus klinikum st. elisabeth neuwied,friedrich-ebert-straße 59,56564,neuwied
st.-katharinen-hospital gmbh,kapellenstr. 1-5,50226,frechen
st. marien-krankenhaus siegen,kampenstraße 51,57072,siegen
diakovere friederikenstift,humboldtstraße 5,30169,hannover
klinikum werra meißner gmbh / standort eschwege,elsa-brändström-straße 1,37269,eschwege
krankenhaus hedwigshöhe,höhensteig 1,12526,berlin
klinikum werra meißner gmbh / standort witzenhausen,steinstraße 18-24,37213,witzenhausen
ev. krankenhaus hamm,werler str. 110,59063,hamm
klinikum bad salzungen gmbh,lindigallee 3,36433,bad
sana kliniken leipziger land gmbh - klinikum borna,rudolf-virchow-straße 2,04552,borna
"bezirkskliniken schwaben, bezirkskrankenhaus günzburg",ludwig-heilmeyer-straße 2,89312,günzburg
sana hanse-klinikum wismar gmbh,störtebekerstraße 6,23966,wismar
srh klinikum karlsbad-langensteinbach gmbh,guttmannstraße 1,76307,karlsbad
krankenhaus ludmillenstift,ludmillenstraße 4-6,49716,meppen
krankenhaus porz am rhein ggmbh,urbacher weg 19,51149,köln
ameos klinikum osnabrück,knollstraße 31,49088,osnabrück
"katholisches krankenhaus ""st. johann nepomuk"" erfurt",haarbergstraße 72,99097,erfurt
klinikum altenburger land gmbh,am waldessaum 10,04600,altenburg
krankenhaus mechernich,st. elisabethstr. 2-6,53894,mechernich
carl-von-basedow-klinikum saalekreis ggmbh,weiße mauer  52,06217,merseburg
asklepios fachklinikum stadtroda,bahnhofstr. 1a,07646,stadtroda
klinikum garmisch-partenkirchen - haupthaus,auenstraße 6,82467,garmisch-partenkirchen
oberlausitz-kliniken ggmbh / krankenhaus bautzen,am stadtwall 3,02625,bautzen
johanna-etienne-krankenhaus,am hasenberg 46,41462,neuss
immanuel klinik rüdersdorf,seebad 82/83,15562,rüdersdorf
bethesda krankenhaus,heerstraße 219,47053,duisburg
helios klinikum münchen west,steinerweg 5,81241,münchen
ortenau klinikum lahr-ettenheim standort lahr,klostenstrasse 19,77933,lahr
klinikum gütersloh,reckenberger str. 19,33332,gütersloh
psychiatrische klinik lüneburg gemeinnützige gmbh,am wienebütteler weg 1,21339,lüneburg
hermann-josef-krankenhaus,tenholter str. 43,41812,erkelenz
evangelisches krankenhaus bergisch gladbach ggmbh,ferrenbergstrasse 24,51465,bergisch
st. hedwig-krankenhaus berlin,große hamburger straße 5-11,10115,berlin
krh klinikum nordstadt,haltenhoffstraße 41,30167,hannover
kliniken der stadt köln ggmbh - krankenhaus holweide,neufelder straße 32,51067,köln
kreiskliniken altötting-burghausen standort altötting,vinzenz-von-paul-str. 10,84503,altötting
diakonissenkrankenhaus mannheim,speyerer straße 91-93,68163,mannheim
gesundheitszentrum bitterfeld/wolfen ggmbh,friedrich-ludwig-jahn-str- 2,06749,bitterfeld-wolfen
barmherzige brüder krankenhaus münchen,romanstraße 93,80639,münchen
krankenhaus bietigheim,riedstr. 12,74321,bietigheim-bissingen
gesundheitseinrichtungen hameln-pyrmont gmbh - sana klinikum hameln-pyrmont,saint-maur-platz 1,31785,hameln
evangelisches krankenhaus oldenburg,steinweg 13 - 17,26122,oldenburg
bonifatius hospital lingen,wilhelmstraße 13,49808,lingen
stauferklinikum schwäbisch-gmünd,wetzgauer str. 85,73557,mutlangen
diako ev. diakonie-krankenhaus gemeinnützige gmbh,gröpelinger heerstr.  406,28239,bremen
helios klinikum schwelm,dr.-moeller-straße 15,58332,schwelm
gemeinschaftsklinikum mittelrhein ggmbh / ev. stift. st. martin,johannes-müller-straße 7,56068,koblenz
diakonie-klinikum stuttgart,rosenbergstraße 38,70176,stuttgart
diakonissenkrankenhaus flensburg,knuthstr. 1,24939,flensburg
"knappschaftsklinikum saar gmbh, krankenhaus püttlingen",in der humes 35,66346,püttlingen
"sana kliniken lübeck gmbh, krankenhaus süd",kronsforder allee 71-73,23560,lübeck
städtisches krankenhaus pirmasens ggmbh,pettenkoferstraße 22,66955,pirmasens
"kliniken ostalb, ostalb-klinikum aalen",im kälblesrain 1,73430,aalen
brüderkrankenhaus st. josef paderborn,husener str. 46,33098,paderborn
kjf klinik josefinum ggmbh,kapellenstraße 30,86154,augsburg
"pius-hospital oldenburg, medizinischer campus universität oldenburg",georgstraße 12,26121,oldenburg
johanniter gmbh - zweigniederlassung stendal - johanniter krankenhaus genthin stendal,wendstraße  31,39576,stendal
st. elisabeth-krankenhaus gmbh,werthmannstr. 1,50935,köln
diakonie krankenhaus kreuznacher diakonie,ringstraße 64,55543,bad
klinikum kaufbeuren,dr.-gutermann-straße 2,87600,kaufbeuren
helios klinikum pirna,struppener straße 13,01796,pirna
bg unfallklinik frankfurt am main ggmbh,friedberger landstraße 430,60389,frankfurt.de
klinikum am plattenwald,am plattenwald 1,74177,bad
helios marien klinik,grunewaldstr. 96,47053,duisburg
st. martinus-hospital olpe,hospitalweg 6,57462,olpe
agaplesion diakonieklinikum hamburg,hohe weide 17,20259,hamburg
ev. krankenhaus castrop-rauxel,grutholzallee 21,44577,castrop-rauxel
asklepios fachklinikum brandenburg,anton-saefkow-allee 2,14772,brandenburg
euregio-klinik albert-schweitzer-straße gmbh,albert-schweitzer-str. 10,48527,nordhorn
st.-antonius-hospital ggmbh,dechant-deckers-str. 8,52249,eschweiler
ludgerus-kliniken münster gmbh-standort clemenshospital,düesbergweg 124,48153,münster
kliniken des main-taunus-kreises gmbh,kronberger straße 36,65812,bad
shg-kliniken völklingen,richardstraße 5-9,66333,völklingen
sankt gertrauden-krankenhaus gmbh,paretzer straße 12,10713,berlin
"harzklinikum dorothea christiane erxleben, standort quedlinburg",ditfurter weg 24,06484,quedlinburg
kerckhoff-klinik gmbh,benekestr. 2 - 8,61231,bad
st. marien-hospital ggmbh,hospitalstr. 44,52353,düren-birkesdorf
zentralinstitut für seelische gesundheit (zi),quadrat j5 1,68159,mannheim
klinikum konstanz,mainaustraße 35,78464,konstanz
st. anna hospital herne,hospitalstr. 19,44649,herne
klinikum mittelbaden baden-baden balg,balger straße 50,76532,baden-baden
srh krankenhaus sigmaringen,hohenzollernstrasse 40,72488,sigmaringen
klinikum fürstenfeldbruck,dachauer str. 33,82256,fürstenfeldbruck
luisenhospital aachen,boxgraben 99,52064,aachen
lwl-klinik münster,friedrich-wilhelm-weber-straße 30,48147,münster
ammerland-klinik westerstede,lange straße 38,26655,westerstede
kliniken sindelfingen,arthur-gruber-straße 70,71065,sindelfingen
eka erzgebirgsklinikum annaberg ggmbh,chemnitzer straße 15,09456,annaberg-buchholz
malteser krankenhaus seliger gerhard bonn/rhein-sieg,von-hompesch-str. 1,53123,bonn
alb-donau klinikum ehingen,spitalstrasse 29,89584,ehingen
alb-donau klinikum blaubeuren,ulmer strasse 26,89143,blaubeuren
alb-donau klinikum langenau,karlstrasse 45,89129,langenau
st. elisabeth-krankenhaus leipzig,biedermannstraße 84,04277,leipzig
knappschaftskrankenhaus bottrop gmbh,osterfelder straße  157,46242,bottrop
klinikum emden - hans-susemihl-krankenhaus ggmbh,bolardusstraße 20,26721,emden
schön klinik roseneck se &amp; co. kg,am roseneck 6,83209,prien
lvr-klinik bedburg-hau,bahnstr. 6,47551,bedburg-hau
st. ansgar krankenhaus höxter,brenkhäuser str. 71,37671,höxter
klinikum friedrichshafen gmbh,röntgenstr. 2,88048,friedrichshafen
kliniken erlabrunn ggmbh,am märzenberg 1 a,08359,breitenbrunn
kreiskrankenhaus prignitz gemeinnützige gmbh,dobberziner straße  112,19348,perleberg
bundeswehrkrankenhaus berlin,scharnhorststraße 13,10115,berlin
helios klinikum gotha,heliosstraße 1,99867,gotha
sankt elisabeth hospital gmbh,stadtring kattenstroth 130,33332,gütersloh
kkh-mzg,trierer straße 148,66663,merzig
agaplesion bethesda krankenhaus wuppertal gemeinnützige gmbh,hainstrasse 35,42109,wuppertal
kreisklinik groß-umstadt,krankenhausstr. 11,64823,groß-umstadt
marienhaus klinikum hetzelstift,stiftstraße 10,67434,neustadt
lwl-klinik hemer- hans-prinzhorn klinik,frönsberger straße 71,58657,hemer
helios klinikum siegburg,ringstraße 49,53721,siegburg
alexianer st. joseph-krankenhaus berlin-weißensee,gartenstr. 1,13088,berlin
anregiomed klinikum ansbach,escherichstraße 1,91522,ansbach
sächsisches krankenhaus arnsdorf,hufelandstraße 15,01477,arnsdorf
evangelisches krankenhaus duisburg nord,fahrner straße 133-135,47169,duisburg
st. josef-stift sendenhorst,westtor 7,48324,sendenhorst
schlosspark-klinik,heubnerweg 2,14059,berlin
städtisches klinikum dresden - standort neustadt/trachau,industriestrasse 40,01129,dresden
johanniter gmbh johanniter-krankenhaus treuenbrietzen,johanniterstraße 1,14929,treuenbrietzen
gemeinschaftskrankenhaus havelhöhe,kladower damm 221,14089,berlin
johanniter krankenhaus oberhausen,steinbrinkstraße 96a,46145,oberhausen
evangelisches krankenhaus wesel,schermbecker landstraße  88,46485,wesel
st. marien-hospital mülheim an der ruhr gmbh,kaiserstraße 50,45468,mülheim
st. bernhard-hospital kamp-lintfort gmbh,bürgermeister-schmelzing-straße 90,47475,kamp-lintfort
"elblandkliniken stiftung &amp;amp; co. kg, elblandklinikum meißen",nassauweg 7,01662,meißen
karl-olga-krankenhaus gmbh,hackstraße 61,70190,stuttgart
nordwest-krankenhaus sanderbusch ggmbh,am gut sanderbusch 1,26452,sande
fürst-stirum-klinik bruchsal,gutleutstraße 1-14,76646,bruchsal
städtisches krankenhaus eisenhüttenstadt gmbh,friedrich-engels-straße 39,15890,eisenhüttenstadt
städtisches krankenhaus eisenhüttenstadt gmbh,dr.-ayrer-straße 1-4,03172,guben
städtisches krankenhaus eisenhüttenstadt gmbh,schützenstraße 28b,15848,beeskow
klinikum freising gmbh,alois-steinecker-straße 18,85354,freising
diakonissenkrankenhaus karlsruhe-rüppurr,diakonissenstraße 28,76199,karlsruhe
bethesda krankenhaus bergedorf ggmbh,glindersweg 80,21029,hamburg
st. barbara-klinik hamm-heessen,am heessener wald 1,59073,hamm
st. vincenz-krankenhaus,rottstraße 11,45711,datteln
krankenhaus reinbek st. adolf-stift gmbh,hamburger straße 41,21465,reinbek
klinikum leer ggmbh,augustenstraße 35 - 37,26789,leer
krankenhaus agatharied gmbh,norbert-kerkel-platz 1,83734,hausham
johanniter gmbh - ev. krankenhaus bethesda mönchengladbach,ludwig-weber-str. 15,41061,mönchengladbach
psychiatrisches krankenhaus rickling,daldorfer straße 2,24635,rickling
krh klinikum robert koch gehrden,von-reden-straße 1,30989,gehrden
martin gropius krankenhaus gmbh,oderberger straße 8,16225,eberswalde
krankenhaus landshut-achdorf,achdorfer weg 3,84036,landshut
herz-jesu-krankenhaus hiltrup gmbh,westfalenstr. 109,48165,münster
helios fachkliniken hildburghausen,eisfelder straße 41,98646,hildburghausen
marien hospital witten,marienplatz 2,58452,witten
"elblandkliniken stiftung &amp;amp; co. kg, elblandklinikum radebeul",heinrich-zille-straße 13,01445,radebeul
vinzenzkrankenhaus hannover,lange-feld-strasse 31,30559,hannover
"dr. fontheim, klinik für psychiatrie, psychotherapie und psychosomatik",lindenstraße 15,38704,liebenburg
helios klinikum gifhorn gmbh,campus 6,38518,gifhorn
duisburg,großenbaumer allee 250,47249,duisburg
sana klinikum biberach,ziegelhausstraße 50,88400,biberach
krankenhaus freudenstadt,karl-von-hahn-straße 120,72250,freudenstadt
st. barbara-hospital,barbarastraße 1,45964,gladbeck
katholisches-karl-leisner-klinikum ggmbh standort st.-antonius-hospital,albersallee 5-7,47533,kleve
kwm juliusspital würzburg,juliuspromenade 19,97070,würzburg
krankenhaus schlüchtern,kurfürstenstr. 17,36381,schlüchtern
malteser krankenhaus st. franziskus-hospital,waldstraße 17,24939,flensburg
st. elisabeth krankenhaus wittlich,koblenzer straße 91,54516,wittlich
malteser krankenhaus st. anna,albertus-magnus straße  33,47259,duisburg
bg klinik tübingen,schnarrenbergstr. 95,72076,tübingen
katharinen-hospital - ggmbh,obere husemannstrasse 2,59423,unna
kreiskrankenhaus freiberg,donatsring 20,09599,freiberg
bürgerhospital und clementine kinderhospital ggmbh standort: bürgerhospital frankfurt,nibelungenallee 37-41,60318,frankfurt
st. marien-hospital borken,am boltenhof 7,46325,borken
bergmannsheil und kinderklinik buer gmbh,schernerweg 4,45894,gelsenkirchen
klinik hohe warte,hohe warte 8,95445,bayreuth
evangelische stiftung tannenhof,remscheider str. 76,42899,remscheid
kliniken böblingen,bunsenstraße 120,71032,böblingen
park-klinik weißensee,schönstraße 80,13086,berlin
asklepios kliniken schildautal,karl-herold-straße 1,38723,seesen
alexius/josef krankenhaus,nordkanalallee 99,41464,neuss
sächsisches krankenhaus altscherbitz,leipziger straße 59,04435,schkeuditz
kliniken im theodor-wenzel-werk,potsdamer chaussee 69,14129,berlin
medius klinik nürtingen,auf dem säer 1,72622,nürtingen
ameos klinikum halberstadt,gleimstraße 5,38820,halberstadt
kliniken des landkreises lörrach gmbh kreiskrankenhaus lörrach,spitalstraße  25,79539,lörrach
jüdisches krankenhaus berlin - stiftung des bürgerlichen rechts,heinz-galinski-straße 1,13347,berlin
"elblandkliniken stiftung &amp;amp; co. kg, elblandklinikum riesa",weinbergstraße 8,01589,riesa
gesundheitszentrum odenwaldkreis gmbh,albert-schweitzer-str. 10-20,64711,erbach
kreisklinik ebersberg gemeinnützige gmbh,pfarrer-guggetzer-straße 3,85560,ebersberg
evangelisches krankenhaus lippstadt,wiedenbrücker straße 33,59555,lippstadt
ev. amalie sieveking - krankenhaus,haselkamp 33,22359,hamburg
schön klinik neustadt,am kiebitzberg 10,23730,neustadt
bg klinik ludwigshafen,ludwig-guttmann-straße 13,67071,ludwighafen
"helios fachklinik, klinik für erwachsenenpsychiatrie und psychosomatische medizin",st. jürgener str. 5a,24837,schleswig
"bezirkskrankenhaus augsburg, klinik für psychiatrie, psychotherapie und psychosomatik",dr.-mack-str. 1,86156,augsburg
"hufeland klinikum gmbh, standort mühlhausen",langensalzaer landstraße 1,99974,mühlhausen
"christophorus kliniken coesfeld – dülmen – nottuln, standort coesfeld",südring 41,48653,coesfeld
helios klinik schleswig gmbh,st. jürgener straße 1-3,24837,schleswig
evangelisches krankenhaus kalk ggmbh,buchforststr. 2,51103,köln
st. marien-hospital hamm gem. gmbh,knappenstrasse 19,59071,hamm
"harzklinikum dorothea christiane erxleben, standort wernigerode",ilsenburger straße 15,38855,wernigerode
"gfo kliniken troisdorf, betriebsstätte st. josef troisdorf",hospitalstraße  45,53840,troisdorf
evangelisches krankenhaus unna,holbeinstr. 10,59423,unna
st. vinzenz-krankenhaus,schloßstr. 85,40477,düsseldorf
johanniter gmbh - johanniter krankenhaus bonn,johanniterstr. 3-5,53113,bonn
herz-jesu-krankenhaus ggmbh,buttlarstraße 74,36039,fulda
kwm missioklinik würzburg,salvatorstr. 7,97074,würzburg
schön klinik bad bramstedt,birkenweg 10,24576,bad
lvr-klinikum essen,virchowstraße 174,45147,essen
alfried krupp krankenhaus steele,hellweg 100,45276,essen
kreiskrankenhaus waldbröl,dr. -goldenbogen-straße 10,51545,waldbröl
vinzentius-krankenhaus landau,cornichonstraße 4,76829,landau
drk-kliniken nordhessen gemeinnützige gmbh standort wehlheiden,hansteinstraße 29,34121,kassel
rudolf virchow klinikum glauchau,virchowstraße 18,08371,glauchau
haus zschopau,alte marienberger str. 52,09405,zschopau
agaplesion diakonie kliniken kassel,herkulesstraße 34,34119,kassel
werner wicker klinik - orthopädisches schwerpunktklinikum werner wicker gmbh &amp;amp; co. kg,im kreuzfeld 4,34537,bad
bezirkskrankenhaus bayreuth,nordring 2,95445,bayreuth
klinikumstadtsoest ggmbh,senator-schwartz-ring 8,59494,soest
allgemeines krankenhaus viersen gmbh,hoserkirchweg 63,41747,viersen
stadtklinik frankenthal,elsa-brändström-straße 1,67227,frankenthal
asklepios paulinen klinik wiesbaden,geisenheimer straße 10,65197,wiesbaden
ameos klinikum st. clemens oberhausen,wilhelmstraße 34,46145,oberhausen
gfo kliniken bonn - betriebstätte st. marien-hospital,robert-koch-strasse 1,53115,bonn
klinikum starnberg,oßwaldstr. 1,82319,starnberg
"havelland kliniken gmbh, klinik nauen",ketziner straße 21,14641,nauen
petrus-krankenhaus,carnaper straße 48,42283,wuppertal
st. marienhospital vechta,marienstraße 6-8,49377,vechta
st. vinzenz-hospital,merheimer str. 221-223,50733,köln
evangelisches krankenhaus herne - standort herne-mitte,wiescherstrasse 24,44623,herne
"krankenhaus neuwerk ""maria von den aposteln"" ggmbh",dünner straße 214-216,41066,mönchengladbach
marien-krankenhaus,dr. robert-koch-str. 18,51465,bergisch
thoraxklinik heidelberg,röntgenstraße 1,69126,heidelberg
helios klinikum uelzen gmbh,hagenskamp 34,29525,uelzen
st. elisabeth-hospital herten,im schloßpark 12,45699,herten
marienhospital bottrop ggmbh,josef-albers-str. 70,46236,bottrop
marienhospital aachen,zeise 4,52066,aachen
diakonie klinikum neunkirchen gemeinnützige gmbh,brunnenstraße 20,66538,neunkirchen
"klinikum bielefeld, standort rosenhöhe",an der rosenhöhe 27,33647,bielefeld
rheinland klinikum grevenbroich elisabethkrankenhaus,von-werth-straße 5,41515,grevenbroich
bundeswehrkrankenhaus hamburg,lesserstraße 180,22049,hamburg
krankenhaus maria hilf,dahlienweg 3-5,53474,bad
helios klinik für kinder- und jugendpsychiatrie und -psychotherapie sowie tagesklinik baumhaus schleswig,friedrich-ebert-straße 5,24837,schleswig
paul gerhardt diakonie krankenhaus und pflege gmbh,paul-gerhardt-straße 42-45,06886,lutherstadt
salus ggmbh fachklinikum uchtspringe,emil-kraepelin-straße 6,39576,hansestadt
zentrum für psychiatrie reichenau,feursteinstrasse 55,78479,reichenau
st.-clemens-hospital geldern,clemensstraße 6,47608,geldern
hospital zum heiligen geist,lange straße 4 - 6,60311,frankfurt
vitos klinikum herborn,austraße 40,35745,herborn
klinikum hochrhein,kaiserstraße 93-101,79761,waldshut-tiengen
rotes kreuz krankenhaus bremen ggmbh,st.-pauli-deich 24,28199,bremen
st. vinzenz-krankenhaus hanau,am frankfurter tor 25,63450,hanau
zfp südwürttemberg weissenau,weingarthofer strasse 2,88214,ravensburg
medizinisches zentrum lahnhöhe am mittelrhein,am kurpark 1,56112,lahnstein
asklepios klinik weißenfels,naumburger straße 76,06667,weißenfels
klinikum niederlausitz gmbh,krankenhausstraße  10,01968,senftenberg
drk krankenhaus neuwied,marktstraße 104,56564,neuwied
katholische hospitalvereinigung ostwestfalen gem. gmbh,kiskerstr. 26,33615,bielefeld
caritas-krankenhaus st. josef,landshuter straße 65,93053,regensburg
st. franziskus-hospital,schönsteinstr. 63,50825,köln
krankenhaus der augustinerinnen,jakobstr. 27-31,50678,köln
st. elisabeth-krankenhaus dorsten,pfarrer-wilhelm-schmitz-straße 1,46282,dorsten
st. lukas klinik,schwanenstraße 132,42697,solingen
zeisigwaldkliniken bethanien chemnitz,zeisigwaldstraße 101,09130,chemnitz
regio kliniken gmbh - klinikum pinneberg,fahltskamp 74,25421,pinneberg
"bkh lohr, kh für psychiatrie, psychotherapie und psychosomatische medizin",am sommerberg 21,97816,lohr
kjf klinik sankt elisabeth,müller-gnadenegg-weg 4,86633,neuburg
krankenhaus st. marienwörth,mühlenstraße 39,55543,bad
helios klinik attendorn,hohler weg 9,57439,attendorn
nardini klinikum st. elisabeth zweibrücken,kaiserstrasse 14,66482,zweibrücken
helios klinikum salzgitter gmbh,kattowitzer str. 191,38226,salzgitter
universitäts-herzzentrum freiburg • bad krozingen gmbh,südring 15,79189,bad
dreifaltigkeits-hospital,klosterstraße 31,59555,lippstadt
grn-klinik schwetzingen,bodelschwinghstraße 10,68723,schwetzingen
helios kliniken mittelweser,ziegelkampstraße 39,31582,nienburg
rheinland klinikum dormagen,dr.-geldmacher-straße 20,41540,dormagen
sankt katharinen-krankenhaus gmbh,seckbacher landstraße 65,60389,frankfurt
vitos klinikum riedstadt standort riedstadt,philippsanlage 101,64560,riedstadt
st.-josefs-hospital dortmund-hörde (einrichtung des st. lukas klinikums),wilhelm-schmidstr. 4 wilhelm-schmidstr. 4,44263,dortmund
srh klinikum zeitz,lindenallee 1,06712,zeitz
sächsisches krankenhaus rodewisch,bahnhofstraße 1,08228,rodewisch
evangelisches krankenhaus dinslaken,kreuzstraße 28,46535,dinslaken
heilig geist-krankenhaus,graseggerstr. 105,50737,köln
krankenhaus buchholz,steinbecker straße 44,21244,buchholz
"knappschaftskrankenhaus lütgendortmund, klinikum westfalen gmbh",volksgartenstraße 40,44388,dortmund
evangelisches krankenhaus alsterdorf gemeinnützige gmbh,elisabeth-flügge-straße 1,22337,hamburg
st. rochus-hospital telgte,am rochus-hospital 1,48291,telgte
klinikum obergöltzsch rodewisch,stiftstraße 10,08228,rodewisch
"knappschaftsklinikum saar gmbh, krankenhaus sulzbach",an der klinik 10,66280,sulzbach
malteser waldkrankenhaus st. marien,rathsberger straße 57,91054,erlangen
krankenhaus martha-maria nürnberg,stadenstraße 58,90491,nürnberg
"krankenhaus für psychiatrie, psychotherapie und psychosomatische medizin",balthasar-neumann-platz 1,97440,werneck
schön klinik bad arolsen,hofgarten 10,34454,bad
stadtkrankenhaus delmenhorst gmbh,wildeshauser straße 92,27753,delmenhorst
kreiskrankenhaus greiz gmbh,wichmannstr. 12,07973,greiz
st. augustinus krankenhaus ggmbh,renkerstraße 45,52355,düren
klinikum landkreis erding,bajuwarenstraße 5,85435,erding
niels-stensen-kliniken franziskus-hospital harderberg,alte rothenfelder straße 23,49124,georgsmarienhütte
kreisklinik bad reichenhall,riedelstr. 5,83435,bad
"klinikum vest gmbh, paracelsus-klinik marl",lipper weg 11,45770,marl
klinik hallerwiese-cnopfsche kinderklinik,st.-johannis-mühlgasse 19,90419,nürnberg
klinikum wahrendorff,rudolf-wahrendorff-str. 22,31319,sehnde
"ubbo-emmius-klinik ggmbh, ostfriesisches krankenhaus, klinik aurich",wallinghausener str. 8 - 12,26603,aurich
städtisches klinikum wolfenbüttel ggmbh,alter weg 80,38302,wolfenbüttel
st josefskrankenhaus (rkk) freiburg,sautierstr. 1,79104,freiburg
marienkrankenhaus st. wendel,am hirschberg 1,66606,st.
johanniter-krankenhaus rheinhausen gmbh,kreuzacker 1-7,47228,duisburg
helios frankenwaldklinik kronach,friesener straße 41,96317,kronach
zentrum für integrative psychiatrie - zip ggmbh,niemannsweg 147,24105,kiel
lukas-krankenhaus bünde,hindenburgstraße 56,32257,bünde
marien-hospital marl,hervester straße 57,45768,marl
ev. krankenhaus witten ggmbh,pferdebachstraße 27,58455,witten
katholisches krankenhaus hagen gem. gmbh -st. johannes-hospital-,hospitalstrasse 6-10,58099,hagen
medius klinik ostfildern-ruit,hedelfinger str. 166,73760,ostfildern
rotkreuzklinikum münchen,nymphenburger straße 163,80634,münchen
"helios weißeritztal kliniken, klinikum freital",bürgerstraße 7,01705,freital
johanniter gmbh - waldkrankenhaus bonn,waldstr. 73,53177,bonn
drk krankenhaus kirchen,bahnhofstraße 24,57548,kirchen
lwl-klinik lengerich,parkallee 10,49525,lengerich
"sana kliniken düsseldorf, standort gerresheim",gräulinger str. 120,40625,düsseldorf
"kliniken landkreis diepholz ggmbh, klinik bassum",marie-hackfeld-straße 6,27211,bassum
asklepios klinik seligenstadt,dudenhöfer straße 9,63500,seligenstadt
ketteler krankenhaus ggmbh,lichtenplattenweg 85 85,63071,offenbach
bezirksklinikum obermain,kutzenberg 19,96250,ebensfeld
schön klinik vogtareuth,krankenhausstraße 20,83569,vogtareuth
"salus ggmbh, fachklinikum bernburg",olga-benario straße 16-18,06406,bernburg
klinikum oberlausitzer bergland gemeinnützige gmbh,görlitzer straße 8,02763,zittau
regiomed klinikum lichtenfels,professor-arneth-straße 2b,96215,lichtenfels
marien hospital papenburg aschendorf ggmbh,hauptkanal rechts 74-75,26871,papenburg
rottal-inn kliniken kommunalunternehmen (ku),simonsöder allee 20,84307,eggenfelden
krankenhaus rummelsberg,rummelsberg 71,90592,schwarzenbruck
kreiskliniken des landkreises mühldorf a. inn gmbh - klinik mühldorf,krankenhausstr. 1,84453,mühldorf
helios klinik rottweil,krankenhausstraße 30,78628,rottweil
klinikum peine ggmbh,virchowstraße 8h,31226,peine
st. anna-virngrund-klinik,dalkinger straße 8-12,73479,ellwangen
"ubbo-emmius-klinik ggmbh, ostfriesisches krankenhaus, klinik norden",osterstr.  110,26506,norden
paracelsus-klinik adorf/schöneck -standort schöneck-,albertplatz 1,08261,schöneck
paracelsus-klinik adorf/schöneck -standort adorf -,sorger straße 51,08626,adorf
st. marien-krankenhaus berlin,gallwitzallee 123-143,12249,berlin
herzzentrum duisburg,gerrickstraße 21,47137,duisburg
lwl-klinik für psychiatrie und psychotherapie warstein,franz-hegemann-straße 23,59581,warstein
kinder- und jugendkrankenhaus auf der bult,janusz-korczak-allee 12,30173,hannover
krh klinikum neustadt am rübenberge,lindenstraße  75,31535,neustadt
krankenhaus st. josef,ludwigstraße 1,97421,schweinfurt
helios klinik hettstedt,robert-koch-straße 8,06333,hettstedt
klinikum westmünsterland st. marien- krankenhaus ahaus,wüllener straße 101,48683,ahaus
st. willibrord-spital emmerich-rees ggmbh,willibrordstraße 9,46446,emmerich
asklepios stadtklinik bad tölz,schützenstraße 15,83646,bad
kreisklinik roth,weinbergweg 14,91154,roth
klinikum in den pfeifferschen stiftungen,pfeifferstraße 10,39114,magdeburg
asklepios harzklinik goslar,kösliner straße 12,38642,goslar
helios klinik sangerhausen,am beinschuh 2a,06526,sangerhausen
klinikum hochsauerland standort karolinen-hospital hüsten,stolte ley 5,59759,arnsberg
achenbach krankenhaus königs wusterhausen,köpenicker strasse 29,15711,königs
krankenhaus st. barbara,steinberger straße 24,92421,schwandorf
helios klinik erlenbach,krankenhausstr. 45,63906,erlenbach
malteser krankenhaus st. johannes-stift,johannisstr.  21,47198,duisburg
marienkrankenhaus schwerte,goethestraße 19,58239,schwerte
hunsrück klinik kreuznacher diakonie,holzbacher straße 1,55469,simmern
st. antonius-hospital gronau gmbh,möllenweg 22,48599,gronau
ev. krankenhaus hagen-haspe,brusebrinkstraße 20,58135,hagen
katholische kliniken ruhrhalbinsel (st. josef-krankenhaus kupferdreh),heidbergweg 22-24,45257,essen
marienkrankenhaus ggmbh,widumgasse 5,59494,soest
katholische kliniken oberberg ggmbh,wohlandstraße 30,51766,engelskirchen
shg-kliniken sonnenberg,sonnenbergstr. 10,66119,saarbrücken
helios st. marienberg klinik helmstedt,conringstraße 26,38350,helmstedt
klinikum fichtelgebirge ggmbh - haus marktredwitz,schillerhain 1-8,95615,marktredwitz
kreiskrankenhaus emmendingen,gartenstraße 44,79312,emmendingen
katholisches krankenhaus dortmund-west (einrichtung des st. lukas klinikums),zollernstr. 40,44379,dortmund
bethlehem gesundheitszentrum stolberg,steinfeldstraße 5,52222,stolberg
"klinikum nordfriesland ggmbh, klinik husum",erichsenweg 16,25813,husum
vitos klinikum gießen-marburg / standort gießen,licher straße 106,35394,gießen
sana kliniken sommerfeld,waldhausstrasse 44,16766,kremmen
helios st. josefshospital uerdingen,kurfürstenstraße 69,47829,krefeld
ludgerus-kliniken münster gmbh-standort raphaelsklinik,loerstraße 23,48143,münster
dill kliniken,rotebergstraße 2,35683,dillenburg
st. franziskus-hospital ahlen,robert-koch-straße 55,59227,ahlen
klinikum mittelbaden rastatt,engelstraße 39,76437,rastatt
sportklinik hellersen,paulmannshöher straße 17,58515,lüdenscheid
"martin luther krankenhaus, berlin",caspar-theyß-straße 27-31,14193,berlin
immanuel klinikum bernau herzzentrum brandenburg,ladeburger straße 17,16321,bernau
krankenhaus freyung,krankenhausstraße 6,94078,freyung
st. theresien-krankenhaus nürnberg ggmbh,mommsenstraße 24,90491,nürnberg
nardini klinikum st. johannis,nardinistr. 30,66849,landstuhl
drk kliniken berlin mitte,drontheimer straße 39-40,13359,berlin
st. marien-hospital hamm gem. gmbh,nassauerstraße 13-19,59065,hamm
klinik hohe mark,friedländerstraße 2,61440,oberursel
sankt marien-hospital buer gmbh,mühlenstr. 5-9,45894,gelsenkirchen
universitäres herz- und gefäßzentrum uke hamburg gmbh,martinistraße 52,20246,hamburg
elbe klinikum buxtehude,am krankenhaus 1,21614,buxtehude
borromäus hospital leer ggmbh,kirchstraße 61 - 67,26789,leer
sankt vincentius krankenhaus,holzstraße 4a,67346,speyer
krankenhaus winsen ( luhe ),friedrich-lichtenauer-allee 1,21423,winsen
st. hildegardis krankenhaus,bachemer straße 29-33,50931,köln
donau-ries klinik donauwörth,neudegger allee 6,86609,donauwörth
st. nikolaus-stiftshospital gmbh andernach,ernestus-platz 1,56626,andernach
st. josefs krankenhaus balserische stiftung,wilhelmstraße 7,35392,gießen
bezirkskrankenhaus landshut,prof.-buchner-str. 22,84034,landshut
katholisches krankenhaus hagen gem. gmbh -st. josefs-hospital-,dreieckstraße 17,58097,hagen
kmg klinikum luckenwalde,saarstr. 1,14943,luckenwalde
caritas-klinik dominikus,kurhausstraße 30,13467,berlin
klinikum niederlausitz gmbh,krankenhausstraße 10,01968,senftenberg
st. josefs-hospital cloppenburg,krankenhausstraße 13,49661,cloppenburg
st. elisabeth-krankenhaus,große str. 41,49477,ibbenbüren
ameos klinikum seepark geestland,langener str. 66,27607,geestland
schön klinik bad aibling se &amp; co. kg,kolbermoorer straße 72,83043,bad
"gemeinschaftsklinikum mittelrhein, st. elisabeth mayen",siegfriedstr. 20-22,56727,mayen
st. remigius krankenhaus opladen,an st. remigius  26,51379,leverkusen
"st. josef-krankenhaus, hamm bockum-hövel",albert-struck-strasse 1,59075,hamm-bockum-hovel
krankenhaus st. joseph-stift dresden gmbh,wintergartenstraße 15/17,01307,dresden
evangelisches krankenhaus ludwigsfelde teltow,albert-schweitzer-straße 40 - 44,14974,ludwigsfelde
krankenhaus bethel berlin,promenadenstrasse 3 - 5,12207,berlin
ev. diakonissenkrankenhaus leipzig ggmbh,gerorg-schwarz straße 49,04177,leipzig
asklepios fachkliniken münchen-gauting,robert-koch-allee 2,82131,gauting
ameos klinikum st. josef oberhausen,mülheimer straße 83,46045,oberhausen
stadtkrankenhaus korbach ggmbh,enser str. 19,34497,korbach
st. josefskrankenhaus heidelberg gmbh,landhausstraße 25,69115,heidelberg
rems-murr-klinik schorndorf,schlichtener straße 105,73614,schorndorf
klinik vincentinum gmbh &amp;amp; co. kg,franziskanergasse 12,86152,augsburg
katholisches kinderkrankenhaus wilhelmstift ggmbh,liliencronstraße 130,22149,hamburg
hochwaldkrankenhaus bad nauheim,chaumontplatz 1,61231,bad
st. josef hospital bad driburg,elmarstr. 38,33014,bad
helios klinik lutherstadt eisleben,hohetorstraße 25,06295,lutherstadt
bezirkskrankenhaus kaufbeuren,kemnaterstr. 16,87600,kaufbeuren
krh klinikum agnes karll laatzen,hildesheimer straße 158,30880,laatzen
caritas-klinik maria heimsuchung berlin-pankow,breite straße 46 / 47,13187,berlin
evangelisches krankenhaus mettmann gmbh,gartenstr. 4-8,40822,mettmann
martin-luther-krankenhaus ggmbh - voedestrasse,voedestr. 79,44866,bochum
ameos klinikum schönebeck,köthener str. 13,39218,schönebeck
ameos klinikum bernburg,kustrenaer straße 98,06406,bernburg
kliniken dr. erler ggmbh,kontumazgarten 4-19,90429,nürnberg
vestische kinder- und jugendklinik datteln - universität witten/herdecke,dr.-friedrich-steiner-straße 5,45711,datteln
krankenhaus st. elisabeth ggmbh,lindenstraße 3-7,49401,damme
asklepios klinik lich gmbh,goethestraße 4,35423,lich
marienhaus klinikum eifel - standort bitburg,krankenhausstraße 1,54634,bitburg
st. josefs-krankenhaus potsdam-sanssouci,allee nach sanssouci 7,14471,potsdam
westpfalz-klinikum gmbh - standort ii kusel,im flur 1,66869,kusel
hospital zum heiligen geist kempen gmbh &amp; co. kg,von-broichhausen-allee 1,47906,kempen
agaplesion ev. bathildiskrankenhaus gemeinnützige gmbh,maulbeerallee 4,31812,bad
universitätsmedizin essen ruhrlandklinik - westdeutsches lungenzentrum,tüschener str. 40,45239,essen
josephs-hospital warendorf,am krankenhaus 2,48231,warendorf
rku - universitäts- und rehabilitationskliniken ulm ggmbh,oberer eselsberg 45,89081,ulm
krankenhaus tauberbischofsheim,albert-schweitzer-straße 37,97941,tauberbischofsheim
kreiskrankenhaus st. franziskus saarburg gmbh,graf-siegfried-str. 115,54439,saarburg
agaplesion bethanien krankenhaus,im prüfling 21-25,60389,frankfurt
schwarzwald-baar klinikum villingen-schwenningen gmbh,sonnhaldenstraße 2,78166,donaueschingen
"kreiskliniken günzburg-krumbach, klinik günzburg",lindenallee 1,89312,günzburg
mkk krankenhaus bad oeynhausen,wielandstraße 28,32545,bad
pleißental-klinik gmbh,ronneburger straße 106,08412,werdau
helios klinik jerichower land,august-bebel-straße 55a,39288,burg
krankenhaus eichhof lauterbach,eichhofstraße 1,36341,lauterbach
"helios klinik leezen gmbh: akutbereich, enthalten sind nur die daten der patientinnen/patienten der besonderen einrichtung, ohne patientinnen/patienten aus dem reha-bereich",wittgensteiner platz  1,19067,leezen
krankenhaus leonberg,rutesheimer straße 50,71229,leonberg
buergerhospital friedberg,ockstädter str. 3-5,61169,friedberg
asklepios fachklinikum teupitz,buchholzer straße 21,15755,teupitz
"asklepios schwalm-eder-kliniken gmbh, klinikum schwalmstadt",krankenhausstraße 27,34613,schwalmstadt
sana klinik münchen gmbh,steinerstraße 3,81369,münchen
krankenhaus salem derevang. stadtmission heidelberg ggmbh,zeppelinstraße 11-33,69121,heidelberg
akk altonaer kinderkrankenhaus ggmbh,bleickenallee 38,22763,hamburg
deutsches rotes kreuz krankenhaus chemnitz-rabenstein,unritzstraße 23,09117,chemnitz
oberhavel kliniken gmbh / klinik oranienburg,robert-koch-straße 2-12,16515,oranienburg
"gemeinschaftskrankenhaus bonn ggmbh, haus st. petrus",bonner talweg 4-6,53113,bonn
krankenhaus maria hilf gmbh,maria-hilf-strasse 2,54550,daun
lvr-klinik mönchengladbach,heinrich-pesch-str. 39-41,41239,mönchengladbach
heidekreis-klinikum gmbh krankenhaus walsrode,robert-koch-straße  4,29664,walsrode
klinikum karlsburg der klinikgruppe dr. guth gmbh &amp; co. kg,greifswalder straße 11,17495,karlsburg
psychosomatische klinik bad neustadt,kurhausstraße 31,97616,bad
kliniken hochfranken - klinik münchberg,hofer str. 40,95213,münchberg
vinzenz pallotti hospital,vinzenz-pallotti-straße 20,51429,bergisch-gladbach-bensberg
st. elisabeth-krankenhaus geilenkirchen gemeinnützige gesellschaft mbh,martin-heyden-straße 32,52511,geilenkirchen
"kem | evang. kliniken essen-mitte, evang. krankenhaus essen-steele",am deimelsberg 34a,45276,essen
asklepios fachklinikum lübben,luckauer straße 17,15907,lübben
klinikum bad bramstedt gmbh,oskar-alexander-straße 26,24576,bad
marienhospital brühl,mühlenstrasse 21-25,50321,brühl
katholische kliniken im märkischen kreis - st. elisabeth hospital,hochstraße 63,58638,iserlohn
zollernalb klinikum albstadt,friedrichstraße 39,72458,albstadt
evangelisches krankenhaus bethanien iserlohn ggmbh,bethanienallee 3,58644,iserlohn
klinikum hochsauerland standort st. johannes-hospital neheim,springufer 7,59755,arnsberg
kreiskrankenhaus johann kentmann ggmbh,christianistr. 1,04860,torgau
elisabeth krankenhaus recklinghausen,röntgenstr. 10,45661,recklinghausen
evk hattingen,bredenscheider straße 54,45525,hattingen
lwl-klinik paderborn - standort agathastraße,agathastraße 1,33098,paderborn
sk gmbh-standort am kurpark,am kurpark 1,23795,bad
heinrich sengelmann krankenhaus,kayhuder straße 65,23863,bargfeld-stegen
klinikum landkreis tuttlingen-gesundheitszentrum tuttlingen,zeppelinstrasse 21,78532,tuttlingen
kliniken nagold,röntgenstraße 20,72202,nagold
st. elisabethen-krankenhaus lörrach ggmbh,feldbergstraße 15,79539,lörrach
klinikum hochsauerland standort st. walburga - kkh meschede,schederweg 12,59872,meschede
lwl-klinik herten,im schloßpark 20,45699,herten
"kem | evang. kliniken essen-mitte, evang. krankenhaus essen-werden",pattbergstrasse 1-3,45239,essen
st. marien-hospital,kunibertskloster 11-13,50668,köln
die filderklinik ggmbh,im haberschlai 7,70794,filderstadt
klinikum forchheim fränkische schweiz ggmbh standort forchheim,krankenhausstraße 10,91301,forchheim
grn-klinik sinsheim,alte waibstadter straße 2,74889,sinsheim
ameos klinikum aschersleben,eislebener straße 7a,06449,aschersleben
helios st. elisabeth-krankenhaus bad kissingen,kissinger straße 150,97688,bad
herz-jesu-krankenhaus dernbach,südring 8,56428,dernbach
klinikum bamberg - betriebsstätte am michelsberg,st.-getreu-straße 18,96049,bamberg
"hufeland klinikum gmbh, standort bad langensalza",rudolph-weiss-straße 1-5,99947,bad
medinos kliniken des landkreises sonneberg gmbh - standort sonneberg,neustadter straße  61,96515,sonneberg
asklepios klinik pasewalk,prenzlauer chaussee 30,17309,pasewalk
krh klinikum großburgwedel,fuhrberger straße 8,30938,burgwedel
kreiskrankenhaus frankenberg,forststraße 9,35066,frankenberg
krankenhaus saarlouis vom drk,vaubanstraße 25,66740,saarlouis
lungenklinik hemer,theo-funcciusstr. 1,58675,hemer
klinikum oberlausitzer bergland gemeinnützige gmbh,röntgenstraße 23,02730,ebersbach-neugersdorf
"st. antonius krankenhaus, köln, ggmbh",schillerstrasse 23,50968,köln
"vitos klinikum rheingau, eltville",kloster-eberbach-straße 4,65346,eltville
klinikum landsberg am lech,bgm.-dr.-hartmann-str. 50,86899,landsberg
elisabeth- krankenhaus gmbh,cranger str. 226,45891,gelsenkirchen
gfo kliniken troisdorf,wilhelm-busch str. 9,53844,troisdorf
diakonissenkrankenhaus dresden,holzhofgasse 29,01099,dresden
grn-klinik weinheim,röntgenstraße 1,69469,weinheim
ilmtalklinik gmbh pfaffenhofen,krankenhausstraße 70,85276,pfaffenhofen
st. elisabeth-hospital beckum gmbh,elisabethstraße 10,59269,beckum
kreisklinik groß-gerau gmbh,wilhelm-seipp-straße 3,64521,groß-gerau
st. elisabeth-krankenhaus,ostallee 3,56112,lahnstein
lwl-universitätsklinikum bochum,alexandrinenstraße 1-3,44791,bochum
zollernalb klinikum balingen,tübinger straße 30,72336,balingen
ameos klinikum haldensleben,kiefholzstraße 27,39340,haldensleben
st. josef-hospital,rudolf-bertram-platz 1,45899,gelsenkirchen
alexianer aachen gmbh,alexianergraben 33,52062,aachen
st. josef krankenhaus haan,robert-koch-straße 16,42781,haan
ameos klinikum ueckermünde,ravensteinstraße 23,17373,ueckermünde
katholisches klinikum lünen/werne gmbh st. christophorus-krankenhaus,am see 1,59368,werne
imland gmbh - imland klinik eckernförde,schleswiger str. 114-116,24340,eckernförde
kreiskrankenhaus stollberg ggmbh,jahnsdorfer straße 7,09366,stollberg
ameos klinikum am bürgerpark bremerhaven,schiffdorfer chaussee 29,27574,bremerhaven
evangelisches krankenhaus,dr. kaufmann-str. 2,67098,bad
st. johannisstift ev. krankenhaus paderborn,reumontstrasse 28,33102,paderborn
helios klinik herzberg/osterode,dr.-frössel-allee 1,37412,herzberg
st. elisabeth-hospital,bleichstraße 15,44787,bochum
vitos klinikum gießen-marburg / standort marburg,cappeler straße 98,35039,marburg
ameos klinikum heiligenhafen,friedrich-ebert-straße 100,23774,heiligenhafen
klinik schillerhöhe,solitudestraße 18,70839,gerlingen
carl-von-basedow-klinikum saalekreis ggmbh,vor dem nebraer tor 11,06268,querfurt
st. marien hospital eickel,marienstraße 2,44651,herne
eduardus-krankenhaus ggmbh,custodisstr. 3-17,50679,köln
schüchtermann-klinik,ulmenallee 5-11,49214,bad
krankenhaus st. josef,bergstraße 6-12,42105,wuppertal
krankenhaus sachsenhausen,schulstr. 31,60594,frankfurt
collm klinik oschatz gmbh,parkstraße 1,04758,oschatz
gfo kliniken bonn - betriebstätte st. josef,hermannstrasse  37,53225,bonn
katholisches karl-leisner klinikum ggmbh standort marienhospital kevelaer,basilikastraße 55,47623,kevelaer
kh mittweida,hainichener straße 4-6,09648,mittweida
klinikum döbeln,sörmitzer straße 10,04720,döbeln
diakomed diakoniekrankenhaus chemnitzer land ggmbh,limbacher straße 19b,09232,hartmannsdorf
helios klinik köthen gmbh,hallesche straße 29,06366,köthen
helios albert-schweitzer-klinik northeim [nom],albert-schweitzer-weg  1,37154,northeim
diakonie-krankenhaus wehrda,hebronberg 5,35041,marburg-wehrda
st.-marien-krankenhaus dresden,selliner straße 29,01109,dresden
"diakonie kliniken zschadraß - fachkrankenhaus für psychiatrie, psychotherapie und neurologie",im park 15a,04680,colditz
cusanus krankenhaus bernkastel-kues,karl-binz-weg 12,54470,bernkastel-kues
asklepios fachklinikum tiefenbrunn,tiefenbrunn _,37124,rosdorf
orthopädische klinik markgröningen,kurt-lindemann-weg 10,71706,markgröningen
st. martinus-krankenhaus düsseldorf,gladbacher strasse 26,40219,düsseldorf
kreiskrankenhaus bergstraße - eine einrichtung des universitätsklinikums heidelberg -,viernheimer straße 2,64646,heppenheim
"gemeinschaftskrankenhaus bonn ggmbh, haus st. elisabeth",prinz-albert-straße 40,53113,bonn
st. josefs-krankenhaus,dr.-krismann-strasse 12,33154,salzkotten
wilhelmsburger krankenhaus groß-sand,groß-sand 3,21107,hamburg
[2017-10-25 15:03:34] karl-hansen-klinik gmbh,antoniusstr. 19,33175,bad
asklepios klinik sankt augustin gmbh,arnold-janssen-straße 29,53757,sankt
loretto-krankenhaus (rkk) freiburg,mercystraße 6 - 14,79100,freiburg
sana-krankenhaus rügen gmbh,calandstr. 7/8,18528,bergen
kreisklinik trostberg,siegerthöhe 1,83308,trostberg
vitos heppenheim,viernheimer strasse 4,64646,heppenheim
stiftung herzogin elisabeth hospital,leipziger str. 24,38124,braunschweig
westallgäu-klinikum,am engelberg 29,88239,wangen
klinik kitzinger land,keltenstraße 67,97318,kitzingen
hohenloher krankenhaus öhringen,kastellstraße 5,74613,öhringen
lungenklinik löwenstein,geißhölzle 62,74245,löwenstein
fachkrankenhaus kloster grafschaft gmbh,annostr. 1,57392,schmallenberg-grafschaft
klinikum rheine / jakobi krankenhaus,hörstkamp 12,48431,rheine
kliniken der stadt köln ggmbh - kinderkrankenhaus amsterdamer straße,amsterdamer straße 59,50735,köln
waldkliniken eisenberg,klosterlausnitzer straße 81,07607,eisenberg
st. rochus-hospital castrop-rauxel (einrichtung des st. lukas klinikums),glückaufstr. 10,44575,castrop-rauxe4l
helios endo-klinik hamburg,holstenstraße 2,22767,hamburg
"vitos klinikum weil-lahn, standort weilmünster",weilstraße 10,35789,weilmünster
krankenhaus zum guten hirten,semmelweisstrasse 7,67071,ludwigshafen
kreiskrankenhaus demmin gmbh,wollweberstraße 21,17109,demmin
mediclin müritz-klinikum,weinbergstraße 19,17192,waren
schön klinik düsseldorf,am heerdter krankenhaus 2,40549,düsseldorf
st. josefs-hospital lennestadt,uferstr. 7,57368,lennestadt
evangelisches krankenhaus hubertus krankenhausbetriebs ggmbh,spanische allee 10-14,14129,berlin
kbo-isar-amper-klinikum münchen-nord,kölner platz 1,80804,münchen
marienhospital steinfurt; krankenhaus standort steinfurt,mauritiusstr. 5,48565,steinfurt
ameos klinikum dr. heines bremen,rockwinkeler landstraße 110,28325,bremen
st. elisabethen-krankenhaus,ginnheimer straße 3,60487,frankfurt
klinikum main-spessart lohr,grafen-von-rieneck straße 5,97816,lohr
augusta-krankenhaus,amalienstr. 9,40472,düsseldorf
kreisklinik st. elisabeth,ziegelstraße 38,89407,dillingen
klinikum landau-südliche weinstraße gmbh - klinik landau,bodelschwinghstraße 11,76829,landau
asklepios klinikum bad abbach gmbh,kaiser - karl v. - allee 3,93077,bad
krankenhaus vilshofen,krankenhausstraße 32,94474,vilshofen
krankenhaus wermelskirchen gmbh,königstraße 100,42929,wermelskirchen
krankenhaus rotthalmünster,simbacher straße 35,94094,rotthalmünster
städt. krankenhaus maria-hilf brilon ggmbh,am schönschede 1,59929,brilon
sana kliniken des landkreises cham - krankenhaus cham,august-holz-str. 1,93413,cham
herz-kreislauf-zentrum klinikum hersfeld-rotenburg gmbh,heinz-meise-straße 100,36199,rotenburg
kbo-isar-amper-klinikum taufkirchen (vils),bräuhausstraße 5,84416,taufkirchen
helios st. elisabeth klinik oberhausen,josefstraße 3,46045,oberhausen
kreiskliniken calw,eduard-conz-straße 6,75365,calw
kreisklinik mindelheim,bad wörishofer straße 44,87719,mindelheim
clemens-august-klinik,wahlde 11,49434,neuenkirchen-vörden
elisabeth-krankenhaus kassel gmbh,weinbergstraße 7,34117,kassel
diakoniekrankenhaus halle ggmbh,mühlweg 7,06114,halle
helios hanseklinikum stralsund,große parower straße 47-53,18435,stralsund
deutsches herzzentrum münchen des freistaates bayern,lazarettstraße 36,80636,münchen
sana kliniken ostholstein gmbh - klinik eutin,hospitalstraße 22,23701,eutin
helios klinik cuxhaven gmbh,altenwalder chaussee 10,27474,cuxhaven
"deutsches herzzentrum berlin, stiftung des bürgerlichen rechts",augustenburger platz 1,13353,berlin
ilm-kreis-kliniken arnstadt-ilmenau ggmbh,bärwinkelstraße 33,99310,arnstadt
marienkrankenhaus kassel,marburger str. 85,34127,kassel
drk-krankenhaus clementinenhaus,lützerodestraße 1,30161,hannover
neckar-odenwald-kliniken ggmbh,dr. konrad-adenauer-straße 37,74722,buchen
krankenhaus spremberg,karl-marx-straße 80,03130,spremberg
herzzentrum dresden gmbh,fetscherstr. 76,01307,dresden
evangelisches krankenhaus bethanien greifswald,gützkower landstrasse 69,17489,greifswald
"christophorus kliniken coesfeld – dülmen – nottuln, standort dülmen",vollenstraße 10,48249,dülmen
isar kliniken gmbh,sonnenstraße 24-26,80331,münchen
sk gmbh-standort allgemeine klinik,krankenhausstraße 2,23795,bad
fachkrankenhaus hubertusburg ggmbh,hubertusburg gebäude 63,04779,wermsdorf
mediclin krankenhaus plau am see,quetziner straße 88,19395,plau
städtisches klinikum dresden - standort weißer hirsch,heinrich-cotta-straße 12,01342,dresden
evangelisches geriatriezentrum berlin ggmbh (egzb),reinickendorfer straße 61,13347,berlin
frankenalb-klinik engelthal,reschenbergstrasse 20,91238,engelthal
sankt marien krankenhaus,werdener straße 3,40878,ratingen
evangelisches klinikum köln weyertal gmbh,weyertal 76,50931,köln
elisabeth-klinik ggmbh,heinrich-sommer-straße 4,59939,olsberg
klinikum altmühlfranken gunzenhausen,albert-schweitzer-str. 90,91710,gunzenhausen
klinikum altmühlfranken weißenburg,krankenhausstr. 1,91781,weißenburg
immanuel krankenhaus berlin - standort wannsee,königstraße 63,14109,berlin
rottal-inn kliniken ku - psychosomatische fachklinik,plinganserstraße 10,84359,simbach
bdh-klinik elzach ggmbh,am tannwald 1,79215,elzach
henneberg-kliniken-betriebsgesellschaft mbh,schleusinger str. 17,98646,hildburghausen
alexianer krankenhaus köln,kölner str. 64,51149,köln
klinik könig-ludwig-haus,brettreichstraße 11,97074,würzburg
altmark klinikum gardelegen,ernst-von-bergmann-straße 22,39638,gardelegen
marienhausklinik st. josef kohlhof,klinikweg 1,66539,neunkirchen
krankenhäuser nürnberger land gmbh - krankenhaus lauf,simonshofer straße 55,91207,lauf
zfp südwürttemberg zwiefalten,hauptstraße 9,88529,zwiefalten
elbe-elster klinikum gmbh krankenhaus finsterwalde,kirchhainer straße 38a,03238,finsterwalde
tagesklinik freiberg fachkrankenhaus für psychiatrie und psychotherapie bethanie,scheunenstraße 13,09599,freiberg
fachkrankenhaus bethanien hochweitzschen,dr. christian-beßler-str. 1,04720,döbeln
ortenau klinikum achern-oberkirch (standort achern),josef-wurzler-straße 7,77855,achern
städtisches krankenhaus heinsberg gmbh,auf dem brand 1,52525,heinsberg
"thüringen-kliniken ""georgius agricola"" gmbh, standort rudolstadt",hugo trinckler straße  2-4,07407,rudolstadt
dreifaltigkeits-krankenhaus wesseling,bonner straße 84,50389,wesseling
spreewaldklinik lübben,schillerstrasse 29,15907,lübben
altmark klinikum salzwedel,brunnenstraße 1,29410,salzwedel
von bodelschwingh-krankenhaus,schulstr. 11,49477,ibbenbüren
klinikum mittelmosel,barlstraße 3-7,56856,zell/mosel
marienhospital oelde,spellerstraße 16,59302,oelde
srh krankenhaus waltershausen-friedrichroda gmbh,reinhardsbrunner straße 17,99894,friedrichroda
kreiskrankenhaus des vogelsbergkreises in alsfeld gmbh,schwabenröder strasse 81,36304,alsfeld
krankenhaus vilsbiburg,krankenhausstraße 2,84137,vilsbiburg
franziskus krankenhaus berlin,budapester str. 15-19,10787,berlin
"havelland kliniken gmbh, klinik rathenow",forststraße 45,14712,rathenow
johanniter-krankenhaus geesthacht gmbh,am runden berge 3,21502,geesthacht
awo fachkrankenhaus jerichow,johannes-lange-straße 20,39319,jerichow
kreiskrankenhaus grünstadt,westring 55,67269,grünstadt
krh psychiatrie langenhagen,rohdehof 3,30853,langenhagen
helios bördeklinik,kreiskrankenhaus 4,39387,oschersleben
capio mathilden-hospital büdingen,am schlag 9,63654,büdingen
st. martinus krankenhaus,klosterstrasse 32,40764,langenfeld
st. josefs krankenhaus hilden,walder straße 34-38,40724,hilden
caritas-krankenhaus lebach,heeresstrasse 49,66822,lebach
agaplesion evangelisches krankenhaus holzminden,forster weg  34,37603,holzminden
niels-stensen-klinikum christliches klinikum melle,engelgarten 3,49324,melle
neckar-odenwald-kliniken ggmbh,knopfweg 1,74821,mosbach
ameos klinikum mitte bremerhaven,wiener str. 1,27568,bremerhaven
ilm-kreis-kliniken arnstadt-ilmenau ggmbh,oehrenstöcker straße 32,98693,ilmenau
maria-hilf-krankenhaus,klosterstraße 2,50126,bergheim
burghof-klinik,ritterstraße 19,31737,rinteln
goldberg-klinik kelheim gmbh,traubenweg 3,93309,kelheim
maria-josef-hospital greven gmbh,lindenstraße 29,48286,greven
klinik neustadt an der aisch,paracelsusstr. 30,91413,neustadt
kreiskrankenhaus weilburg ggmbh,am steinbühl 2,35781,weilburg
"kliniken im naturpark altmühltal, klinik kösching",krankenhausstr. 19,85092,kösching
helios st. josefs-hospital bochum-linden,axstraße 35,44879,bochum-linden
marienhaus klinikum eifel - standort st. elisabeth gerolstein,aloys-schneider-straße 37,54568,gerolstein
paracelsus klinik zwickau,werdauer straße 68,08060,zwickau
kreiskrankenhaus weißwasser ggmbh,karl-liebknecht-str. 1,02943,weißwasser
krankenhaus schongau,marie-eberth-straße 6,86956,schongau
kreiskrankenhaus rotenburg a. d. fulda,am emanuelsberg 1,36199,rotenburg
krankenhaus friedberg,herrgottsruhstr. 3,86316,friedberg
st. sixtus-hospital haltern,gartenstraße 2,45721,haltern
paracelsus klinik - reichenbach,plauensche straße 37,08468,reichenbach
marien-hospital wattenscheid,parkstraße 15,44866,bochum
drk krankenhaus altenkirchen-hachenburg (hb),alte frankfurter straße 12,57627,hachenburg
lungenclinic grosshansdorf,wöhrendamm 80,22927,großhansdorf
niels-stensen-kliniken st.-vinzenz-hospital haselünne gmbh,hammer str. 9,49740,haselünne
"muldentalkliniken gmbh, gemeinnützige gesellschaft standort wurzen",kutusowstraße 70,04808,wurzen
asklepios südpfalzklinik kandel,luitpoldstrasse 14,76870,kandel
gfo kliniken bonn - betriebsstätte cura krankenhaus bad honnef,schülgenstr. 15,53604,bad
katholische kliniken ruhrhalbinsel (st. elisabeth krankenhaus niederwenigern),essener str. 31,45529,hattingen
simssee klinik,ströbingerstraße 18a,83093,bad
robert-koch-krankenhaus apolda gmbh,jenaer straße 66,99510,apolda
katholische kliniken im märkischen kreis - st. vincenz krankenhaus,am stein 24,58706,menden
zentrum für seelische gesundheit marienheide -klinik marienheide-,leppestraße 65-67,51709,marienheide
"muldentalkliniken gmbh, gemeinnützige gesellschaft standort grimma",kleiststraße 5,04668,grimma
krankenhaus märkisch oderland gmbh,prötzeler chaussee 5,15344,strausberg
krankenhaus mara ggmbh,maraweg 21,33617,bielefeld
psychosomatische klinik windach,schützenstr. 100,86949,windach
helios mariahilf klinik hamburg,stader straße 203 c,21075,hamburg
kreiskrankenhaus st. ingbert gmbh,klaus-tussing-straße 1,66386,st.
klinikum hochsauerland standort marienhospital arnsberg,nordring 37-41,59821,arnsberg
ev. diakoniekrankenhaus,wirthstraße 11,79110,freiburg
bezirkskrankenhaus wöllershof,wöllershof 1,92721,störnstein
asklepios klinik bad wildungen gmbh - stadtklinik -,brunnenallee 19,34537,bad
helios klinik leisnig,colditzer straße 48,04703,leisnig
fachklinik für psychiatrie und psychotherapie der marienborn ggmbh,luxemburger straße 1,53909,zülpich
städtisches krankenhaus nettetal gmbh,sassenfelder kirchweg 1,41334,nettetal
marien hospital,gablonzstr. 9,44225,dortmund
rotkreuzklinik lindenberg ggmbh,dr.-otto-geßler-platz 1,88161,lindenberg
niels-stensen-kliniken krankenhaus st. raphael ostercappeln,bremer straße 31,49179,ostercappeln
st. agatha krankenhaus köln,feldgärtenstraße 97,50735,köln
hospital zum heiligen geist ggmbh,am hospital 6,34560,fritzlar
katholisches karl-leisner klinikum standort wilhelm-anton hospital,voßheiderstraße 214 _,47574,goch
mediclin klinik an der lindenhöhe,bertha-von-suttner-straße 1,77654,offenburg
mediclin müritz-klinikum,stadtgarten 15,17207,röbel/müritz
klinik preetz,am krankenhaus 5,24306,plön
stiftungskrankenhaus nördlingen,stoffelsberg 4,86720,nördlingen
helios klinik lengerich,martin-luther-straße 49,49525,lengerich
ortenau klinikum offenburg-kehl betriebsstelle st. josefsklinik,weingartenstraße 70,77654,offenburg
lausitz klinik forst gmbh,robert-koch-straße 35,03149,forst
fachkrankenhaus coswig,neucoswiger str. 21,01640,coswig
donauklinik neu-ulm,krankenhausstraße 11,89231,neu-ulm
helios spital überlingen gmbh,härlenweg 1,88662,überlingen
orthopädische klinik hessisch lichtenau ggmbh,am mühlenberg 20,37235,hessisch
drk krankenhaus altenkirchen-hachenburg (ak),leuzbacher weg 21,57610,altenkirchen
rotkreuzklinik wertheim,rotkreuzstraße 2,97877,wertheim
krankenhaus schwabach ggmbh,regelsbacher straße 7,91126,schwabach
krankenhaus mühlacker,hermann-hesse-straße 34,75417,mühlacker
zentrum für integratrive psychiatrie - zip ggmbh,ratzeburger allee 160,23538,lübeck
helios cäcilien-hospital hüls,fette henn 50,47839,krefeld-hüls
"klinikum bielefeld gem. gmbh, standort halle/westfalen",winnebrockstr. 1,33790,halle
ameos klinikum neustadt,wiesenhof 1,23730,neustadt
ameos klinikum haldensleben,kiefholzstraße 4,39340,haldensleben
krankenhaus st. marienstift magdeburg gmbh,harsdorfer straße 30,39110,magdeburg
universitätsklinikum augsburg - am standort medizincampus süd,sauerbruchstr. 6,86179,augsburg
agaplesion evangelisches krankenhaus mittelhessen,paul-zipp-straße 171,35398,gießen
diakonie klinikum krankenhaus bethesda,euelsbruchstraße 39,57258,freudenberg
klinik rotes kreuz,königswarterstr. 08 -16,60316,frankfurt
drk-krankenhaus mölln-ratzeburg ggmbh,röpersberg 2,23909,ratzeburg
paracelsus-klinik henstedt-ulzburg,wilstedter straße 134,24558,henstedt-ulzburg
lungenklinik lostau,lindenstraße 2,39291,lostau
arberlandklinik viechtach,karl-gareis-str. 31,94234,viechtach
klinikverbund allgäu ggmbh - klinik immenstadt,im stillen 2-3,87509,immenstadt
arberlandklinik zwiesel,arberlandstraße 1,94227,zwiesel
mathilden hospital,renntormauer 1-3,32052,herford
asklepios fachklinikum wiesen,kirchberger straße 2,08134,wildenfels
landkreis schwäbisch hall klinikum ggmbh,gartenstr. 21,74564,crailsheim
kmg klinikum mitte gmbh klinikum kyritz,perleberger str. 31a,16866,kyritz
st. anna krankenhaus,krankenhausstr. 16,92237,sulzbach-rosenberg
klinikum landau-südliche weinstraße gmbh - klinik bad bergzabern,danziger straße 25,76887,bad
anregiomed klinik rothenburg,ansbacher str. 131,91541,rothenburg
kliniken hochfranken - klinik naila,hofer str. 45,95119,naila
kliniken des main-taunus-kreises gmbh,lindenstraße 10,65719,hofheim
herz- und gefäßzentrum bad bevensen,römstedter straße 25,29549,bad
westmecklenburg klinikum helene von bülow,parkstr. 12,19230,hagenow
dessau-roßlau,gropiusallee 3,06846,dessau-roßlau
paracelsus-klinik osnabrück,am natruper holz 69,49076,osnabrück
kreisklinik krumbach,mindelheimer straße 69,86381,krumbach
elisabeth klinikum schmalkalden gmbh,eichelbach 9,98574,schmalkalden
drk-krankenhaus mecklenburg-strelitz ggmbh,penzliner straße 56,17235,neustrelitz
klinikum mittelbaden bühl,robert-koch-straße 70,77815,bühl
st. marien-hospital lüdinghausen gmbh,neustraße 1,59348,lüdinghausen
klinikum mutterhaus der borromäerinnen ggmbh - standort ehrang,august-antz-straße 22,54293,trier
hüttenhospital dortmund ggmbh,am marksbach 28,44269,dortmund
krankenhaus rotes kreuz lübeck -geriatriezentrum-,marlistr. 10,23566,lübeck
friedrich von bodelschwingh-klinik,landhausstrasse 33-35,10717,berlin
krankenhaus maria hilf,hospitalstraße 3-7,59581,warstein
st. josef krankenhaus essen-werden gmbh,propsteistr. 2,45239,essen
ostemed klinik bremervörde,gnarrenburger straße 117,27432,bremervörde
oberlinklinik ggmbh | orthopädische fachklinik,rudolf-breitscheid-str. 24,14482,potsdam
helios fachklinik vogelsang - gommern,sophie-von-boettcher-straße 1,39245,vogelsang-gommern
diakovere annastift,anna-von-borries-straße  1-7,30625,hannover
evangelisches krankenhaus johannisstift münster ggmbh,wichernstr. 8,48147,münster
drk krankenhaus alzey,kreuznacher straße 7-9,55232,alzey
krankenhaus waldfriede e.v.,argentinische allee 40,14163,berlin
kmg klinikum sömmerda,bahnhofstraße 36,99610,sömmerda
stiftungsklinik weißenhorn,günzburger straße 41,89264,weißenhorn
benedictus krankenhaus tutzing gmbh &amp;amp; co. kg,bahnhofstraße 5,82327,tutzing
st. irmgardis-krankenhaus viersen-süchteln gmbh,tönisvorster str. 26,41749,viersen-süchteln
"msz uckermark ggmbh, krankenhaus angermünde",rudolf-breitscheid-straße 37,16278,angermünde
"klinik am park lünen, klinikum westfalen gmbh",brechtener str. 59,44536,lünen
malteser krankenhaus st. johannes,nebelschützer straße 40,01917,kamenz
sächsische schweiz klinik sebnitz,dr. - steudner - straße 75b,01855,sebnitz
kreisklinik wolfratshausen ggmbh,moosbauerweg 5,82515,wolfratshausen
sankt josef-hospital gmbh,in der hees 4,46509,xanten
"münchen klinik thalkirchner straße, münchen klinik ggmbh",thalkirchner straße 48,80337,münchen
helios klinik zerbst/anhalt,friedrich-naumann-straße 53,39261,zerbst
westmecklenburg klinikum helene von bülow,neustädter str. 1,19288,ludwigslust
krankenhaus weilheim,johann-baur-straße 4,82362,weilheim
"fliedner krankenhaus / klinik für psychiatrie und psychotherapie, gerontopsychiatrie und suchtmedizin",thunesweg 58,40885,ratingen
st. nikolaus hospital,hospitalstraße 5,66798,wallerfangen
klinik bosse wittenberg,hans-lufft-straße 5,06886,lutherstadt
ev. krankenhaus ginsterhof gmbh,metzendorfer weg 21,21224,rosengarten
drk kamillus klinik asbach,hospitalstraße 6,53567,asbach
"evang. krankenhaus ""gottesfriede""",schleusenstraße 50,15569,woltersdorf
drk-kinderklinik siegen,wellersbergstr. 60,57072,siegen
krh klinikum lehrte,manskestraße 22,31275,lehrte
klinikum hann. münden,vogelsang 105,34346,hann.
helios st. elisabeth klinik hünfeld,schillerstraße 22,36088,hünfeld
fachkliniken wangen,am vogelherd 14,88239,wangen
caritasklinikum saarbrücken standort st. josef,klosterstraße 14,66125,saarbrücken
"st. elisabeth-krankenhaus jülich, katholische nord-kreis kliniken gmbh",kurfürstenstrasse 22,52428,jülich
"gemeinschaftsklinikum mittelrhein, heilig geist",bahnhofstraße 7,56154,boppard
vivantes ida-wolff-krankenhaus,juchaczweg 21,12351,berlin
parkland-klinik bad wildungen gmbh &amp;amp; co betriebs kg,im kreuzfeld 6,34537,bad
chirurgisches klinikum münchen süd gmbh &amp;amp; co. kg,am isarkanal 30,81379,münchen
eichsfeld klinikum ggmbh,windische gasse 112,37308,heilbad
deutsches rotes kreuz krankenhaus lichtenstein gemeinnützige gmbh,hartensteiner straße 42,09350,lichtenstein
rotkreuzklinikum münchen - frauenklinik,taxisstraße 3,80637,münchen
kreiskrankenhaus wolgast ggmbh,chausseestraße 46,17438,wolgast
gertrudis-hospital westerholt,kuhstraße 23,45701,herten
st. elisabeth-krankenhaus rodalben,kirchbergstraße 14,66976,rodalben
acura kliniken baden-baden gmbh,rotenbachtalstrasse 5,76530,baden-baden
diabetes klinik,theodor-klotzbücher-str. 12,97980,bad
schön klinik bad staffelstein,am kurpark 11,96231,bad
bodden-kliniken ribnitz-damgarten gmbh,sandhufe 2,18311,ribnitz-damgarten
"harzklinikum dorothea christiane erxleben gmbh, standort blankenburg",thiestraße 7 - 10,38889,blankenburg
klinik für manuelle therapie,ostenallee 83,59071,hamm
median-klinik grünheide,an der reha-klinik 1,15537,grünheide
st. josef-krankenhaus hermeskeil,koblenzer straße 23,54411,hermeskeil
vianobis - die fachklinik am standort gangelt,katharina-kasper-str. 6,52538,gangelt
elbe-elster klinikum gmbh krankenhaus herzberg,alte prettiner straße 0,04916,herzberg
cip klinik dr. schlemmer,stefanie-von-strechine-str. 16,83646,bad
krankenhaus wittmund ggmbh,dohuser weg 10,26409,wittmund
evangelische lungenklinik,lindenberger weg 27,13125,berlin
"kliniken im naturpark altmühltal, klinik eichstätt",ostenstr. 31,85072,eichstätt
marienhausklinik ottweiler,hohlstraße 2-4,66564,ottweiler
st. joseph-krankenhaus dessau,auenweg 36,06847,dessau-roßlau
helios klinik titisee-neustadt,jostalstraße 12,79822,titisee-neustadt
kmg klinikum sondershausen,hospitalstraße 2,99706,sondershausen
sana kliniken ostholstein gmbh - klinik oldenburg,mühlenkamp 5,23758,oldenburg
franziskus krankenhaus linz,magdalena daemen straße 20,53545,linz
sana-krankenhaus hürth,krankenhausstr. 42,50354,hürth
asklepios klinik birkenwerder,hubertusstrasse 12- 22,16547,birkenwerder
klinik bad windsheim,erkenbrechtallee 45,91438,bad
st.-laurentius-stift,hochstraße 20,45731,waltrop
naemi-wilke-stift,dr.-ayrer-str. 1-4,03172,guben
orthopädische fachkliniken der hessing stiftung,hessingstraße 17,86199,augsburg
krankenhaus herrenberg,marienstraße 25,71083,herrenberg
helios klinik schkeuditz gmbh,leipziger straße  45,04435,schkeuditz
helios klinik müllheim,heliosweg 1,79379,müllheim
klinik ernst von bergmann bad belzig ggmbh,niemegker straße 45,14806,bad
kreiskrankenhaus schrobenhausen gmbh,högenauer weg 5,86529,schrobenhausen
oberlausitz-kliniken ggmbh / krankenhaus bischofswerda,kamenzer straße 55,01877,bischofswerda
haßberg-kliniken haus haßfurt,hofheimer str. 69,97437,haßfurt
helios klinik münchen perlach,schmidbauerstraße 44,81737,münchen
klinik neuendettelsau,heilsbronner str. 44,91564,neuendettelsau
evangelisches krankenhaus luckau ggmbh,berliner straße  24,15926,luckau
sana klinik bethesda stuttgart ggmbh,hohenheimer straße 21,70184,stuttgart
psorisol hautklinik gmbh,mühlstraße 31,91217,hersbruck
"helios klinikum wuppertal gmbh herzzentrum, standort elberfeld",arrenberger strasse 20,42117,wuppertal
st. johannes-hospital ggmbh,bleichenpfad 9,26316,varel
dr. von ehrenwall´sche klinik,walporzheimer straße 2,53474,ahrweiler
evangelisches krankenhaus gesundbrunnen ggmbh,am krähenberg 1,34369,hofgeismar
fachkrankenhaus kreischa,an der wolfsschlucht 1-2,01731,kreischa
marienhaus klinikum st. antonius waldbreitbach,margaretha-flesch-straße 4,56588,waldbreitbach
klinikum mutterhaus der borromäerinnen ggmbh - standort nord,theobaldstraße 12,54292,trier
asklepios neurologische klinik bad salzhausen,am hasensprung 6,63667,nidda
schön klinik münchen harlaching,harlachinger straße 51,81547,münchen
helfenstein klinik,eybstraße 16,73312,geislingen
rheumazentrum ruhrgebiet,claudiusstr. 45,44649,herne
fachklinik enzensberg,höhenstraße 56,87629,hopfen
paulinenkrankenhaus berlin,dickensweg 25 - 39,14055,berlin
lwl-klinik für psychiatrie und psychotherapie lippstadt,im hofholz 6,59556,lippstadt
hegau-bodensee-klinikum radolfzell,hausherrenstraße 12,78315,radolfzell
krankenhaus marienstift,helmstedter str. 35,38102,braunschweig
israelitisches krankenhaus in hamburg,orchideenstieg 14,22297,hamburg
sankt vinzenz hospital rheda-wiedenbrück,st.-vinzenz str.  1,33375,rheda-wiedenbrück
elbe-elster klinikum gmbh krankenhaus elsterwerda,elsterstraße 37,04910,elsterwerda
christliches kinderhospital osnabrück gmbh,johannisfreiheit 1,49074,osnabrück
alice-hospital,dieburger straße 31,64287,darmstadt
adula klinik,in der leite 6,87561,oberstdorf
evangelische elisabeth klinik,lützowstraße 26,10785,berlin
anregiomed-klinik dinkelsbühl,crailsheimerstraße 6,91550,dinkelsbühl
asklepios-asb klinik radeberg,pulsnitzer straße 60,01454,radeberg
klinik mallersdorf,krankenhausstraße 6,84066,mallersdorf-pfaffenberg
"kliniken nordoberpfalz ag - tirschenreuth, waldsassen",st.-peter-str. 31,95643,tirschenreuth
paracelsus-klinik bad ems,taunusallee 7-11,56130,bad
heilig-geist hospital gmbh &amp; co. kg,rodensteinstraße 94,64625,bensheim
radprax krankenhaus plettenberg gmbh,ernst-moritz-arndt-str. 17,58840,plettenberg
schön klinik münchen schwabing,parzivalplatz 4,80804,münchen
vamed klinik kipfenberg gmbh,konrad-regler-straße  1,85110,kipfenberg
rechbergklinik bretten,edisonstraße 10,75015,bretten
krankenhaus johanneum,feldstrasse 1,27793,wildeshausen
klinikum westmünsterland - krankenhaus maria-hilf stadtlohn,vredener str. 58,48703,stadtlohn
krankenhaus märkisch-oderland gmbh,sonnenburger weg 3,16269,wriezen
geriatrische fachklinik georgenhaus,ernststraße 7,98617,meiningen
krankenhaus bad arolsen gmbh,große allee 50,34454,bad
ortenau klinikum offenburg-kehl betriebsstelle kehl,kanzmattstraße 2,77694,kehl
krankenhaus maria stern,am anger 1,53424,remagen
gesundheitszentrum wetterau ggmbh kreiskrankenhaus schotten,wetterauer platz 1,63679,schotten
bezirksklinik rehau,fohrenreuther str. 48,95111,rehau
klinikum westmünsterland st. vinzenz-hospital rhede,vinzenz straße 6,46414,rhede
vitos klinik für psychiatrie und psychotherapie bad emstal,landgraf-philipp-straße 9,34308,bad
roland klinik ggmbh,niedersachsendamm 72-74,28201,bremen
otto-fricke-krankenhaus,martha-von-opel-weg 34,65307,bad
fachklinik hornheide,dorbaumstraße 300,48157,münster
hümmling hospital sögel ggmbh,mühlenstraße 17,49751,sögel
klinik tettnang gmbh,emil-münch-straße  16,88069,tettnang
st. franziskus-hospital,franziskusstr. 6,49393,lohne
st. martini gmbh krankenhaus duderstadt,göttinger str. 34,37115,duderstadt
main-klinik ochsenfurt ggmbh,am greinberg 25,97199,ochsenfurt
romed klinik bad aibling,harthauser str.  16,83043,bad
sana krankenhaus radevormwald,siepenstraße 33,42477,radevormwald
romed klinik prien am chiemsee,harrasser str. 61 - 63,83209,prien
marienkrankenhaus cochem,avallonstraße 32,56812,cochem
klinik augustinum,wolkerweg 16,81375,münchen
bad wildbad,könig-karl-str. 5,75323,bad
st. antonius-krankenhaus,gartenstr. 17,46244,bottrop-kirchhellen
klinikum fünfseenland gauting gmbh,robert-koch-allee 6,82131,gauting
spezialklinik neukirchen gmbh &amp;amp; co kg,krankenhausstr. 9,93453,neukirchen
lubinus clinicum,steenbeker weg 25,24106,kiel
helios klinikum warburg gmbh,hüffertstraße 50,34414,warburg
kreisklinik burghausen,krankenhausstr. 1,84489,burghausen
zfp südwürttemberg bad schussenried,pfarrer-leube-straße 29,88427,bad
st. josefs-hospital rheingau,eibinger str. 9,65385,rüdesheim
st. joseph krankenhaus prüm,kalvarienberg 4,54595,prüm
mariannen-hospital,unnaer straße 15,59457,werl
st. vincenz hospital brakel,danziger str. 17,33034,brakel
dkd helios klinik wiesbaden,aukammallee 33,65191,wiesbaden
vitos orthopädische klinik kassel gemeinnützige gmbh,wilhelmshöher allee 345,34131,kassel
asklepios klinik bad oldesloe,schützenstaße 55,23843,bad
mkk auguste viktoria klinik,am kokturkanal 2,32545,bad
gesundheitszentrum glantal,liebfrauenberg 32,55590,meisenheim
medical park chiemseeblick gmbh &amp;amp; co. kg - fachklinik für psychosomatik,rasthausstrasse 25,83233,bernau-felden
westerstede,lange straße 38,26655,westerstede
akg klinik parchim gmbh,john-brinckman-straße 8-10,19370,parchim
krankenhaus der elisabeth stiftung,walter-bleicker-platz 1,55765,birkenfeld
klinik bogen,mussinanstraße 8,94327,bogen
kreiskrankenhaus delitzsch gmbh - standort eilenburg,wilhelm-grune-str. 5-8,04838,eilenburg
kreiskrankenhaus delitzsch gmbh - standort delitzsch,dübener straße 3-9,04509,delitzsch
die stadtklinik im diako,frölichstraße 17,86150,augsburg
evangelisches krankenhaus herne - standort eickel,hordeler str. 7-9,44651,herne
ameos klinikum st. marien oberhausen,nürnberger straße 10,46117,oberhausen
klinik blankenstein hattingen,im vogelsang 5-11,45527,hattingen
fachklinik heiligenfeld,euerdorfer straße 4 - 6,97688,bad
sana krankenhaus bad doberan gmbh,am waldrand 1,18209,hohenfelde
paracelsus-klinik hemer gmbh,breddestr. 22,58675,hemer
asklepios südpfalzklinik germersheim,an fronte karl 2,76726,germersheim
klinik ingelheim gmbh,turnerstraße 23,55218,ingelheim
kmg klinikum mitte gmbh klinikum pritzwalk,giesensdorfer weg 2a,16928,pritzwalk
klinik königshof,am dreifaltigkeitskloster 16,47807,krefeld
heidekreis-klinikum gmbh krankenhaus soltau,oeninger weg  30,29614,soltau
kliniken beelitz gmbh / fachkrankenhaus für neurologische frührehabilitation,paracelsusring 6a,14547,beelitz-heilstätten
st. josef-krankenhaus,rurdorfer straße 49,52441,linnich
heilig-geist-hospital bingen ggmbh,kapuzinerstr. 15-17,55411,bingen
grn gesundheitszentren rhein-neckar ggmbh kreiskrankenhaus eberbach,scheuerbergstraße 3,69412,eberbach
ermstalklinik bad urach,stuttgarterstraße 100,72574,bad
"kmg klinikum mitte gmbh, klinikum wittstock",meyenburger chaussee 23,16909,wittstock
psychiatrische klinik uelzen,an den zehn eichen 50,29525,uelzen
klinik maingau vom roten kreuz,scheffelstr. 2-14,60318,frankfurt
brandenburgklinik bernau,brandenburgallee 1,16321,bernau
"aller-weser-klinik ggmbh, krankenhaus verden",eitzer straße 20,27283,verden
helios klinik wipperfürth,alte kölner straße 9,51688,wipperfürth
ameos klinikum dr. spernau bad salzuflen,waldstraße 2,32105,bad
lwl-klinik marsberg - standort marsberg,weist 45,34431,marsberg
krankenhaus tabea,kösterbergstr. 32,22587,hamburg
wertachklinik bobingen,wertachstrasse 55,86399,bobingen
romed klinik wasserburg am inn,krankenhausstraße 2,83512,wasserburg
gemeinnützige krankenhausgesellschaft des landkreises bamberg mbh - betriebsstätte juraklinik scheßlitz,oberend 29,96110,scheßlitz
klinikum fichtelgebirge ggmbh - haus selb,weißenbacher straße 62,95100,selb
st. vincenz-krankenhaus diez,adelheidstraße 2,65582,diez
asklepios klinik nord - wandsbek,jüthornstraße 71,22043,hamburg
"klinik für psychiatrie, psychotherapie und psychosomatik altenburg",zeitzer str. 28,04600,altenburg
klinik wittgenstein,sählingsstraße 60,57319,bad
oder-spree krankenhaus gmbh,schützenstrasse 28,15848,beeskow
universitäts-herzzentrum freiburg • bad krozingen,hugstetter straße  55,79106,freiburg
kreiskrankenhaus osterholz,am krankenhaus 4,27711,osterholz-scharmbeck
st.-marien-hospital marsberg,marienstraße 2,34431,marsberg
fliedner krankenhaus neunkirchen,theodor-fliedner-strasse 12,66538,neunkirchen
asklepios schlossberg klinik,frankfurter straße 33,64732,bad
"kliniken landkreis diepholz ggmbh, klinik sulingen",schmelingstraße 47,27232,sulingen
vamed klinik bad berleburg gmbh,an der gontardslust  7,57319,bad
albertinen krankenhaus / albertinen haus gemeinnützige gmbh,sellhopsweg 18-22,22459,hamburg
fachklinik ichenhausen,krumbacher straße 45,89335,ichenhausen
wertachklinik schwabmünchen,weidenhartstr. 35,86830,schwabmünchen
vamed ostseeklinik damp,seute-deern-ring 20,24351,ostseebad
curtius klinik,neue kampstrasse 2,23714,bad
donauisar klinikum dingolfing,teisbacher str. 1,84130,dingolfing
marien-hospital erftstadt-frauenthal,münchweg 3,50374,erftstadt
donauisar klinikum landau,bayerwaldring 17,94405,landau
ameos klinikum alfeld,landrat-beushausen-str. 26,31061,alfeld
eifelklinik st. brigida gmbh &amp; co. kg,kammerbruchstraße 8,52152,simmerath
gpz gmbh gemeindepsychiatrisches zentrum gmbh,schlabrendorffweg 2-6,32756,detmold
vitos waldkrankenhaus köppern,emil-sioli-weg 1-3,61381,friedrichsdorf
sauerlandklinik hachen ggmbh,siepenstraße 44,59846,sundern
mediclin waldkrankenhaus bad düben,gustav-adolf-straße 15 a,04849,bad
"aller-weser-klinik ggmbh, krankenhaus achim",bierdener mühle 2,28832,achim
evangelisches stadtkrankenhaus saarbrücken,großherzog-friedrich-strasse 44,66111,saarbrücken
helios klinik blankenhain,wirthstraße 5,99444,blankenhain
klinik manhagen,sieker landstraße 19,22927,großhansdorf
furtbachkrankenhaus stuttgart,furtbachstraße 6,70178,stuttgart
helios rosmann klinik breisach,zeppelinstraße  37,79206,breisach
kreiskrankenhaus schleiz gmbh,berthold-schmidt-straße 7-9,07907,schleiz
drk-krankenhaus grevesmühlen ggmbh,klützer straße 13-15,23936,grevesmühlen
sana krankenhaus templin,robert-koch-straße 24,17268,templin
"krankenhaus neuwittelsbach, fachklinik für innere medizin",renatastr. 71a,80639,münchen
lwl-universitätsklinik hamm,heithofer allee 64,59071,hamm
kliniken schmieder allensbach,zum tafelholz 8,78476,allensbach
epilepsiezentrum kork,landstraße 1,77694,kehl-kork
fachkrankenhaus bethanien hochweitzschen,ot hochweitzschen 1,04720,großweitzschen
kinderkrankenhaus st. marien ggmbh,grillparzerstraße 9,84036,landshut
bezirkskrankenhaus kempten,robert-weixler-strasse 46,87439,kempten
kreisklinik wörth an der donau,krankenhausstraße 2,93086,wörth
srh krankenhaus oberndorf a.n.,uhlandstr. 2,78727,oberndorf
kreisklinik ottobeuren,memminger straße 31,87724,ottobeuren
klinik füssen,stadtbleiche 1,87629,füssen
max-planck-institut für psychiatrie,kraepelinstraße 2-10,80804,münchen
asklepios klinik burglengenfeld,dr.-sauerbruch-str. 1,93133,burglengenfeld
fachklinik 360&amp;deg;,rosenstraße 2,40882,ratingen
malteser krankenhaus st. carolus,carolusstraße 212,02827,görlitz
krankenhaus bethanien ggmbh,aufderhöher straße 169,42699,42699
klinik donaustauf,ludwigstrasse 68,93093,donaustauf
paracelsus-elena-klinik,klinikstraße 16,34128,kassel
gertrudis-klinik biskirchen parkinson-zentrum,karl-ferdinand-broll-str. 2-4,35638,leun-biskirchen
klinik bad trissl gmbh,bad-trissl-str. 73,83080,oberaudorf
kmg manniske klinik bad frankenhausen,an der wipper 2,06567,bad
marienhausklinik st. josef losheim am see,krankenhausstraße 21,66679,losheim
kbo-isar-amper-klinikum fürstenfeldbruck,stadelbergerstraße 16-22,82256,fürstenfeldbruck
gemeinnützige krankenhausgesellschaft des landkreises bamberg mbh - betriebsstätte steigerwaldklinik burgebrach,am eichelberg 1,96138,burgebrach
kreisklinik berchtesgaden,locksteinstr. 16,83471,berchtesgaden
vulpius klinik gmbh,vulpiusstraße 29,74906,bad
kreisklinik wertingen,ebersberg 36,86637,wertingen
westküstenklinikum brunsbüttel,delbrückstrasse 2,25541,brunsbüttel
sophienklinik gmbh,bischofsholer damm 160,30173,hannover
mediclin hedon klinik,hedonallee 1,49811,lingen
"msz uckermark ggmbh, kreiskrankenhaus prenzlau",stettiner straße 121,17291,prenzlau
"kliniken landkreis diepholz ggmbh, klinik diepholz",eschfeldstaße 8,49356,diepholz
atos orthopädische klinik braunfels,hasselbornring 5,35619,braunfels
evangelisches johannesstift wichernkrankenhaus ggmbh,"schönwalder allee 26, haus 51",13587,berlin
st. antonius-krankenhaus,auf der rahm 17,57537,wissen
heiligenfeld klinik waldmünchen gmbh,krankenhausstr. 3,93449,waldmünchen
median klinik st. georg bad dürrheim,gartenstrasse  11 und 15,78073,bad
st.-marien-hospital ggmbh,st.-marien-str. 1,26169,friesoythe
kreiskrankenhaus rheinfelden,am vogelsang 4,79618,rheinfelden
st. vinzenz klinik pfronten im allgäu gmbh,kirchenweg 15,87459,pfronten
niels stensen kliniken elisabeth-kranknehaus thuine,klosterstraße 4,49832,thuine
krankenhaus grafenau,schwarzmaierstraße 21,94481,grafenau
internistisches klinikum münchen süd gmbh,am isarkanal 36,81379,münchen
behandlungszentrum kempfenhausen für multiple sklerose kranke gemeinnützige gmbh,milchberg 21,82335,berg-kempfenhausen
katholisches krankenhaus hagen gem. gmbh -katholisches krankenhaus elsey-,iserlohner straße 43,58119,hagen
krankenhaus elbroich,am falder 6,40589,düsseldorf
neurologische klinik selzer gmbh,murgtalstraße 656,72270,baiersbronn
kreisklinik hofgeismar,liebenauerstraße 1,34369,hofgeismar
st.-elisabeth-krankenhaus fachklinik für geriatrie,bahnhofstraße  19,99976,lengenfeld
caritas-klinik st. marien,bergstr. 1-3,14770,brandenburg
evangelisches zentrum für altersmedizin,weinbergstraße 18-19,14469,potsdam
kreiskrankenhaus ronneburg,rudolf-breitscheid-platz 1,07580,ronneburg
mediclin herzzentrum coswig,lerchenfeld 1,06869,coswig
drk-krankenhaus grimmen gmbh,dorfstraße 39,18516,süderholz
st. josef krankenhaus wiesdorf,adolfsstraße 15,51373,leverkusen
bdh-klinik hessisch oldendorf ggmbh,greitstraße 18-28,31840,hessisch
vitos klinik für psychiatrie und psychotherapie standort haina,landgraf-philipp-platz 3,35114,haina
st. anna klinik,st. annenstr. 9,49624,löningen
agaplesion diakoniekrankenhaus seehausen,dr. albert steinert platz 1,39615,seehausen/altmark
johanniter-krankenhaus gronau gmbh,johanniterstraße 1-3,31028,gronau
klinik sonnenwende,sonnenwendstr. 86,67098,bad
"klinikum aschaffenburg-alzenau gemeinnützige gmbh, standort alzenau",schlosshof 1,63755,alzenau-wasserlos
orthopädische klinik volmarstein,lothar-gau-straße 11,58300,wetter
asklepios klinik lindau,friedrichshafener straße 82,88131,lindau
asklepios orthopädische klinik lindenlohe,lindenlohe 18,92421,schwandorf
krankenhaus martha-maria münchen,wolfratshauser straße 109,81479,münchen
sana klinik pegnitz gmbh,langer berg 12,91257,pegnitz
klinikum westmünsterland st. marien- hospital vreden,an´t lindeken 100,48691,vreden
loreley-kliniken oberwesel,hospitalgasse 11,55430,oberwesel
alexianer krankenhaus münster,alexianerweg 9,48163,münster
klinik  dr. robert schindlbeck,seestraße 43,82211,herrsching
evangelisches lukas-krankenhaus gronau ggmbh,zum lukas-krankenhaus 1,48599,gronau
rottal-inn kliniken kommunalunternehmen (ku),am griesberg 1,84347,pfarrkirchen
deutsches zentrum für kinder- und jugendrheumatologie,gehfeldstrasse 24,82467,garmisch-partenkirchen
krankenhaus für naturheilweisen,seybothstraße 65,81545,münchen
sankt elisabeth krankenhaus eutin,plöner str. 42,23701,eutin
vitos klinik für psychiatrie und psychotherapie kassel,wilhelmshöher allee 345a,34131,kassel
asklepios nordseeklinik westerland/sylt,norderstr. 81,25980,sylt/ot
diakonie krankenhaus standort kirn,jahnstraße 11,55606,kirn
evangelisches krankenhaus göttingen-weende ggmbh - krankenhaus neu-mariahilf,waldweg 9,37073,göttingen
st. josef krankenhaus gmbh moers - betriebsstätte st. nikolaus hospital,orsoyer str. 55,47495,rheinberg
st. elisabeth-krankenhaus salzgitter,liebenhaller str. 20,38259,salzgitter
"thüringen-kliniken ""georgius agricola"" gmbh",hohes gäßchen 8-10,07381,pößneck
kbo-lech-mangfall-klinik agatharied,st.-agatha-str. 1a,83734,hausham/obb.
awo krankenhaus calbe,hospitalstr. 5,39240,calbe/saale
schön klinik lorsch se &amp; co. kg,wilhelm-leuschner-straße 10,64653,lorsch
fachklinik für lungenerkrankungen,robert - koch - straße 3,34376,immenhausen
marienkrankenhaus schwerte-schützenstraße,schützenstraße 9,58239,schwerte
st. rochus krankenhaus steinheim,nieheimer str. 34,32839,steinheim
malteser-krankenhaus berlin-charlottenburg,pillkaller allee 1,14055,berlin
krankenhaus lindenbrunn,lindenbrunn 1,31863,coppenbrügge
fachklinik panorama,kurstraße 22,88175,scheidegg
krankenhaus schleiden,am hähnchen 36,53937,schleiden
niels-stensen-kliniken marienhospital ankum-bersenbrück gmbh,lingener straße 11,49577,ankum
westpfalz-klinikum gmbh - standort iii kirchheimbolanden,dannenfelser straße 36,67292,kirchheimbolanden
eichsfeld klinikum ggmbh,klosterstraße 7,37355,kleinbartloff
orthopädische fachklinik schwarzach,dekan-graf-str. 2-6,94374,schwarzach
"heinrich-braun-klinikum gemeinnützige gmbh, standort kirchberg",schneeberger straße 36,08107,kirchberg
asklepios orthopädische klinik hohwald,hohwaldstraße 40,01844,neustadt
wolfartklinik,waldstraße 7,82166,gräfelfing
drk krankenhaus biedenkopf,hainstraße 71 - 75,35216,biedenkopf
vivantes klinikum im friedrichshain - öb fröbelstraße prenzlauer berg,fröbelstraße 15,10405,berlin
sana fabricius-klinik remscheid gmbh,brüderstraße 65,42853,remscheid
vitanas klinik &amp;amp; tagesklinik für geriatrie,senftenberger ring 51,13435,berlin
hochgrat klinik,wolfsried 108,88167,stiefenhofen
drk schmerz-zentrum mainz,auf der steig 16,55131,mainz
"klinikum nordfriesland ggmbh, klinik niebüll",gather landstraße 75,25899,niebüll
diakonie-klinik mosbach,neckarburkener straße 6,74821,mosbach
st. bernhard-hospital gemeinnützige gmbh,claußenstraße 3,26919,brake
einbecker bürgerspital gmbh,andershäuser str. 8,37574,einbeck
klinik lilienthal,moorhauser landstraße 3c,28865,lilienthal
"evangelisches krankenhaus, betriebsstätte selters",waldstraße 5,56242,selters
friedrich-husemann-klinik,friedrich-husemann-weg 8,79256,buchenbach
krankenhaus vom roten kreuz bad cannstatt gmbh,badstraße 35-37,70372,stuttgart
sonnenberg klinik,christian-belser-straße 79,70597,stuttgart
"christophorus kliniken coesfeld – dülmen – nottuln, standort nottuln",hagenstraße 35,48301,nottuln
kreiskrankenhaus schopfheim,schwarzwaldstraße 40,79650,schopfheim
bdh-klinik waldkirch ggmbh,heitere weg 10,79183,waldkirch
helios klinik bleicherode gmbh,barbarastraße  11,99752,bleicherode
krankenhaus mörsenbroich-rath gmbh / marienkankenhaus kaiserswerth,an st. switbert 17,40489,düsseldorf
ameos klinikum anklam,hospitalstraße 19,17389,anklam
tagesklinik alteburger straße ggmbh,alteburger straße 8 - 12,50678,köln
sk gmbh-neurologisches zentrum,hamdorfer weg 3,23795,bad
klinikum st. josef buchloe,peter-dörfler-straße 7,86807,buchloe
krankenhaus aichach,krankenhausstr. 11b,86551,aichach
capio elbe-jeetzel-klinik dannenberg,hermann-löns-straße 2,29451,dannenberg
st. franziskus-hospital,franziskusstraße 2,59955,winterberg
krankenhaus emmaus niesky,plittstraße 24,02906,niesky
hochtaunus-kliniken ggmbh - usingen,weilburger straße 48,61250,usingen
klinikum penzberg,am schloßbichl 7,82377,penzberg
agaplesion krankenhaus neu bethlehem ggmbh,humboldtallee 8,37073,göttingen
kliniken nordoberpfalz ag - krankenhaus kemnath,werner-von-siemens-straße 7,95478,kemnath
niels-stensen-kliniken bramsche gmbh,hasestraße 16,49565,bramsche
dietrich-bonhoeffer-klinikum standort malchin,basedower straße 33,17139,malchin
orthopädisches krankenhaus schloss werneck,balthasar-neumann-platz 1,97440,werneck
kbo-lech-mangfall-klinik garmisch-partenkirchen,auenstrasse 6,82467,garmisch-partenkirchen
rotkreuzklinik würzburg ggmbh,kapuzinerstraße 2,97070,würzburg
klinik dr. guth der klinikgruppe dr. guth gmbh &amp; co. kg,jürgensallee 46-48,22609,hamburg
diakonie-krankenhaus elbingerode,brockenstraße 1,38875,elbingrode
awo psychiatriezentrum halle gmbh,zscherbener str. 11,06124,halle
privatklinik bad gleisweiler,badstraße 28,76835,gleisweiler
ameos klinikum staßfurt,bodestr. 11,39418,staßfurt
biomed-klinik betriebs-gmbh,tischbergerstr. 5+8,76887,bad
"sana kliniken ostholstein gmbh, klinik middelburg",middelburger str. 1,23701,süsel
drk-kliniken nordhessen gemeinnützige gmbh standort kaufungen,sophie henschel weg 2,34260,kaufungen
kliniken schmieder heidelberg,speyererhof 1,69117,heidelberg
"vamed klinik schloss pulsnitz gmbh: krankenhausbereich, enthalten sind nur die daten der patientinnen/patienten der besonderen einrichtung, ohne patientinnen/patienten aus dem reha-bereich",wittgensteiner straße  1,01896,pulsnitz
therapiezentrum burgau,kapuzinerstraße 34,89331,burgau
neurologische klinik westend,dr.-born-straße  9,34537,bad
median klinik nrz magdeburg,gustav-ricker-str. 4,39120,magdeburg
privatklinik dr. amelung gmbh,altkönigstraße 16,61462,königstein
diako nordfriesland ggmbh (fachklinik für psychiatrie und psychosomatik - stat. angebote),gammeltoft 8-15,25821,breklum
capio mosel-eifel-klinik,kurfürstenstraße 40,56864,bad
lungenklinik ballenstedt/harz gmbh,robert-koch-str. 26/27,06493,ballenstedt
agaplesion bethanien krankenhaus heidelberg,rohrbacher straße 149,69126,heidelberg
westpfalz-klinikum gmbh - standort iv rockenhausen,krankenhausstraße 10,67806,rockenhausen
kreisklinik jugenheim,hauptstr. 30,64342,seeheim-jugenheim
st. marien krankenhaus lampertheim gmbh,neue schulstraße 12,68623,lampertheim
albklinik münsingen,lautertalstraße 47,72525,münsingen
drk-krankenhaus teterow ggmbh,goethestraße 14,17166,teterow
medinos kliniken des landkreises sonneberg gmbh - standort neuhaus,neustadter straße 61,96515,sonneberg
geomed-kreisklinik,dingolshäuser straße 5,97447,gerolzhofen
st. franziskus krankenhaus gmbh,hospitalstraße 7,53783,eitorf
marien-hospital,von-droste-straße 14,59597,erwitte
"stadtklinik werdohl, märkische kliniken gmbh",schulstraße 25,58791,werdohl
fachklinik katzenelnbogen,aarstraße 17,56368,katzenelnbogen
agaplesion pneumologische klinik waldhof elgershausen,waldhof elgershausen 1,35753,greifenstein
artemed fachklinik prof.dr.dr.salfeld gmbh und co.kg,portastraße 33-35,32545,bad
danuvius klinik pfaffenhofen,krankenhausstraße 68,85276,pfaffenhofen
capio krankenhaus land hadeln,große ortstraße 85,21762,otterndorf
srh kurpfalzkrankenhaus heidelberg gmbh,bonhoefferstraße 5,69123,heidelberg
rhein-klinik,luisenstr. 3,53604,bad
mediclin seepark klinik,sebastian-kneipp-str. 1,29389,bad
hephata-klinik,schimmelpfengstr. 6,34613,schwalmstadt
vitos klinik für psychiatrie und psychotherapie hadamar,mönchberg 8,65589,hadamar
eichsfeld klinikum ggmbh,elisabethstraße 61,37339,leinefelde-worbis
klinikum lippe bad salzuflen,heldmanstraße 45,32108,bad
johanniter klinik für geriatrie geesthacht,johannes-ritter-str. 100,21502,geesthacht
christophorus klinik am schlossgarten dülmen,am schlossgarten 10,48249,dülmen
schön klinik berchtesgadener land se &amp; co. kg -akut,malterhöh 1,83471,schönau
havelklinik gmbh &amp;amp; co. kg,gatower str. 191,13595,berlin
augustahospital anholt,augustastraße 8,46419,isselburg
pp.rt klinik für psychiatrie und psychosomatik haus dietrich bonhoeffer,wörthstrasse 52/1,72764,reutlingen
krankenhaus mainburg,laurentiusweg 1,84048,mainburg
tropenklinik paul-lechler-krankenhaus,paul-lechler-straße 26,72076,tübingen
standort seelow,robert-koch-straße 7-15,15306,seelow
haus olbernhau,krankenhausstraße 1,09526,olbernhau
paracelsus-klinik am silbersee,oertzeweg 24,30851,langenhagen
facharztklinik hamburg,martinistrasse 78,20251,hamburg
klinik oberammergau,hubertusstr. 40,82487,oberammergau
bezirkskrankenhaus passau,wörthstraße 5,94032,passau
orthopädisches zentrum martin-ulbrich-haus rothenburg ggmbh,horkaer straße 15-21,02929,rothenburg
sana kliniken des landkreises cham - krankenhaus roding,arnulfstraße 1,93426,roding
thoraxzentrum bezirk unterfranken,michelsberg 1,97702,münnerstadt
agaplesion bethesda klinik ulm ggmbh akademisches krankenhaus der universität,zollernring 26,89073,ulm
heiligenfeld klinik uffenheim gmbh,krankenhausstraße 1,97215,uffenheim
helios klinik wesermarsch,mildred-scheel-str. 1,26954,nordenham
"gemeinschaftsklinikum mittelrhein, paulinenstift",borngasse 14,56335,nastätten
dietrich-bonhoeffer-klinikum standort altentreptow,am klosterberg 1 a,17087,altentreptow
helios klinik bad gandersheim,albert-rohloff-straße 2,37581,bad
kaiserin-auguste-victoria krankenhaus gmbh,stegwiese 27,35630,ehringshausen
ameos klinikum lübeck,kahlhorststraße 33,23562,lübeck
helios klinik für herzchirurgie karlsruhe,franz-lust-straße 30,76185,karlsruhe
st. elisabeth-hospital meerbusch-lank,hauptstrasse 74-76,40668,meerbusch
orthopädische universitätsklinik friedrichsheim ggmbh,marienburgstraße  2,60528,frankfurt
m&amp;i fachklinik bad heilbrunn,wörnerweg 30,83670,bad
hessische berglandklinik koller gmbh,landstr. 4,35080,bad
diakoniewerk münchen-maxvorstadt,arcisstr. 35,80799,münchen
klinik- und rehabilitationszentrum lippoldsberg gmbh,birkenallee 1,34399,wesertal-lippoldsberg
st. josef krankenhaus,mühlenstr. 31-35,53518,adenau
immanuel krankenhaus berlin - standort buch,lindenberger weg 19,13125,berlin
kliniken dritter orden ggmbh standort kinderklinik dritter orden passau,bischof-altmann-straße 9,94032,passau
krankenhaus bad waldsee,robert-koch-straße 38,88339,bad
"evangelisches krankenhaus, betriebsstätte dierdorf",hachenburger str. 16,56269,dierdorf
darmstädter kinderkliniken prinzessin margaret,dieburger str. 31,64287,darmstadt
klinikum forchheim - fränkische schweiz ggmbh,feuersteinstr. 2,91320,ebermannstadt
loreley-kliniken st. goar,gründelbach 38,56329,st.
st. anna-klinik,obere waiblinger str. 101,70374,stuttgart
chirurgische klinik münchen-bogenhausen,denninger str. 44,81679,münchen
sana-herzzentrum cottbus gmbh,leipziger straße 50,03048,cottbus
st.-elisabeth-krankenhaus,kurler str. 130,44319,dortmund
kreisklinik wolfhagen,am kleinen ofenberg 1,34466,wolfhagen
paracelsus klinik düsseldorf golzheim,friedrich-lau-strasse 11,40474,düsseldorf
"krankenhaus st. vincentius der evang. stadtmission heidelberg ggmbh, klinik für innere medizin",untere neckarstraße 1-5,69117,heidelberg
cip tagesklinik gmbh,maria-josepha-straße 4,80802,münchen
lwl-klinik marsberg (kinder- u. jugendpsychiatrie),bredelarer straße 33,34431,marsberg
"asklepios schwalm-eder-kliniken gmbh, klinikum melsungen",kasseler straße 80,34212,melsungen
capio franz von prümmer klinik,bahnhofstraße 16,97769,bad
mediclin robert janker klinik,villenstraße 8,53129,bonn
krankenhaus neuenbürg,marxzeller straße 46,75305,neuenbürg
schmerzklinik kiel,heikendorfer weg 9-27,24149,kiel
frauenklinik dr. geisenhofer,hirschauer str. 6,80538,münchen
ortenau klinikum achern-oberkirch (standort oberkirch),franz-schubert-straße 15,77704,oberkirch
st. josef-krankenhaus viernheim,seegartenstraße 4,68519,viernheim
schussental-klinik,safranmoosstraße  5,88326,aulendorf
bertha krankenhaus,maiblumen str. 5,47229,duisburg
medizinische klinik borstel,parkallee 35,23845,borstel
augusta-kranken-anstalt ggmbh bochum,dr.-c.-otto-str. 27,44879,bochum-linden
fachklinik osterhofen gmbh,plattlinger strasse 29,94486,osterhofen
ortenau klinikum wolfach,oberwolfacherstr. 10,77709,wolfach
srh krankenhaus pfullendorf,eichberg 2/1,88630,pfullendorf
mediclin krankenhaus am crivitzer see gmbh,amtsstraße 1,19089,crivitz
sana dreifaltigkeits-krankenhaus köln,aachener str. 445-449,50933,köln
helios klinik idstein,robert-koch-str. 2,65510,idstein
marienhaus klinikum st. josef bendorf,margaretha-flesch-platz 1,56170,bendorf
kreiskrankenhaus höchstadt,spitalstrasse 5,91315,höchstadt
klinik fuer psychiatrie und psychotherapie friedberg,johann-peter-schäfer str. 3,61169,friedberg
barmherzige brüder paul gerhardt haus regensburg,prüfeninger str. 86,93049,regensburg
st. hubertus-stift gmbh,klosterstraße 21a,50181,bedburg
kbo-inn-salzach-klinikum freilassing,vinzentiusstraße 56,83395,freilassing
kreiskliniken des landkreises mühldorf a. inn gmbh - klinik haag,krankenhausstr. 4,83527,haag
klinik für kinder- und jugendpsychiatrie wichernstift ggmbh,oldenburger straße 333,27777,ganderkesee
vamed klinik hagen ambrock,ambrocker weg 60,58091,hagen
klinikum osnabrücker land gmbh,hospitalweg 1,49124,georgsmarienhütte
standort frankfurt (oder),heinrich-hildebrand-straße 22,15232,frankfurt
sankt elisabeth hospital; st. lucia hospital harsewinkel,dechant-budde-weg 3,33428,harsewinkel
neurologisches fachkrankenhaus für bewegungsstörungen / pa,straße nach fichtenwalde 16,14547,beelitz
"barmherzige brüder saffig, fachklinik für psychiatrie und psychotherapie",pöschstrasse 18,56648,saffig
krankenhäuser nürnberger land gmbh - krankenhaus altdorf,neumarkter straße 6,90518,altdorf
lvr-klinik für orthopädie viersen,horionstraße 2,41749,viersen
"krankenhaus lübbecke-rahden, betriebsstelle rahden",hohe mühle 3,32369,rahden
kbo - heckscher-klinikum ggmbh münchen,deisenhofener straße 28,81539,münchen
krankenhaus marbach,im bannmüller 8,71672,marbach
klinik für kinder- und jugendpsychiatrie und psychotherapie,florentine-eichler-straße 1,51067,köln
ortenau klinikum lahr-ettenheim standort ettenheim,robert-koch-strasse 15,77955,ettenheim
bürgerhospital und clementine kinderhospital ggmbh,theobald-christ-str. 16,60316,frankfurt
kreisklinik vinzentinum ruhpolding,hauptstr. 24,83324,ruhpolding
psychiatrische fachklinik langenberg,krankenhausstr. 17,42555,velbert
marienstift arnstadt -fachklinik für orthopädie,wachsenburgallee  12,99310,arnstadt
urologische klinik münchen - planegg,germeringer straße 32,82152,planegg
rheumazentrum mittelhessen,sebastian-kneipp-str. 36,35080,bad
klinikum garmisch-partenkirchen aussenstelle murnau,professor-küntscher-straße 8,82418,murnau
tcm-klinik bad kötzting,ludwigstraße 2,93444,bad
mediclin herzzentrum lahr/baden,hohbergweg 2,77933,lahr/schwarzwald
sportklinik stuttgart gmbh,taubenheimstraße 8,70372,stuttgart
helios agnes-karll krankenhaus bad schwartau [bsc] [bsc],am hochkamp  21,23611,bad
euregio-klinik hannoverstraße gmbh,albert-schweitzer-straße 10,48527,nordhorn
rangauklinik ansbach,strüth 24,91522,ansbach
klinik st. irmingard,osternacher straße 103,83209,prien
mediclin kliniken bad wildungen fachklinik für akutpsychosomatik,ziergartenstraße 9,34537,bad
m&amp;i-fachklinik bad liebenstein,kurpromenade 2,36448,bad
st. nikolaus-hospital,grabenstr. 86-88,47546,kalkar
kinderhospital osnabrück,iburger straße 187,49082,osnabrück
kbo-lech-mangfall-klinik landsberg am lech,bgm.-dr.-hartmann-str. 50-52,86899,landsberg
illertalklinik illertissen,krankenhausstraße 7,89257,illertissen
klinik neustadt gmbh,seilersgründchen 8,96465,neustadt
klinikum landau-südliche weinstraße gmbh - klinik annweiler,georg-staab-straße 3,76855,annweiler
ev. krankenhaus enger ggmbh,hagenstraße 47,32130,enger
median klinik bad tennstedt,badeweg 2,99955,bad
median zentrum für verhaltensmedizin bad pyrmont - fachkrankenhaus,bombergallee 11,31812,bad
klinikum seefeld,hauptstraße 23,82229,seefeld-oberalting
martini-klinik am uke gmbh,martinistraße 52,20246,hamburg
st. elisabeth krankenhaus,warburger straße 6,34471,volkmarsen
bützow,am forsthof 3,18246,bützow
ameos klinikum preetz,am krankenhaus 5a,24211,preetz
klinikverbund allgäu ggmbh - klinik oberstdorf,trettachstraße 16,87561,oberstdorf
acura kliniken rheinland-pfalz gmbh akutzentrum,kaiser-wilhelm-str. 9-11,55543,bad
hassberg-kliniken haus ebern,coburger straße 21,96106,ebern
klinik josephinum gag,schönfeldstraße 16,80539,münchen
paracelsus-klinik bremen,in der vahr 65,28329,bremen
rommel-klinik gmbh,bätznerstr. 96-98,75323,bad
psychiatrisch-psychosomatische klinik celle,schlepegrellstraße 4,29223,celle
fachkrankenhaus für dermatologie schloss friedensburg gmbh,schloßstraße 25,07338,leutenberg
drk-kliniken nordhessen gemeinnützige gmbh standort bettenhausen,pfarrstraße 19,34123,kassel
"vamed klinik geesthacht: akutbereich, enthalten sind nur die daten der patientinnen/patienten der besonderen einrichtung, ohne patientinnen/patienten aus dem reha-bereich",johannes-ritter-straße 100,21502,geesthacht
neurologisches rehabilitationszentrum,muldentalweg 1,04828,bennewitz
"behandlungszentruam aschau, 83239 aschau i.ch., bernauer straße 18",bernauer straße 18,83229,aschau
median achertal-klinik ottenhöfen,markgraf-bernhard-straße 2,77883,ottenhöfen
klinik für geriatrie ratzeburg gmbh,röpersberg 47,23909,ratzeburg
krankenhaus wegscheid,marktstraße 50,94110,wegscheid
median klinik gunzenbachhof baden-baden,gunzenbachstraße 6,76530,baden-baden
fachklinik bad bentheim,am bade 1,48455,bad
veramedklinik am wendelstein,mühlenstrasse 60,83098,brannenburg
bdh-klinik vallendar ggmbh,heerstraße 54a,56179,vallendar
arcus klinik,rastatter str. 17-19,75179,pforzheim
asklepios harzklinik bad harzburg,ilsenburger straße 95,38667,bad
helios klinik oberwald grebenhain,an den mühlwiesen  14-17,36355,grebenhain
klinik öschelbronn,am eichhof 30,75223,niefern
vitos klinik bad wilhelmshöhe,herkulesstraße 111,34119,kassel
sana herzchirurgie suttgart gmbh,herdweg 2,70174,stuttgart
bdh-klinik greifswald ggmbh,karl-liebknecht-ring 26a,17491,greifswald
klinikum westbrandenburg gmbh - standort potsdam,charlottenstraße 72,14467,potsdam
helios seehospital sahlenburg,nordheimstraße  201,27476,cuxhaven
oberhavel klinik gransee gmbh,meseberger weg 12-13,16775,gransee
hospital zum heiligen geist,bachstraße 76,59590,geseke
scivias caritas ggmbh st. valentinus-krankenhaus,sebastian kneipp straße 11,65812,bad
fachklinik für neurologie dietenbronn gmbh,dietenbronn 7,88477,schwendi
lungenklinik neustadt gmbh,badestraße 23,99768,harztor
paracelsus krankenhaus,burghaldenweg 60,75378,bad
hufeland-klinik bad ems,taunusallee 5,56130,bad
krankenhaus norderney,lippestr. 9-11,26548,norderney
klinik für mic,kurstraße 11,14129,berlin
st. antonius krankenhaus hörstel - klinik für suchtmedizin und psychotherapie,krankenhausstraße 17,48477,hörstel
median heinrich-mann-klinik,heinrich-mann-straße  34,36448,bad
helios kliniken mittelweser,holzhäuser weg 28,31592,stolzenau
mediclin seidelklinik,hebelweg 4,79415,bad
johannesbad reha-kliniken gmbh &amp;amp; co. kg,johannesstraße 2,94072,bad
alexianer tönisvorst gmbh - krankenhaus maria-hilf,hospitalstraße 2,47918,tönisvorst
liebenau kliniken gemeinnützige gmbh | st. lukas-klinik,siggenweilerstr. 11,88074,meckenbeuren
bdh-klinik braunfels ggmbh,hubertusstraße 3-7,35619,braunfels
donau-ries-klinik oettingen,kellerstraße 15,86732,oettingen
diabeteszentrum bad lauterberg,kirchberg 21,37431,bad
klinik menterschwaige,geiselgasteigstraße 203,81545,münchen
allgemeinpsychiatrie und psm friedrichshafen-bodensee,röntgenstraße 8,88048,friedrichshafen
kinderklinik schömberg ggmbh,römerweg 7,75328,schömberg
parkinson klinik ortenau,kreuzbergstraße  12,77709,wolfach
werner-schwidder-klinik,herbert-hellmann-allee 38,79189,bad
"evangelisches krankenhaus bethanien ggmbh, tk gfw",gützkower landstrasse 69,17489,greifswald
ortho-klinik dortmund,virchowstraße 4,44263,dortmund
srh krankenhaus bad saulgau,gänsbühl 1,88348,bad
"helios weißeritztal-kliniken, klinik dippoldiswalde",rabenauer str. 9,01744,dippoldiswalde
lwl-klinik lengerich standort rheine,hörstkamp 12,48431,rheine
krankenhaus rheiderland,neue straße 22,26826,weener
arabella-klinik gmbh,arabellastraße 5,81925,münchen
paracelsus klinik münchen,klingsorstr. 5,81927,münchen
lungenfachklinik st. blasien,muchenländer str. 4,79837,st.
krankenhäuser nürnberger land gmbh - krankenhaus hersbruck,großviehbergstraße 8,91217,hersbruck
klinikum mittelbaden forbach,friedrichstraße 17,76596,forbach
klinikum main-spessart marktheidenfeld,baumhofstraße 93,97828,marktheidenfeld
klinikum mittelbaden baden-baden ebersteinburg,dr.-rumpf-weg 7,76530,baden-baden
felsenland klinik dahn,ingbert-naab-str. 6-8,66994,dahn
benedictus krankenhaus feldafing gmbh &amp;amp; co. kg,thomas-mann-straße 6,82340,feldafing
medical park bad camberg - fachklinik für neurologie -,obertorstraße 100-102,65520,bad
hinterzarten,erlenbrucker str. 14,79856,hinterzarten
drk kliniken berlin wiegmann klinik,spandauer damm 130,14050,berlin
mediclin klinikum soltau,oeninger weg 59,29614,soltau
m&amp;i fachklinik herzogenaurach,in der reuth 1,91074,herzogenaurach
sana kliniken leipziger land gmbh - klinik zwenkau,pestalozzistraße 9,04442,zwenkau
psychiatrische klinik wuppertal sanderstr. 7,sanderstr. 161,42283,wuppertal
ameos klinikum hameln,wilhelmstraße 5,31785,hameln
waldklinik bernburg,kesslerstrasse 08,06406,bernburg
epilepsieklinik tabor,ladeburger str. 15,16321,bernau
fachklinik st. lukas,nibelungenstr. 49,94086,bad
fachklinik waldeck,dr.-friedrich-dittmann-weg 1,18258,schwaan-waldeck
krankenhaus stockach,am stadtgarten 10,78333,stockach
acura kliniken albstadt gmbh,robert-koch-str. 26,72461,albstadt
st. hedwig-klinik,a2 3-7,68159,mannheim
sana-klinik nürnberg gmbh,weiltinger straße 11,90449,nürnberg
evangelische kliniken luise-henrietten-stift lehnin,klosterkirchplatz 8a,14797,kloster
georg-von-liebig-krankenhaus,rinckstraße 7 - 9,83435,bad
danuvius klinik neuburg,bahnhofstraße b107,86633,neuburg
deister süntel klinik,deisterallee 36,31848,bad
ameos klinikum kaiserstuhl,brunngasse 1,79235,vogtsburg-bischoffingen
klinik wartenberg - professor dr. selmair gmbh &amp; co. kg,badstraße 43,85456,wartenberg
helios dr. horst-schmidt-kliniken wiesbaden,aukammallee 39,65191,wiesbaden
medi-therm kliniken gmbh &amp;amp; co. kg,rosenheimer str. 6-8,83043,bad
median klinik nrz wiesbaden,aukammallee 39,65191,wiesbaden
waldklinik jesteburg,kleckerwaldweg 145,21266,jesteburg
srh fachkrankenhaus neresheim gmbh,kösinger straße 11,73450,neresheim
helios aukamm-klinik wiesbaden gmbh,leibnizstraße 21,65191,wiesbaden
neurologische klinik sorpesee gmbh &amp; co. kg,lindenstraße 22,59846,sundern
"marienhospital steinfurt; standort emsdetten, klinik für psychosomatik und psychotherapie",marienstr. 45,48282,emsdetten
asklepios harzklinik clausthal-zellerfeld,windmühlenstraße 1,38678,clausthal-zellerfeld
nierenzentrum heidelberg e.v.,im neuenheimer feld 162,69120,heidelberg
"epilepsiezentrum kleinwachau gemeinnützige gmbh, fachkrankenhaus für neurologie",wachauer str. 30,01454,radeberg
artemed fachklinik münchen,mozartstraße 14a-16,80336,münchen
"bezirkskrankenhaus memmingen klinik für psychiatrie, psychotherapie und psychosomatik am klinikum memmingen",bismarckstr. 23,87700,memmingen
"maria-theresia-klinik, fachklinik für chirurgie",bavariaring 46,80336,münchen
st. camillus,kirchstraße 12,47178,duisburg
kath. marien-krankenhaus lübeck gemeinnützige gmbh,parade  3,23552,lübeck
kbo-isar-amper-klinikum atriumhaus,bavariastraße 11,80336,münchen
ev. fachkrankenhaus für psychiatrie &amp;quot;hildegard von bingen&amp;quot;,suderöderstr. 11,06502,thale
psychiatrie schwäbisch hall ggmbh,ringstr. 1,74523,schwäbisch
ibbz krankenhaus gmbh klinik schöneberg,fuggerstraße 23,10777,berlin
kliniken schmieder stuttgart-gerlingen,solitudestrasse 20,70839,gerlingen
moritz klinik gmbh &amp;amp; co. kg,hermann-sachse-straße 46,07639,bad
burghof- klinik bad nauheim gmbh,burgallee 22,61231,bad
psychiatrisches krankenhaus rickling (tk norderstedt),beim umspannwerk 6 – 8,22844,norderstedt
mediclin klinik für akutpsychosomatik und psychotherapie,lug ins land 5,31848,bad
augenklinik berlin-marzahn gmbh,brebacher weg 15,12683,berlin
krankenhaus hardheim,wertheimer straße 95,74736,hardheim
stenum ortho gmbh,heilstättenweg 1,27777,ganderkesee
august-bier-klinik - neurologie und rehabilitation,diekseepromendade 7-11,23714,bad
zentrum für psychiatrie cham,august-holz-straße 1,93413,cham
klinik für gefässchirurgie und gefässmedizin im kreis ahrweiler,lindenstraße 7,53474,bad
helios orthoclinic hammelburg,ofenthaler weg 20,97762,hammelburg
scivias caritas ggmbh st. valentinus krankenhaus,suttonstr. 24,65399,kiedrich
sana kliniken des landkreises cham - krankenhaus bad kötzting,hauser straße 44,93444,bad
klinik amsee,amsee 6,17192,waren
krankenhaus bethanien plauen,dobenaustraße 130,08523,plauen
pius-hospital ochtrup,piusstr. 5,48607,ochtrup
klinik dr. hancken gmbh,harsefelder str. 8,21680,stade
"shg-kliniken sonnenberg, standort halberg",spitalstraße 2,66130,saarbrücken
asklepios neurologische klinik falkenstein,asklepiosweg 15,61462,königstein
günztalklinik allgäu,hagenmoos 1,87634,obergünzburg
tagesklinik westend,westendstr. 185,80686,münchen
atos klinik fleetinsel gmbh &amp;amp; co. kg,admiraltätstr. 3-4,20459,hamburg
ckip,hagelkreuzstr. 37,40721,hilden
kmg klinik boizenburg gmbh,vor dem mühlentor 3,19258,boizenburg
"klinik wirsberg, klinik für psychiatrie und psychotherapie",goldene adlerhütte 2,95339,wirsberg
dr. römer kliniken - akutklinik,altburger weg 2,75365,calw-hirsau
augenklinik herzog carl theodor,nymphenburger str. 43,80335,münchen
psychosomatische klinik bergisch gladbach,schlodderdicher weg 23 a,51469,bergisch
vorwerker fachklinik kinder- und jugendpsychiatrie (stat. bereich lübeck),triftstraße 139-143,23554,lübeck
"tagesklinik für onkologie, chronische erkrankungen im kinder- und jugendalter, dermatologie, neurologie, hno, gastroenterologie",ernst-heydemann-str. 6,18057,rostock
psychosomatische akut-klinik kassel-bad wilhelmshöhe,wigandstrasse 3-5,34131,kassel
gzw diabetes-klinik bad nauheim ggmbh,ludwigstraße 37 - 39,61231,bad
kbo-kinderzentrum münchen,heiglhofstraße 65,81377,münchen
hegau-bodensee-klinikum stühlingen,loretoweg 10,79780,stühlingen
clinic dr. decker gmbh,seestraße 10-12,80802,münchen
frauenklinik münchen west gmbh &amp;amp; co.kg,schmiedwegerl 2-6,81241,münchen
salzachklinik fridolfing,krankenhausstr. 1,83413,fridolfing
lwl-klinik dependance unna,holbeinstr 10,59423,unna
fachklinik freudenholm-ruhleben / klinische abteilung,missionsweg 3,24306,bösdorf
asklepios paulinen klinik wiesbaden tk rüdesheim,eibinger straße 9,65385,rüdesheim
vamed klinik hohenstücken [brbh],brahmstraße  38,14772,brandenburg
ökumenisches hainich klinikum - tagesklinik heiligenstadt,petristraße 51,37308,heilbad
sankt elisabeth krankenhaus kiel,königsweg 8,24103,kiel
psychotherapeutisches zentrum kitzberg-klinik gmbh &amp;amp; co.kg,erlenbachweg 22/24,97980,bad
tagesklinik für psychiatrie und psychotherapie landkreis tuttlingen,paul ehrlich weg 14,78549,spaichingen
gphs tagesklinik schwerte e. v.,kleppingstraße 21,58239,schwerte
klinik für kinderneurologie und sozialpädiatrie kinderzentrum maulbronn ggmbh,knittlinger steige 21,75433,maulbronn
vital klinik alzenau,streuweg 100,63755,alzenau
venen-clinic,hochstr. 23,53474,bad
klinik an der weißenburg,weißen 1,07407,uhlstädt-kirchhasel
bergman clinics hofgartenklinik,hofgartenstraße 6,63739,aschaffenburg
luisenklinik,luisenstr. 56,78073,bad
klinikum landkreis erding - außenstelle dorfen,erdinger straße 17,84405,dorfen
"kbo - heckscher-klinikum ggmbh, abteilung rottmannshöhe",dürrbergstraße 12,82335,berg
sana hanse-klinikum wismar- tk wis,dr.-unruh-straße 14,23970,wismar
paulinenkrankenhaus bad bentheim,paulinenweg 1,48455,bad
charlottenklinik für augenheilkunde,falkertstraße 50,70176,stuttgart
"bezirkskliniken schwaben, bezirkskrankenhaus donauwörth",neudegger allee 6,86609,donauwörth
asklepios klinik oberviechtach,teunzer str. 15,92526,oberviechtach
"drk fachklinik bad neuenahr für kinder- und jugendpsychiatrie, psychotherapie",lindenstraße 3-4,53474,bad
orthopädie bad hersfeld gmbh,am hopfengarten 16,36251,bad
kreisklinik freilassing,vinzentiusstr. 56,83395,freilassing
vitos psychiatrische tagesklinik bad homburg,zeppelinstraße 24,61348,bad-homburg
klinik sankt elisabeth ggmbh,max-reger-straße 5 - 7,69121,heidelberg
theresienklinik würzburg,domerschulstraße 1 + 3,97070,würzburg
helios klinik volkach,schaubmühlstraße 2,97332,volkach
krankenhaus markt werneck,balthasar-neumann-platz 5,97440,werneck
neurologische akutklinik bad zwesten,hardtstrasse 31,34596,bad
krh geriatrie langenhagen (akut-geriatrie),rohdehof  3,30853,langenhagen
pp.rt klink für psychiatrie und psychosomatik steinenberg,steinenbergstraße 31,72764,reutlingen
fachklinik für kinderneurologie und sozialpädiatrie königsborn,zimmerplatz 1,59425,unna
psychiatrisches behandlungszentrum waldshut,kaiserstrasse 106,79761,waldshut-tiengen
klinik charlottenhaus,gerokstraße 31,70184,stuttgart
fachkrankenhaus für geriatrie,hospitalstraße 34,01471,radeburg
waldhausklinik deuringen ggmbh,sandbergstraße 47-49,86391,stadtbergen
ameos klinikum inntal,jakob-weindler-str. 1,84359,simbach
hochtaunus-kliniken ggmbh - königstein geriatrie,woogtalstraße 7,61462,königstein
elbland rehabilitationsklinik großenhain,am bobersberg 4,01558,großenhain
asklepios westklinikum hamburg - tagesklinik altona,gasstraße 6b,22761,altona
tagesklinik am mühlenweg dülmen,mühlenweg 86,48249,dülmen
neurologisches rehabilitationszentrum godeshöhe e.v.,waldstraße 2-10,53177,bonn
dr. becker kiliani klinik,schwarzallee 10,91438,bad
hardtwaldklinik ii,hardtstraße 32,34596,bad
"tagesklinik für psychiatrie und psychotherapie, haus am maienplatz",waldburgstrasse 1,71032,böblingen
klinik haus vogt,dennenbergstr. 5,79822,titisee-
gfo kliniken bonn - betriebstätte st. franziskus,nikolausstraße 14,53129,bonn-kessenich
gemeinnützige gesellschaft für paritätische sozialarbeit tagesklinik für psychiatrie und psychotherapie,drechslerweg 25,55128,mainz
"uhlenhaus tagesklinik für psychiatrie, psychotherapie und alterspsychiatrie",rotdornweg 10,18439,stralsund
"tagesklinik kinder- und jugendpsychiatrie, tagesklinik psychiatrie",neue reihe 48,18209,bad
klinik dr. maul gmbh ingolstadt,östliche ringstraße 4,85049,ingolstadt
martin-luther-stiftung,martin-luther-anlage 8,63450,hanau
klinikum bad hersfeld - klinik am hainberg,ludwig-braun-str. 32,36251,bad
mediclin reha zentrum gernsbach,casimir-katz-straße 22,76593,gernsbach
hegau-jugendwerk gmbh,kapellenstraße 31,78262,gailingen
spillerstraße,spillerstraße 2a-b,23564,lübeck
kmg klinikum havelberg gmbh,domherrnstr. 10,39539,havelberg
internistische klinik dr. steger ag,philipp-kittler-str. 27,90480,nürnberg
fachklinik bokholt,hanredder 30-32,25335,bokholt-hanredder
hans carossa klinik stühlingen,hauptstr. 19,79780,stühlingen
thure von uexkuell klinik,badstr. 2,79286,glottertal
st. marien-hospital mülheim an der ruhr gmbh,muhrenkamp 9,45468,mülheim
orthoklinik lüneburg gmbh,ginsterweg 5-7,21335,lüneburg
fachkrankenhaus für psychiatrie und psychotherapie und tagesklinik für psychiatrie,johannesallee 9,24848,kropp
dr. frühauf klinik ohg,scheffelstr. 83,63071,offenbach
psychiatrisches krankenhaus rickling (tk bad segeberg),schillerstraße 13a,23795,bad
klinik dr. steib betriebs gmbh,adelheidstraße 18,61462,königstein
helios klinik wittingen gmbh,gustav-dobberkau-straße 5,29378,wittingen
helios amper-klinik indersdorf,maroldstraße 45,85229,markt
helios klinik kiel,hamburger chaussee 77,24113,kiel
allgemeinpsychiatrische tagesklinik kieler fenster,alte lübecker chaussee 1,24114,kiel
kinderzentrum pelzerhaken,zum leuchtturm 4,23730,neustadt
ameos klinikum kiel,tiroler ring 621-62,24147,kiel
lwl klinik dortmund - elisabeth-klinik -,marsbruchstrasse 162a,44287,dortmund
klinik sonthofen,prinz-luitpold-straße 1,87527,sonthofen
psychiatrische tagesklinik neumünster ggmbh,parkstr. 17,24534,neumünster
kirchberg-klinik bad lauterberg,kirchberg 7-11,37431,bad
"tagesklinik der ggp fachbereich kinder-und jugendpsychiatrie,-psychotherapie und psychosomatik 7-18 jahre",dierkower höhe 14,18146,rostock
geriatrische fachklinik rheinhessen-nahe akutgeriatrie,berliner straße 63-65,55583,bad
median klinik berlin kladow fachkrankenhaus für neurologische frührehabilitation,kladower damm 223,14089,berlin
median franz-alexander-klinik nordrach,im dorf 44,77787,nordrach
psychiatrisches krankenhaus rickling (tk kaltenkirchen),flottkamp 15a,24568,kaltenkirchen
klinik am park bad steben gmbh,berliner str. 2,95138,bad
klinikum westbrandenburg gmbh - standort brandenburg,hochstraße 29,14770,brandenburg
drk-fachklinik hahnknüll ggmbh,hahnknüll 58,24537,neumünster
johann-wilhelm-ritter-klinik zentrum für dermatologische phototherapie gmbh &amp;amp; co. kg,parkstr. 35-37,49214,bad
asklepios westklinikum hamburg - psychosomatische tagesklinik ulmenhof,ulmenstraße 29a,22299,hamburg
dr. ebel fachkliniken gmbh &amp;amp; co. vogelsbergklinik kg,jean berlit straße 31,36355,grebenhain
falkenried caduceus klinik,niendorfer weg 5,29549,bad
mariaberg - fachkrankenhaus kinder- und jugendpsychiatrie ggmbh,burghaldenstr. 12,72501,gammertingen
klinik dr. muschinsky,wiesenbek 7 - 10,37431,bad
lutrina klinik kaiserslautern,karl-marx-str. 33,67655,kaiserslautern
median klinik berus - fachkrankenhaus,orannastraße 55,66802,überherrn-berus
ev.-luth. diakonissenanstalt psychiatrische tagesklinik,marienhölzungsweg 21,24939,flensburg
fachklinik dres. denzel,gutenbergstraße 51,74074,heilbronn
asklepios fachklinikum stadtroda tk pößneck,kurzackerstr. 12,07381,pößneck
drk klinik mettlach für geriatrie und rehabilitation,saaruferstraße 10,66693,mettlach
vitos klinik bamberger hof,oeder weg 46,60318,frankfurt
nordblick augenklinik bellevue gmbh,lindenallee 21/23,24105,kiel
klinik parsberg,lupburger straße 11,92331,parsberg
klinik dr. becker gmbh,staufener straße 18,79189,bad
herz-zentrum bodensee,luisenstrasse 9a,78464,konstanz
westklinik dahlem betriebsgesellschaft mbh,clayallee 225b,14195,berlin
katholische kliniken ruhrhalbinsel (fachklinik kamillushaus gmbh),heidhauser str. 273,45239,essen
frauenklinik aschaffenburg,ziegelbergstr. 5,63739,aschaffenburg
asklepios klinik nord - tk volksd.,kattjahren 24,22359,hamburg
klinik flechsig gmbh,chemnitzstraße 33,24116,kiel
rheuma-klinik dr. lauven,bismarckstr. 7,32545,bad
"kbo - heckscher-klinikum ggmbh, abteilung rosenheim",ellmaierstraße 27,83022,rosenheim
ahrtal-klinik,hauptstr. 166,53489,sinzig-bad
st. johannes klinik,krankenhausstraße 1,91275,auerbach/opf.
kbo-isar-amper-klinikum tagesklinik und ambulanz münchen berg am laim,neumarkter straße 18,81673,münchen
helios universitätsklinikum wuppertal -schmerzklinik bergisch land,im saalscheid 5,42369,wuppertal
panoramaklinik esslingen,mühlbergstraße 66,73728,esslingen
median klinik nrz,forsthausweg 1,32105,bad
klinik am tharandter wald,herzogswalder straße 1,09633,halsbrücke
median klinik odenwald,ernst-ludwig-straße 106,64747,breuberg
praxisklinik mümmelmannsberg der klinikgruppe dr. guth gmbh &amp; co. kg,oskar-schlemmer-str. 9-17,22115,hamburg
st. mauritius therapieklinik,strümper str. 111,40670,meerbusch
johanniter-tagesklinik düsseldorf,marbacher str. 79,40597,düsseldorf
klinik für psychosomatische medizin und psychotherapie,an der hössen 23,26655,westerstede
psychiatrische tagesklinik pforzheim &amp;quot;alte mühle&amp;quot;,ludwig-wolf-straße 1,75181,pforzheim
bezirkskrankenhaus parsberg,robert-koch-straße 2,92331,parsberg
curschmann klinik der klinikgruppe dr. guth gmbh &amp; co. kg,saunaring 6,23669,timmendorfer
310klinik gmbh,neumeyerstr. 46-48,90411,nürnberg
"klinikum für psychiatrie, psychotherapie und psychosomatik des rudolf-sophien-stifts",leonberger straße 220,70199,stuttgart
fachkliniken hohenurach,immanuel-kant-straße 33,72574,bad
sana kliniken ostholstein gmbh - inselklinik fehmarn,mummendorfer weg 12,23769,burg
zweckverband krankenhaus st. camillus ursberg,dominikus--ringeisen-straße 20,86513,ursberg
berglandklinik lüdenscheid gmbh &amp; co. kg,am hundebrink 6,58511,lüdenscheid
"harzklinikum dorothea christiane erxleben gmbh, standort kinderklinik wernigerode",steinbergstraße 1,38855,wernigerode
psychiatrische tagesklinik kyritz,perleberger straße 13,16866,kyritz
gensingen,alzeyer str. 23,55457,gensingen
tagesklinik für psychiatrie und psychotherapie,hannes meyer platz 27,18146,rostock
"christophorus klinik am schlossgarten, standort nottuln",uphovener weg 5,48301,nottuln
oberhavel kliniken gmbh / tagesklinik gransee,meseberger weg 12-13,16775,gransee
edisonstraße,edisonstraße 15,12459,berlin
"sana kliniken lübeck gmbh, praxisklinik travemünde",am dreilingsberg 7,23570,lübeck-travemünde
ökumenisches hainich klinikum - tagesklinik bad frankenhausen,stiftstraße 2-4,06567,bad
gefäßklinik dr. berg gmbh,erhard-grözinger-straße 102,89134,blaustein
winghofer medicum klinik gmbh,röntgenstr. 38,72108,rottenburg
"shg-kliniken sonnenberg, standort kleinblittersdorf",waldstraße 40,66271,kleinblittersdorf
"""janssen-haus"" psychiatrische tagesklinik hamburg-mitte gmbh ein unternehmen des universitätsklinium eppendorf",budapester straße 38,20359,hamburg
ameos klinika lübeck,weidenweg 9- 15,23562,lübeck
station 1014 allgemein psychiatrie ehingen,spitalstraße 31/2,89584,ehingen
klinik dr. schwarz,steingasse 11,89073,ulm
"psychiatrische tagesklinik ""villa karlstal""",karlstal 34,24105,kiel
vitos psychiatrische tagesklinik kassel,karthäuserstraße 3,34117,kassel
asklepios klinik nord - tk horn,horner landstrasse 302-304,22043,hamburg
asklepios klinik nord - tk steilshoop,steilshooper straße 293,22309,hamburg
lwl-tagesklinik dortmund,allerstr 1/24,44287,dortmund
fachklinik stadtsteinach,kronacherstraße 26,95346,stadtsteinach
diana krankenhausbetriebsgesellschaft mbh,dahlenburger straße 2 a,29549,bad
tagesklinik im schlössle,stuttgarter straße 62,72622,nürtingen
medical park bad rodach,kurring 16,96476,bad
vitos klinik für psychosomatik kassel,wilhelmshöher allee 345a,34131,kassel
tagesklinik für psychiatrie und psychotherapie,clara-zetkin-straße 16,18069,rostock
"harzklinikum dorothea christiane erxleben gmbh, standort tagesklinik psychiatrie blankenburg",am roh 4,38889,blankenburg
tagesklinik für psychiatrie und psychotherapie zollernalbkreis ggmbh,albrechtstraße 43,72336,balingen
tagesklinik für psychiatrie und psychotherapie schwarzwald-baar-kreis,wilhelm-schickard-straße 11,78052,vs-villingen
ev.-luth. diakonissenanstalt kinder- und jugendpsychiatrie,marienhölzungsweg 68,24939,flensburg
medical park betriebs gmbh &amp;amp; co kg - bs reithofpark,reithof 1,83075,bad
"helios klinik für kinder- und jugendpsychiatrie und -psychotherapie, tagesklinik baumhaus husum",theodor-schäfer-straße 1a,25813,husum
drk tagesklinik bad kreuznach,salinenstraße  135,55543,bad
albert-schweitzer-therapeutikum. fachklinik für kinder- und jugendpsychiatrie und psychotherapie,pipping 5,37603,holzminden
johanniter gmbh johanniter-zentrum für kinder- und jugendpsychiatrie,am carmen-sylva-garten  6 - 10a,56564,neuwied
tagesklink für psychiatrie und psychotherapie,trelleborger straße 10a,18107,rostock
paracelsus-nordseeklinik helgoland,invasorenpfad 1040,27498,helgoland
ameos klinikum eutin,janusstraße 5,23701,eutin
park-klinik gmbh,goethestrasse 11,24116,kiel
heilpädagogisch-psychotherapeutisches zentrum - fachklinik für kinder- und jugendpsychiatrie und -psychotherapie,erfurtweg 28,42489,wülfrath
cchirurgische innenstadtklinik minden gmbh &amp; co.kg,brühlstrasse 33,32423,minden
abt. alterspsychiatrie am st. elisabethen-klinikum,"elisabethenstrasse 15, haus c",88212,ravensburg
asklepios klinik nord - tk alstertor,lohmühlenstraße 5,20099,hamburg
abteilung psychosomatische medizin und psychotherapie aulendorf,safranmoosstraße 5,88326,aulendorf
martin-luther-krankenhaus ggmbh - ridderstrasse,ridderstr. 40,44867,bochum
tagesklinik für kinder- und jugendpsychiatrie und -psychotherapie,bunsenstraße 120,71032,böblingen
regio kliniken gmbh - tagesklinik pinneberg,fahltskamp 70,25421,pinneberg
salus ggmbh tagesklinik für erwachsenenpsychiatrie/-psychotherapie salzwedel,schillerstraße 2,29410,salzwedel
hardtwaldklinik i wicker-wicker gmbh&amp;co.kg phase b,hardtstraße 31,34596,bad
tagesklinik 2,johanniterstr. 36,52064,aachen
helios tagesklinik für psychiatrie und psychotherapie in der innenstadt von stralsund,knieperdamm 4,18435,stralsund
"evangelisches krankenhaus bethanien ggmbh, tk demmin",treptower strasse 39,17109,demmin
maximilians-augenklinik,erlenstegenstraße 30,90491,nürnberg
asklepios fachklinikum stadtroda tk greiz,wichmannstraße 12,07973,greiz
atos starmed klinik gmbh,putzbrunner str. 9,81737,münchen
klinik hochried,hochried 1-12,82418,murnau
lwl-klinikum tagesklinik halle,moltkestraße 6,33790,halle
"klinik angermühle gmbh, 94469 deggendorf",am stadtpark 1-39,94469,deggendorf
vitos klinik für psychiatrie und psychotherapie hofgeismar,liebenauer straße 1,34369,hofgeismar
allgemeinpsychiatrie wangen,am engelberg 39,88239,wangen
helios psychiatrische tagesklinik und institutsambulanz in bergen,bahnhofstraße 15,18528,bergen
"evangelisches krankenhaus bethanien ggmbh, tk wolgast",breite strasse 21d,17438,wolgast
psychiatrische tagesklinik wittstock,sankt marienstraße 9,16909,wittstock
augenklinik dardenne se,friedrich-ebert-str. 23-25,53177,bonn
helios fachkliniken hildburghausen/psychiatrische tagesklinik meiningen,charlottenstraße 4,98617,meiningen
venenzentrum braunschweig,kastanienallee 18-19,38102,braunschweig
helios fachkliniken hildburghausen/ psychiatrische tagesklinik ilmenau,friedrich-ebert-straße 25,98693,ilmenau
helios fachkliniken hildburghausen/psychiatrische tagesklinik sonneberg,köppelsdorfer straße 36,96515,sonneberg
helios fachkliniken hildburghausen/psychiatrische tagesklinik suhl,platz der deutschen einheit 4,98527,suhl
krankenhaus jerusalem,moorkamp 2-6,20357,hamburg
ameos klinikum oldenburg,mühlenkamp 5,23758,oldenburg
klinik dr. winkler,brinckmannstraße 6,25813,husum
tagesklinik bernsteinstraße,bernsteinstraße 108-112,70619,stuttgart
salus ggmbh tagesklinik für erwachsenenpsychiatrie/-psychotherapie stendal,stadtseeallee 1,39576,hansestadt
"psychiatrische tagesklinik und institutsambulanz fürth des klinikums am europakanal erlangen,",friedrich-ebert-strasse 50,90766,fürth
drk tagesklinik worms,maximilianstraße  10,67547,worms
psychiatrische tagesklinik mit institutsambulanz neustadt/aisch,paracelsusstrasse 36a,91413,neustadt
psychiatrische tagesklinik mit institutsambulanz weißenburg,krankenhausstraße 5,91781,weißenburg
lwl-klinik herten - tagesklinik dorsten,clemens-august-straße 49,46282,dorsten
tagesklinik für psychiatrie schweinfurt des bkh werneck,dittelbrunner straße 13-15,97422,schweinfurt
psychosozialer trägerverein solingen e.v.,eichenstraße 105-109,42659,solingen
rheumaklinik ostbayern,waldstraße 14,94072,bad
drk fachklinik bad neuenahr tagesklinik daun,rosenbergstraße 6,54550,daun
hno-klinik bogenhausen dr. gaertner gmbh,possartstrasse 29-33,81679,münchen
lwl-klinik herten - tagesklinik haltern,sixtusstraße 27,45721,haltern
lwl-tagesklinik brackel,schimmelstr. 5,44309,dortmund
capio deutsche klinik laufen gmbh,abtsee 31,83410,laufen
lwl-klinik paderborn - standort salzkotten,an der burg 5,33154,salzkotten
"kbo-heckscher-klinikum ggmbh, abteilung haar",max - isserlin straße 23,85540,haar
tagesklinik singen,freiheitstrasse 11,78224,singen
kbo-isar-amper-klinikum dachau,hochstraße 27,85521,dachau
luisenklinik tagesklinik radolfzell,strandbadstr. 10,78315,radolfzell
lwl-tagesklinik bergkamen,erich-ollenhausen-str. 7,59192,bergkamen
tagesklinik gerontopsychiatrie,carl-hopp-straße 19a,18069,rostock
arche klinik,robert-blum-straße 7-9,27574,bremerhaven
cjd asthmazentrum berchtesgaden,buchenhöhe 46,83471,berchtesgaden
darmstädter kinderkliniken prinzessin margaret,grafenstraße 9,64283,darmstadt
marion von tessin memory tagesklinik,nymphenburgerstraße 45,80335,münchen
dietrich-bonhoeffer-klinikum standort neustrelitz,radelandweg 15/16,17235,neustrelitz
psychiatrische tagesklinik bad vilbel,frankfurter straße (eingang kasseler straße) 124,61118,bad
psychiatrische tagesklinik bamberg forchheim gemeinnützige gmbh,krankenhausstraße 8,91301,forchheim
psychiatrische tagesklinik,merkurstraße 3,88046,friedrichshafen
"gpz, tagesklinik lage, hindenburgstraße 1, lage",hindenburgstraße 1,32791,lage
lwl-tagesklinik lünen,altstadtstr 23a,44534,lünen
lwl-tagesklinik unna,falkstr 10,59423,unna
luisenklinik,luisenstr. 56,78073,bad
"kbo - heckscher-klinikum ggmbh, abteilung wasserburg",gabersee 19,83512,wasserburg
evang. tagesklinik fürstenwalde,eisenbahnstraße 171,15517,fürstenwalde
passauer wolf bad gögging - neurologisches zentrum für bewegungsstörungen,kaiser-augustus-straße 38,93333,neustadt
passauer wolf reha-zentrum bad griesbach,bürgermeister-hartl-platz 1,94086,bad
neurologisches fach- und privatkrankenhaus klinik bavaria in bad kissingen,von-der-tann-straße 18-22,97688,bad
tagesklinik heinsberg,genneper str. 2,52525,heinsberg
sinova ravensburg,nikolausstraße 14,88212,ravensburg
glg fachklinik wolletzsee gmbh,zur welse 2,16278,angermünde
tagesklinik fürstenwalde,heinrich-heine-str. 43,15517,fürstenwalde
tagesklinik klaus groth platz,klaus-groth-platz 2,24105,kiel
"gpz, tagesklinik bad meinberg, pyrmonter straße 12c, horn-bad meinberg",pyrmonter straße 12c,32805,horn-bad
zentrum für psychiatrie emmendingen / psychiatrische tagesklinik lahr,obere bergstraße 28,77933,lahr
klinik hohe mark tagesklinik frankfurt,friedberger landstraße 52,60316,frankfurt
rheinisch-westfälisches zentrum für frührehabilitation und beatmung,höhenstraße 30,51588,nümbrecht
alexius/josef krankenhaus -tagesklinik st. bernhard,berghäuschensweg 4,41464,neuss
mediclin klinik reichshof,berglandstraße 1,51580,reichshof
helios tagesklinik psychiatrie (erwachsene),mühlental 1,24837,schleswig
psychiatrische tagesklinik lörrach,riesstraße 14,79539,lörrach
"harzklinikum dorothea christiane erxleben, standort tagesklinik psychiatrie quedlinburg",ditfurter weg 22,06484,quedlinburg
tagesklinik lemgo - tagesklinik für psychiatrie und psychosomatik,rintelner str. 83,32657,lemgo
psychiatrische tagesklinik bad säckingen,nagaistr. 3,79713,bad
vivantes klinikum kaulsdorf - ö.b. mehrower allee mahrzahn,mehrower allee 22,12687,berlin
psychiatrische tagesklinik bad salzhausen,kurstraße 2a,63667,nidda
brk tagesklinik süd,perchtingerstraße 5,81379,münchen
klinikum frankfurt (oder) gmbh tagesklinik frankfurt (oder),heilbronner straße 1,15230,frankfurt
euregio-klinik - psychiatrische tagesklinik,backhuusweg 8,48531,nordhorn
mediclin klinik am brunnenberg,endersstraße 5,08645,bad
augenklinik dr. hoffmann,wolfenbütteler str. 82,38102,braunschweig
asklepios fachklinikum stadtroda tk gera,werner-petzold-straße 17,07549,gera
psychiatrische tagesklinik heide,neue anlage 18,25746,heide
"klinikum nordfriesland ggmbh, inselklinik föhr-amrum",rebbelstieg 24,25938,wyk
mediclin müritz-klinikum,atelierstraße 5-7,17034,neubrandenburg
asklepios fachklinikum lübben tk cottbus,karl-liebknecht-straße 109,03045,cottbus
sankt rochus kliniken,sankt-rochus-allee 1-11,76669,bad
tagesklinik 3 simmerath,kammerbruchstr. 8,52152,simmerath
uhlenhaus tagesklinik für psychosomatische medizin und psychotherapie,rotdornweg 8,18439,stralsund
ev.-luth. diakonissenanstalt psychiatrische tagesklinik für ältere,marienhölzungsweg 8,24939,flensburg
tagesklinik psychosomatische medizin und psychotherapie,goethestr. 18,18055,rostock
psychiatrische tagesklinik geislingen,schillerstraße 31,73312,geislingen
müllerstraße,müllerstraße 56-58,13349,berlin
"vitos klinikum rheingau, vitos kinder- und jugendpsychiatrische klinik idstein",robert-koch-straße 2,65510,idstein
asklepios fachklinikum brandenburg tk werder,unter den linden 1,14542,werder
psychiatrische tagesklinik preetz,wakendorfer straße 18,24211,preetz
rheinland klinikum neuss gmbh - rheintor klinik,hafenstraße 68 - 76,41460,neuss
sana hanse-klinikum wismar- tk gdb,erich-weinert-straße 14,19205,gadebusch
asklepios fachklinikum teupitz tk königs wusterhausen,köpenicker straße 29,15711,königs
mediclin müritz-klinikum,pestalozziweg 19,19370,parchim
praxis-klinik bergedorf,alte holstenstraße 2 und 16,21031,hamburg
asklepios fachklinikum brandenburg tk teltow,rheinstraße 10 a,14513,teltow
neuro spine center gmbh,münsterfeldallee 2,36041,fulda
asklepios fachklinikum teupitz tk ludwigsfelde,straße der jugend 63,14974,ludwigsfelde
tagesklinik ostholstein,rettiner weg 30,23730,neustadt
luisenkrankenhaus gmbh &amp; co. kg,luise-rainer-straße 6-10,40235,düsseldorf
kliniken schmieder satellitenstation z2n im katharinenhospital,kriegsbergstraße 60,70174,stuttgart
asklepios fachklinikum brandenburg tk brandenburg an der havel,klingenbergstraße 3,14772,brandenburg
salus ggmbh tagesklinik für erwachsenenpsychiatrie/-psychotherapie seehausen,dr. albert steinert platz 1,39615,seehausen
tagesklinik strausberg,große straße 38,15344,strausberg
lwl-klinik paderborn - standort leostraße,leostraße 1,33098,paderborn
helios kliniken schwerin - tagesklinik allgemeine psychiatrie ludwigslust,schlossstraße 16,19288,ludwigslust
fachklinikum bernburg tagesklinik wittenberg,puschkinstraße 7,06886,luth.
abt. für alterspsychiatrie und -psychotherapie standort ulm agaplesion bethesda,zollernring 26,89073,ulm
ameos klinikum oldenburg,hoheluftstraße 10,23758,oldenburg
"sophien- u. hufeland-klinikum ggmbh, psychiatr.-psychotherap. tagesklinik apolda",darrplatz 1,99510,apolda
vitos kinder- und jugendpsychiatrische tagesklinik wabern,kurfürstenstraße 26,34590,wabern
klinik dr. med. t. witwity gmbh,neubourgstr. 4,21682,stade
margarethen klinik gemeinnützige gmbh,konsul-lorentzen-straße 3,24376,kappeln
klinik fallingbostel,kolkweg 1,29683,bad
urologische klinik am lerchenberg,lerchenstr. 81,74074,heilbronn
regio kliniken gmbh - tagesklinik norderstedt,beim umspannwerk 6,22844,norderstedt
sana hanse-klinikum wismar- tk gvm,klützer winkel 13-15,23932,grevesmühlen
psychosomatische tagesklinik falkenried,jarrestraße 6,22303,hamburg
helios psychiatrische tagesklinik und institutsambulanz ribnitz-damgarten,alte klosterstraße 19,18311,ribnitz-damgarten
ökumenisches hainich klinikum - tagesklinik eisenach,mühlhäuser str. 89,99817,eisenach
asklepios fachklinikum göttingen - tk seesen,tannenbusch 11,38723,seesen
dalberg klinik fulda,dalbergstraße 5,36037,fulda
asklepios fachklinikum brandenburg tk potsdam,rudolf-breitscheid-straße 12,14482,potsdam
"salus ggmbh tagesklinik für kinder- und jugendpsychiatrie, psychosomatik und psychotherapie salzwedel",schillerstraße 2,29410,salzwedel
psychosomatische tagesklinik passau,graneckerstraße 1,94036,passau
st. vinzenz-hospital,dr.-otto-seidel-straße 31-33,46535,dinslaken
"marienhospital steinfurt; standort steinfurt, tagesklinik für psychosomatik und psychotherapie",marienstr. 45,48282,emsdetten
"zentrum für kinder und jugendliche inn-salzach, kinder- und jugendpsychiatrie",vinzenz-von-paul-str. 14,84503,altötting
johanniter tagesklinik schwarzenbek,körnerplatz 6,21493,schwarzenbek
klinikum frankfurt (oder) tagesklinik seelow,puschkinplatz 17,15306,seelow
danuvius klinik ingolstadt,preysingstraße 3-5,85049,ingolstadt
vorwerker fachklinik (tagesklinik eutin),hospitalstraße 22,23701,eutin
"tagesklinik für psychiatrie, psychotherapie und psychosomatik nauen",ketziner str. 24,14641,nauen
asklepios fachklinikum brandenburg tk rathenow,forststraße 45,14712,rathenow
vitos psychiatrische tagesklinik melsungen,kasseler straße 80,34212,melsungen
asklepios paulinen klinik wiesbaden tk biebrich,rathausstraße 62-64,65203,wiesbaden
waiblinger zentralklinik,alter postplatz 2,71332,waiblingen
vitos kinder- und jugendpsychiatrische tagesklinik korbach,skagerrakstraße 4,34497,korbach
psychiatrische tagesklinik plön,rodomstorstraße 30,24306,plön
vitos kinder- und jugendpsychiatrische tagesklinik hofgeismar,gesundbrunnen 2,34369,hofgeismar
"tagesklinik für psychiatrie, psychotherapie und psychosomatik falkensee",dallgower str. 9,14612,falkensee
privatklinik dr. hellge,hochstraße 6,94032,passau
skh stadtteilklinik hamburg gmbh,oskar-schlemmer-str. 9-17,22115,hamburg
kreiskrankenhaus freiberg - standort mittweida,hainichener straße 4-6,09648,mittweida
schlossklinik rottenburg,schloßstraße 01,84056,rottenburg
evang. tagesklinik strausberg,große straße 38,15344,strausberg
fachklinik wittichen,vorder wittichen 137,77773,schenkenzell
geriatrische tagesklinik nauen,ketziner straße 13,14641,nauen
asklepios klinik fürstenhof bad wildungen gmbh,brunnenallee 39,34537,bad
alexius/josef krankenhaus - tagesklinik benedikt,steinhausstraße 40,41462,neuss
ev.-luth. diakonissenanstalt tagesklinik für psychosomatik,nehrongsallee 5,24939,flensburg
tagesklinik erkelenz,goswinstr. 28,41812,erkelenz
mediclin klinik bad orb,spessartstrasse 20,63619,bad
alexius/josef krankenhaus - tagesklinik st. fabiola,hindenburgstraße 56,41352,korschenbroich
johanniter tagesklnik mölln,wasserkrüger weg  7,23879,mölln
lwl-klinik marsberg - standort schmallenberg-fredeburg,von-ascheberg-straße 19a,57392,schmallenberg
helios tagesklinik und institutsambulanz für psychiatrie und psychotherapie grimmen,karlstraße 5,18507,grimmen
vitos klinik für psychiatrie und psychotherapie standort korbach,friedrich-bangert-straße 18,34497,korbach
helios kliniken schwerin - tagesklinik für psychiatrie sternberg,vor dem plastiner tor 4-6,19406,sternberg
"klinik am greinberg spezialklinik für kinder- und jugendpsychiatrie, psychosomat",graf-moritz-weg 2,97076,würzburg
neurologisches fachkrankenhaus zscheckwitz,ortsteil zscheckwitz 1-3,01731,kreischa
alexianer-klinik meerbusch gmbh,am eisenbrand 20b/c,40667,meerbusch
tagesklinik und ambulanz bad salzungen der klinik für kinder- und jugendpsychiatrie und -psychotherapie des öhk mühlhausen,mathilde-wurm-straße 7,36433,bad
"mariaberg - fachkrankenhaus kinder- und jugendpsychiatrie ggmbh, tagesklinik albstadt",kastanienstr. 21,72458,albstadt
intensiveinheit für kinder- und jugendpsych. würzburg des bezirks unterfranken,margarete-höppel-platz 1,97080,würzburg
vitos-klinik hasselborn,am grünen loch 4,35647,waldsolms
"tagesklinik psychiatrie, tagesklinik kinder- und jugendpsychiatrie",gehlsheimer straße 20,18147,rostock
blaues kreuz diakoniewerk mgmbh - fachklinik curt-von-knobelsdorff-haus,hermannstraße 17,42477,radevormwald
"tagesklinik für kinder- und jugendpsychiatrie, psychosomatik und psychotherapie",lindleinstraße 7,97080,würzburg
"salus ggmbh tagesklinik für kinder- und jugendpsychiatrie, psychosomatik und psychotherapie stendal",westwall 44/45,39576,stendal
ameos tagesklinik für psychiatrie und psychotherapie,torgelower straße 14,17309,pasewalk
steinlach-klinik gmbh,bahnhofstraße 5,72116,mössingen
klinik dr. hartog,kiskerstr. 15,33615,bielefeld
sk gmbh-standort praxisklinik norderstedt,heidbergstraße 98,22846,norderstedt
asklepios fachklinikum lübben tk vetschau,bahnhofsstraße 35,03226,vetschau
short care klinik gmbh,pappelallee 1,17489,greifswald
helios klinik für kinder und jugendpsychiatrie psychotherapie und psychosomatik tagesklinik greifswald,am mühlentor 2,17489,greifswald
helios kliniken schwerin tagesklinik für kinder - und jugendpsychiatrie ludwigslust,hamburger tor 4b,19288,ludwigslust
helios kliniken schwerin - tagesklinik für kinder- und jugendpsychiatrie,juri gagarin ring 55,23966,wismar
malteser krankenhaus st. franziskus-hospital - geriatrische tagesklinik,am damm 1,24837,schleswig
vitos klinik lahnhöhe marburg / tagesklinik alsfeld,jahnstraße 37,36304,alsfeld
vorwerker fachklinik (tagesklinik büchen),lauenburger straße 39,21514,büchen
prosomno klinik für schlafmedizin,weinstraße 4,80333,münchen
tagesklinik für psychiatrie und psychotherapie jüterbog,planeberg 36,14913,jüterbog
klinik am rathenauplatz,happelstraße 8,74074,heilbronn
tagesklinik für psychiatrie und psychotherapie bad belzig,niemegker straße 45,14806,bad
"st. elisabethen-krankenhaus ggmbh, tagesklinik lauchringen",hauptstrasse 42,79787,lauchringen
vitos kinder- und jugendpsychiatrische tagesklinik eschwege,luisenstraße 23,37269,eschwege
drk-norddeutsches epilepsiezentrum für kinder und jugendliche,henry-dunant-str. 6 - 10,24223,schwentinental
lwl-universitätsklinik hamm/ tagesklinik soest,hattroper weg 76,59494,soest
lwl-universitätsklinik hamm/ tagesklinik warendorf,rosenstraße 21,48231,warendorf
asklepios fachklinikum lübben tk königs wusterhausen,cottbusser straße 53 a+b,15711,königs
lwl-universitätsklinik hamm/ tagesklinik bergkamen,bruktererstr. 30,59192,bergkamen
"stroke unit am klinikum barnim, werner forßmann krankenhaus",rudolf-breitscheid-straße 100,16225,eberswalde
entgiftungskrankenhaus count down,frankfurter allee 40,10247,berlin
tagesklinik klinik königshof am helios krefeld,melanchthonstraße 36,47805,krefeld
reha-zentrum nittenau gmbh,eichendorffstraße 21,93149,nittenau
"kinder- und jugendkrankenhaus auf der bult, tagesklinik und ambulanz celle",fritzenwiese 15,29221,celle
tagesklinik walstedde gmbh,dorfstraße 9,48317,drensteinfurt
tagesklinik 4 stolberg,rathausstr. 26,52222,stolberg
tagesklinik vaihingen,franckstraße 45,71665,vaihingen
alexius/josef krankenhaus / tagesklinik st. augustinus,montanusstraße 54,41515,grevenbroich
alexius/josef krankenhaus/ tagesklinik st. anna,am hasenberg 46,41462,neuss
lwl-tagesklinik dortmund,beurhausstrasse 47,44137,dortmund
lwl-klinik paderborn - standort mallinckrodtstraße,mallinckrodtstraße 22,33098,paderborn
alexius/josef krankenhaus - tagesklinik luzia,elsa-brändström-str. 17,41540,dormagen
"thüringen-kliniken ""georgius agricola"" gmbh,",jenaische straße 14,07407,rudolstadt
"tagesklinik der ggp fachbereich kinder-und jugendpsychiatrie,- psychotherapie und psychosomatik 0-7 jahre",kuphalstraße 80,18069,rostock
fachklinikum bernburg tagesklinik dessau,schillerstraße 39a,06844,dessau-roßlau
chirurgische klinik dr. kübel/ dr. albrecht/ dr. gühring,listplatz 1,72764,reutlingen
augenklinik im ring-center gmbh,frankfurter allee 111,10247,berlin
lwl-universitätsklink hamm/ tagesklinik rheda-wiedenbrück,osnabrücker weg 34,33378,rheda-wiedenbr
asklepios fachklinikum teupitz tk schönefeld - waßmannsdorf,am airport 1,12529,schönefeld
lwl-universitätsklink hamm/ tagesklinik gütersloh,im füchtei 148,33334,gütersloh
klinik des westens,bertha-von-suttner-straße 5/7,39108,magdeburg
asklepios westklinikum hamburg - zsg osdorf,kroonhorst 11,22549,hamburg
lwl-klinik marsberg (kinder- u. jugendpsychiatrie) - standort meschede,feldstraße 1,59872,meschede
carl-von-basedow-klinikum saalekreis ggmbh,humboldtstraße 31,06618,naumburg
lwl-klinik marsberg (kinder- u. jugendpsychiatrie) - standort paderborn,karl-schoppe-weg 4a,33100,paderborn
lwl-klinik marsberg (kinder- u. jugendpsychiatrie) - standort höxter,brenkhäuser straße 73,37671,höxter
klinikum frankfurt (oder) tagesklinik rüdersdorf,seebad 82-83,15562,rüdersdorf
augenklinik dr. georg,am kurpark 13-15,49214,bad
augenklinik rendsburg gmbh,jungfernstieg 25,24768,rendsburg
uhlenhaus tagesklinik für psychosomatische medizin und psychotherapie am drk-krankenhaus grimmen,dorfstraße 39,18516,süderholz
vorwerker fachklinik (tagesklinik lübeck),triftstraße 139-143,23554,lübeck
"sozialzentrum am rosensee, aschaffenburg",siegfried-rischar-straße  2-8,63743,aschaffenburg
medicare flughafen münchen medizinisches zentrum gmbh - airportclinic m,"terminalstraße west terminal 1, mod. e, eb. 03",85356,münchen-flughafen
inselkrankenhaus borkum,gartenstraße 20,26757,borkum
tagesklinik und ambulanz gotha der klinik für kinder- u. jugendpsychiatrie u. -psychotherapie des öhk mühlhausen,bahnhofstraße 2-4,99867,gotha
fachklinik aukrug eine klinik der deutschen rentenversicherung nord,tönsheide 10,24613,aukrug
"klinik ""helle mitte"" gmbh",alice-salomon-platz 2,12627,berlin
kbo-isar-amper-klinikum tagesklinik für psychiatrie am kbo-kinderzentrum münchen,heiglhofstraße 63,81377,münchen
helios klinik miltenberg,breitendieler str. 32,63897,miltenberg
augenklinik schweinfurt-gerolzhofen,dingolshäuser strasse 5,97447,gerolzhofen
klinik dr.havemann,barckhausenstr. 57,21335,lüneburg
kardiochirurgische dependance,wismarsche straße 393-397,19055,schwerin
wolfgang-winckler-haus entgiftungsstaion,ehlhaltener straße 11-13,65779,kelkheim-eppenhain
katharinen hospiz am park,mühlenstraße 1,24937,flensburg
st. josef-krankenhaus königstein,woogtal str. 7,61462,königstein
"shg-kliniken sonnenberg, standort quierschied",fischbacherstraße 100,66287,quierschied
klinik für schlafstörungen gmbh,rinckstr.  - ab april 2020 traunfeldstr. 13 7-9,83435,bad
augenklinik stadthagen,brunnenstr.  12,31655,stadthagen
praxisklinik kronshagen,eichkoppelweg 74,24119,kronshagen
klinik klosterstraße gmbh,klosterstraße 63-65,24536,neumünster
klinikum gersfeld,wolf hirth straße 18,36129,gersfeld
"universitätsklinikum schleswig-holstein, standort wkk heide",esmarchstraße 50,25746,heide
"marienhospital letmathe, märkische kliniken gmbh",hagener straße 121,58642,iserlohn
hohenloher krankenhaus künzelsau,stetten straße 32,74653,künzelsau
psychiatrische tagesklinik lindau,fischergasse 14,88131,lindau
"vitos klinikum rheingau, vitos psychiatrische tagesklinik und ambulanz wiesbaden und vitos kinder- und jugendpsychiatrische tagesklinik und ambulanz wiesbaden",eberleinstraße 48,65195,wiesbaden
"tagesklinik für kinder- und jugendpsychiatrie, weiden",sebastianstr. 27,92637,weiden
"tagesklinik für kinder- und jugendpsychiatrie, amberg",marienstr. 12,92224,amberg
st. maria-hilf-krankenhaus,im vogelsang 5-11,45527,hattingen
diako nordfriesland ggmbh (tagesklinik breklum),kirchenstraße 7,25821,breklum
pp.rt klinik für psychiatrie und psychosomatik echtaz,lindachstraße 43,72764,reutlingen
vitos kinder- und jugendpsychiatrische sowie psychiatrische tageskliniken und ambulanzen wetzlar,sophienstr. 7,35578,wetzlar
diako nordfriesland ggmbh (tagesklinik husum),theodor-schäfer-str. 1b,25813,husum
asklepios klinikum harburg - wilhelmsburg,neuhöfer straße 23,21107,hamburg
psychiatrische tagesklinik amberg,marienstr. 12,92224,amberg
"tagesklinik für kinder- und jugendpsychiatrie, cham",august-holz-str. 1,93413,cham
asklepios klinikum harburg - neugraben,lütt enn 4,21149,hamburg
vitos philippshospital riedstadt standort gross-gerau,am burggraben 1a,64521,gross-gerau
vitos klinik hofheim standort heppenheim,ludwigstr. 51,64646,heppenheim
kbo-lech-mangfall-klinik peißenberg,hauptstrasse 55-57,82380,peißenberg
vitos philippshospital riedstadt standort rüsselsheim,löwenplatz 1 - 3,65428,rüsselsheim
"vitos klinikum rheingau, vitos psychiatrische tagesklinik und ambulanz idstein",rudolfstraße 2-4,65510,idstein
vitos kinder- und jugendpsychiatrische tagesklinik hanau,geibelstraße 18,63450,hanau
johanniter-tagesklinik siegburg ggmbh - klinik für psychiatrie und psychotherapie,mühlengrabenstraße 2,53721,siegburg
vitos psychiatrische tagesklinik limburg der vitos klinik für psychiatrie und psychotherapie hadamar,saarlandstraße 2,65549,limburg
psychiatrische institutsambulanz für erwachsene bernau,breitscheid-straße 6,16321,bernau
tagesklinik steinfurt,arnold-kock-straße 10,48565,steinfurt
heinrich sengelmann tagesklinik ahrensburg,carl-barckmann-straße 5,22926,ahrensburg
tagesklinik ibbenbüren,rudolf-diesel-str. 18,49479,ibbenbüren
diako nordfriesland ggmbh (tagesklinik niebüll),bahnhofstraße 24a,25899,niebüll
vitos klinik hofheim standort höchst/odenwald,erbacher str. 84-86,64739,höchst
vitos kinder- und jugendpsychiatrische tagesklinik limburg,saarlandstr. 2,65549,limburg
tagesklinik pionierstraße,pionierstr. 19,50735,koeln
vitos klinik hofheim standort dietzenbach,offenbacherstr. 19,63128,dietzenbach
kbo-inn-salzach-klinikum altötting,vinzenz-von-paul-straße 8,84503,altötting
vitos psychiatrische tagesklinik weilburg der vitos klinik für psychiatrie und psychotherapie weil-lahn,frankfurter str. 21,35781,weilburg
heinrich sengelmann tagesklinik bargteheide,mittelweg 5-7,22941,bargteheide
kbo-isar-amper-kinikum taufkirchen pychiatrische tagklinik freising,gute änger 13,85356,freising
vitos klinikum heppenheim standort lampertheim,emilienstrasse 5,68623,lampertheim
"kbo-heckscher-klinikum ggmbh, abteilung ingolstadt",münchner straße 135,85051,ingolstadt
asklepios klinikum harburg - osdorf,kroonhorst 11,22549,hamburg
vitos kinder- und jugendpsychiatrische tagesklinik und ambulanz oberursel,obere zeil 2,61440,oberursel
"bezirksklinikum obermain - tagesklinik für psychiatrie, psychotherapie und psychosomatik in kronach",friesener str. 49,96317,kronach
heinrich sengelmann tagesklinik reinbek,kinauweg 9,21465,reinbek
"kbo-heckscher-klinikum ggmbh, abteilung landsberg am lech",bgm.-dr.-hartmann-straße 50,86899,landsberg
"tagesklinik und institutsambulanz für kinder- und jugendpsychiatrie, psychotherapie und psychosomatik im donauisar klinikum deggendorf",perlasberger str. 41,94469,deggendorf
"vitos klinikum rheingau, vitos kinder-und jugendpsychiatrische tagesklinik und ambulanz kelkheim",frankfurter straße 63,65779,kelkheim
"tagesklinik und institutsambulanz für kinder- und jugendpsychiatrie, psychotherapie und psychosomatik im bezirkskrankenhaus passau",wörthstraße 5,94032,passau
vitos klinikum heppenheim standort bensheim,hauptstrasse 87,64625,bensheim
lwl klinik marl-sinsen tagesklinik recklinghausen,herner straße 22,45657,recklinghausen
algesiologikum tagesklinik für schmerzmedizin,hessstr. 22,80799,münchen
lwl klinik marl-sinsen tagesklinik coesfeld,dülmener straße 21-23,48653,coesfeld
lwl klinik marl-sinsen tagesklinik borken,bocholter straße 5,46325,borken
"bezirksklinikum obermain - tagesklinik für psychiatrie, psychotherapie und psychosomatik in coburg",gustav-hirschfeld-ring 9,96450,coburg
gesundheitszentrum bitterfeld/wolfen ggmbh,robert-koch-str. 4,06776,bitterfeld-wolfen
lwl klinik marl-sinsen tagesklinik gronau,bentheimer straße 20,48599,gronau
kbo-inn-salzach-klinikum ebersberg,von-scala-straße 1,85560,ebersberg
bezirkskrankenhaus bayreuth - tagesklinik für kinder- und jugendpsychiatrie und -psychotherapie in hof,eppenreuther str. 9a,95032,hof
bezirkskrankenhaus bayreuth - tagesklinik für kinder- und jugendpsychiatrie und -psychotherapie in coburg,hinterer glockenberg 25c,96450,coburg
kbo-inn-salzach-klinikum rosenheim,freiherr-vom-stein-straße 2,83022,rosenheim
bezirkskrankenhaus bayreuth - tagesklinik für kinder- und jugendpsychiatrie und -psychotherapie in bamberg,buger str. 80,96049,bamberg
"psychiatrische tagesklinik wuppertal - elberfeld, hofkamp 31 - 35",hofkamp 31 - 35,42103,wuppertal
lwl klinik marl-sinsen tagesklinik bottrop,josef-albers-straße 72,46236,bottrop
universitätsmedizin greifswald - tagesklinik psychiatrie,ellernholzstraße 1-2,17489,greifswald
gerontopsychiatrische tagesklinik wuppertal hofaue 52,hofaue 52,42103,wuppertal
psychiatrische tagesklinik wuppertal hofaue 52/wesendonkstr.7,remscheider str. 76,42899,remscheid
suchttagesklinik ulm,wilhelmstraße 22,89073,ulm
tagesklinik für psychiatrie und psychosomatik,lindenstraße 1-3,25746,heide
psychiatrische tagesklinik remscheid,konrad - adenauer - str. 2 - 4,42853,remscheid
heinrich sengelmann tagesklinik uhlenhosrt,winterhuder weg 29-31,22085,hamburg
tagesklinik für psychiatrtie und psychotherapie für erwachsene schwedt/oder,bahnhofstraße 28,16303,schwedt
zfp südwürttemberg weissenau,weingartshofer straße 2,88214,ravensburg
tk ravensburg,nikolausstraße 14,88212,ravensburg
zfp südwürttemberg weissenau,weingartshofer straße 2,88214,ravensburg
lwl-klinik lippstadt/tagesklinik psychiatrie lippstadt,am nordbahnhof 15,59556,lippstadt
lwl-klinik lippstadt/tagesklinik psychiatrie soest,widumgasse 3,59494,soest
sk gmbh-psychosomatische tagesklinik,kurhausstraße 77,23795,bad
"psychiatrische tagesklinik wuppertal - barmen, märkische str. 8",märkische  str. 8,42281,wuppertal
krankenhaus spremberg tagesklinik spremberg,wendenstraße 1,03130,spremberg
tagesklinik biberach,mühlweg 7,88400,biberach
tagesklinik ehingen,spitalstraße 31/2,89584,ehingen
"tagesklinik für psychiatrie, psychotherapie und psychosomatik ""bernstein""",bahnhofstraße 7,16321,bernau
krankenhaus spremberg tagesklinik guben,am gehege 1a,03172,guben
"tagesklinik für psychiatrie, psychotherapie und psychosomatik bad freienwalde",wriezener straße 37,16259,bad
tagesklinik für psychiatrie und psychotherapie für erwachsene templin,robert-koch-straße 24,17268,templin
"abteilung für kinder- und jugendpsychiatrie, psychosomatik und psychotherapie der herz-jesu-krankenhaus fulda ggmbh",am weinberg 19,36251,bad
tagesklinik für psychiatrie und psychotherapie für erwachsene prenzlau,freyschmidtstraße 20a,17291,prenzlau
tagesklinik riedlingen,zwiefalter straße 56b,88499,riedlingen
"familientagesklinik ""koralle"" mit familientherapeutischer ambulanz bernau",hussitenstraße 4,16321,bernau
lwl klinik marl-sinsen tagesklinik herne,ludwigstraße 14,44649,herne
tagesklinik wangen,am engelberg 39,88329,wangen
"tagesklinik für kinder- und jugendpsychiatrie und -psychotherapie aulendorf (im gebäude der schussentalklinik, hintereingang zum park)",safranmoosstraße 5,88326,aulendorf
psychiatrische institutsambulanz kinder und jugendpsychiatrie in der arberlandklinik zwiesel,arberlandstraße 5,94227,zwiesel
tagesklinik und pia für kinder und jugendliche prenzlau,freyschmidtstraße 20,17291,prenzlau
vitos psychiatrische tagesklinik martinshof,liebigstraße 20,35392,gießen
